<?xml version="1.0" encoding="UTF-8"?>
<!-- track-length = 6641 filtered ascend = 21 plain-ascend = -46 cost=10310 energy=0.0kwh time=18m 15s -->
<gpx 
 xmlns="http://www.topografix.com/GPX/1/1" 
 xmlns:xsi="http://www.w3.org/2001/XMLSchema-instance" 
 xsi:schemaLocation="http://www.topografix.com/GPX/1/1 http://www.topografix.com/GPX/1/1/gpx.xsd" 
 version="1.1" 
 creator="BRouter-Web 99.71.0">
 <trk>
  <name>Aubière - Clermont-Ferrand (6.6km)</name>
  <link href="https://brouter.damsy.net/latest/#map=15/45.7622/3.1128/standard,Waymarked_Trails-Cycling&amp;lonlats=3.112397,45.760696;3.128253,45.761488;3.102752,45.780533">
   <text>BRouter-Web</text>
  </link>
  <trkseg>
   <trkpt lat="45.760695" lon="3.112394"><ele>403</ele></trkpt>
   <trkpt lat="45.760699" lon="3.112392"><ele>403.25</ele></trkpt>
   <trkpt lat="45.761175" lon="3.112097"><ele>404.25</ele></trkpt>
   <trkpt lat="45.76129" lon="3.112025"><ele>404.25</ele></trkpt>
   <trkpt lat="45.761502" lon="3.111893"><ele>404</ele></trkpt>
   <trkpt lat="45.76185" lon="3.111676"><ele>403.25</ele></trkpt>
   <trkpt lat="45.761946" lon="3.111616"><ele>403</ele></trkpt>
   <trkpt lat="45.761981" lon="3.111591"><ele>403</ele></trkpt>
   <trkpt lat="45.762127" lon="3.111504"><ele>403</ele></trkpt>
   <trkpt lat="45.762463" lon="3.112591"><ele>402</ele></trkpt>
   <trkpt lat="45.762504" lon="3.112714"><ele>401.75</ele></trkpt>
   <trkpt lat="45.762554" lon="3.112874"><ele>401.5</ele></trkpt>
   <trkpt lat="45.762566" lon="3.112913"><ele>401.5</ele></trkpt>
   <trkpt lat="45.762617" lon="3.11308"><ele>401</ele></trkpt>
   <trkpt lat="45.76264" lon="3.113136"><ele>401</ele></trkpt>
   <trkpt lat="45.762622" lon="3.113169"><ele>401</ele></trkpt>
   <trkpt lat="45.762612" lon="3.113208"><ele>401</ele></trkpt>
   <trkpt lat="45.762613" lon="3.113264"><ele>401</ele></trkpt>
   <trkpt lat="45.762637" lon="3.113322"><ele>401</ele></trkpt>
   <trkpt lat="45.762661" lon="3.113346"><ele>400.75</ele></trkpt>
   <trkpt lat="45.762689" lon="3.113357"><ele>400.75</ele></trkpt>
   <trkpt lat="45.762738" lon="3.113346"><ele>400.75</ele></trkpt>
   <trkpt lat="45.762765" lon="3.113317"><ele>401</ele></trkpt>
   <trkpt lat="45.76278" lon="3.113285"><ele>401</ele></trkpt>
   <trkpt lat="45.762787" lon="3.113249"><ele>401</ele></trkpt>
   <trkpt lat="45.762784" lon="3.113191"><ele>401</ele></trkpt>
   <trkpt lat="45.762823" lon="3.11317"><ele>401</ele></trkpt>
   <trkpt lat="45.762881" lon="3.113143"><ele>401.25</ele></trkpt>
   <trkpt lat="45.763057" lon="3.113066"><ele>401.75</ele></trkpt>
   <trkpt lat="45.763369" lon="3.113049"><ele>401</ele></trkpt>
   <trkpt lat="45.763912" lon="3.113025"><ele>400</ele></trkpt>
   <trkpt lat="45.763957" lon="3.113024"><ele>400</ele></trkpt>
   <trkpt lat="45.764047" lon="3.113038"><ele>400</ele></trkpt>
   <trkpt lat="45.763976" lon="3.113938"><ele>399.5</ele></trkpt>
   <trkpt lat="45.763917" lon="3.114678"><ele>399</ele></trkpt>
   <trkpt lat="45.763893" lon="3.114977"><ele>398</ele></trkpt>
   <trkpt lat="45.763851" lon="3.115472"><ele>398</ele></trkpt>
   <trkpt lat="45.763798" lon="3.116168"><ele>397</ele></trkpt>
   <trkpt lat="45.763792" lon="3.116249"><ele>396.75</ele></trkpt>
   <trkpt lat="45.763788" lon="3.116291"><ele>396.5</ele></trkpt>
   <trkpt lat="45.763766" lon="3.116563"><ele>396</ele></trkpt>
   <trkpt lat="45.763712" lon="3.1172"><ele>395</ele></trkpt>
   <trkpt lat="45.763688" lon="3.117365"><ele>394</ele></trkpt>
   <trkpt lat="45.763655" lon="3.117526"><ele>393</ele></trkpt>
   <trkpt lat="45.763615" lon="3.117684"><ele>392.25</ele></trkpt>
   <trkpt lat="45.763567" lon="3.117836"><ele>392.25</ele></trkpt>
   <trkpt lat="45.763511" lon="3.117985"><ele>391.75</ele></trkpt>
   <trkpt lat="45.763416" lon="3.118188"><ele>390.25</ele></trkpt>
   <trkpt lat="45.763301" lon="3.118391"><ele>388.5</ele></trkpt>
   <trkpt lat="45.763218" lon="3.118512"><ele>387.75</ele></trkpt>
   <trkpt lat="45.76313" lon="3.118624"><ele>386.25</ele></trkpt>
   <trkpt lat="45.763038" lon="3.118727"><ele>386</ele></trkpt>
   <trkpt lat="45.762941" lon="3.118821"><ele>385.5</ele></trkpt>
   <trkpt lat="45.762736" lon="3.118985"><ele>383.75</ele></trkpt>
   <trkpt lat="45.761829" lon="3.119659"><ele>378</ele></trkpt>
   <trkpt lat="45.761511" lon="3.119917"><ele>375.5</ele></trkpt>
   <trkpt lat="45.761404" lon="3.120004"><ele>374.75</ele></trkpt>
   <trkpt lat="45.761267" lon="3.12013"><ele>374.25</ele></trkpt>
   <trkpt lat="45.761115" lon="3.120292"><ele>372.75</ele></trkpt>
   <trkpt lat="45.761083" lon="3.12033"><ele>372.5</ele></trkpt>
   <trkpt lat="45.761065" lon="3.120353"><ele>372.25</ele></trkpt>
   <trkpt lat="45.761042" lon="3.120382"><ele>372</ele></trkpt>
   <trkpt lat="45.760939" lon="3.120503"><ele>371.25</ele></trkpt>
   <trkpt lat="45.760876" lon="3.120579"><ele>370.75</ele></trkpt>
   <trkpt lat="45.760749" lon="3.120768"><ele>370.25</ele></trkpt>
   <trkpt lat="45.760607" lon="3.121016"><ele>369.5</ele></trkpt>
   <trkpt lat="45.760288" lon="3.121645"><ele>368</ele></trkpt>
   <trkpt lat="45.760119" lon="3.121981"><ele>367</ele></trkpt>
   <trkpt lat="45.760092" lon="3.122031"><ele>367</ele></trkpt>
   <trkpt lat="45.759999" lon="3.122217"><ele>367</ele></trkpt>
   <trkpt lat="45.759816" lon="3.12255"><ele>366.25</ele></trkpt>
   <trkpt lat="45.759707" lon="3.122753"><ele>366</ele></trkpt>
   <trkpt lat="45.759651" lon="3.122868"><ele>366</ele></trkpt>
   <trkpt lat="45.758358" lon="3.125365"><ele>360.75</ele></trkpt>
   <trkpt lat="45.758311" lon="3.125466"><ele>360.25</ele></trkpt>
   <trkpt lat="45.757934" lon="3.126194"><ele>357.75</ele></trkpt>
   <trkpt lat="45.757601" lon="3.126842"><ele>357</ele></trkpt>
   <trkpt lat="45.757551" lon="3.12694"><ele>357</ele></trkpt>
   <trkpt lat="45.757509" lon="3.127016"><ele>357</ele></trkpt>
   <trkpt lat="45.757466" lon="3.127085"><ele>357.5</ele></trkpt>
   <trkpt lat="45.757463" lon="3.127199"><ele>357.75</ele></trkpt>
   <trkpt lat="45.757473" lon="3.127301"><ele>358</ele></trkpt>
   <trkpt lat="45.757519" lon="3.127389"><ele>357.75</ele></trkpt>
   <trkpt lat="45.757651" lon="3.127514"><ele>357.25</ele></trkpt>
   <trkpt lat="45.757685" lon="3.127502"><ele>357.25</ele></trkpt>
   <trkpt lat="45.758035" lon="3.127382"><ele>357</ele></trkpt>
   <trkpt lat="45.758161" lon="3.127339"><ele>356.75</ele></trkpt>
   <trkpt lat="45.75856" lon="3.127235"><ele>356</ele></trkpt>
   <trkpt lat="45.75934" lon="3.127064"><ele>356</ele></trkpt>
   <trkpt lat="45.759923" lon="3.126911"><ele>356</ele></trkpt>
   <trkpt lat="45.760477" lon="3.126756"><ele>357.75</ele></trkpt>
   <trkpt lat="45.760688" lon="3.12682"><ele>358.5</ele></trkpt>
   <trkpt lat="45.760911" lon="3.126801"><ele>358.25</ele></trkpt>
   <trkpt lat="45.761127" lon="3.126753"><ele>358.5</ele></trkpt>
   <trkpt lat="45.761146" lon="3.12686"><ele>358.25</ele></trkpt>
   <trkpt lat="45.761223" lon="3.126835"><ele>358.25</ele></trkpt>
   <trkpt lat="45.761459" lon="3.128167"><ele>356</ele></trkpt>
   <trkpt lat="45.761471" lon="3.128162"><ele>356</ele></trkpt>
   <trkpt lat="45.761604" lon="3.128114"><ele>356</ele></trkpt>
   <trkpt lat="45.76176" lon="3.128057"><ele>356</ele></trkpt>
   <trkpt lat="45.761893" lon="3.128009"><ele>356</ele></trkpt>
   <trkpt lat="45.762047" lon="3.127954"><ele>355.75</ele></trkpt>
   <trkpt lat="45.7622" lon="3.127902"><ele>355.25</ele></trkpt>
   <trkpt lat="45.762235" lon="3.128087"><ele>355.75</ele></trkpt>
   <trkpt lat="45.762247" lon="3.128143"><ele>355.25</ele></trkpt>
   <trkpt lat="45.762297" lon="3.128438"><ele>353.5</ele></trkpt>
   <trkpt lat="45.762328" lon="3.128525"><ele>352.75</ele></trkpt>
   <trkpt lat="45.76237" lon="3.128595"><ele>352</ele></trkpt>
   <trkpt lat="45.762423" lon="3.128661"><ele>351.5</ele></trkpt>
   <trkpt lat="45.762491" lon="3.128712"><ele>351.25</ele></trkpt>
   <trkpt lat="45.762689" lon="3.128813"><ele>350.5</ele></trkpt>
   <trkpt lat="45.76271" lon="3.128824"><ele>350.25</ele></trkpt>
   <trkpt lat="45.762733" lon="3.128836"><ele>350.25</ele></trkpt>
   <trkpt lat="45.762823" lon="3.128904"><ele>349.75</ele></trkpt>
   <trkpt lat="45.762902" lon="3.128986"><ele>349.25</ele></trkpt>
   <trkpt lat="45.762933" lon="3.129034"><ele>349</ele></trkpt>
   <trkpt lat="45.762938" lon="3.129041"><ele>349</ele></trkpt>
   <trkpt lat="45.762954" lon="3.129012"><ele>349</ele></trkpt>
   <trkpt lat="45.763037" lon="3.12886"><ele>348.75</ele></trkpt>
   <trkpt lat="45.763053" lon="3.128831"><ele>348.5</ele></trkpt>
   <trkpt lat="45.763198" lon="3.128571"><ele>348</ele></trkpt>
   <trkpt lat="45.763214" lon="3.128544"><ele>348.25</ele></trkpt>
   <trkpt lat="45.763238" lon="3.128503"><ele>348.5</ele></trkpt>
   <trkpt lat="45.763311" lon="3.128376"><ele>349</ele></trkpt>
   <trkpt lat="45.763751" lon="3.127567"><ele>348.25</ele></trkpt>
   <trkpt lat="45.763835" lon="3.127448"><ele>348.25</ele></trkpt>
   <trkpt lat="45.763885" lon="3.127322"><ele>348.5</ele></trkpt>
   <trkpt lat="45.763997" lon="3.127129"><ele>348.5</ele></trkpt>
   <trkpt lat="45.764083" lon="3.126961"><ele>348.25</ele></trkpt>
   <trkpt lat="45.764167" lon="3.126773"><ele>348.5</ele></trkpt>
   <trkpt lat="45.764271" lon="3.126502"><ele>348.25</ele></trkpt>
   <trkpt lat="45.764352" lon="3.126313"><ele>348.5</ele></trkpt>
   <trkpt lat="45.764455" lon="3.126142"><ele>348.75</ele></trkpt>
   <trkpt lat="45.764514" lon="3.126025"><ele>348.75</ele></trkpt>
   <trkpt lat="45.764536" lon="3.125961"><ele>348.75</ele></trkpt>
   <trkpt lat="45.764563" lon="3.125912"><ele>348.75</ele></trkpt>
   <trkpt lat="45.764571" lon="3.125875"><ele>348.75</ele></trkpt>
   <trkpt lat="45.764561" lon="3.125748"><ele>349</ele></trkpt>
   <trkpt lat="45.764549" lon="3.125619"><ele>349</ele></trkpt>
   <trkpt lat="45.764532" lon="3.125466"><ele>349</ele></trkpt>
   <trkpt lat="45.764532" lon="3.125443"><ele>349</ele></trkpt>
   <trkpt lat="45.76454" lon="3.125323"><ele>349</ele></trkpt>
   <trkpt lat="45.764598" lon="3.125028"><ele>349</ele></trkpt>
   <trkpt lat="45.76461" lon="3.124936"><ele>349</ele></trkpt>
   <trkpt lat="45.764607" lon="3.12493"><ele>349</ele></trkpt>
   <trkpt lat="45.764593" lon="3.1249"><ele>349</ele></trkpt>
   <trkpt lat="45.764603" lon="3.124862"><ele>349</ele></trkpt>
   <trkpt lat="45.764753" lon="3.124319"><ele>349.75</ele></trkpt>
   <trkpt lat="45.764766" lon="3.124274"><ele>349.75</ele></trkpt>
   <trkpt lat="45.764823" lon="3.124062"><ele>350</ele></trkpt>
   <trkpt lat="45.764925" lon="3.123683"><ele>350</ele></trkpt>
   <trkpt lat="45.765001" lon="3.123404"><ele>350.5</ele></trkpt>
   <trkpt lat="45.765014" lon="3.123357"><ele>350.75</ele></trkpt>
   <trkpt lat="45.76502" lon="3.123335"><ele>350.75</ele></trkpt>
   <trkpt lat="45.765073" lon="3.123137"><ele>351</ele></trkpt>
   <trkpt lat="45.765077" lon="3.123064"><ele>351</ele></trkpt>
   <trkpt lat="45.765065" lon="3.12302"><ele>351</ele></trkpt>
   <trkpt lat="45.765094" lon="3.122912"><ele>351.75</ele></trkpt>
   <trkpt lat="45.765127" lon="3.12281"><ele>352.25</ele></trkpt>
   <trkpt lat="45.765176" lon="3.12266"><ele>352.5</ele></trkpt>
   <trkpt lat="45.765191" lon="3.122613"><ele>352.5</ele></trkpt>
   <trkpt lat="45.76523" lon="3.122495"><ele>353</ele></trkpt>
   <trkpt lat="45.765323" lon="3.122268"><ele>353.75</ele></trkpt>
   <trkpt lat="45.765379" lon="3.122173"><ele>354.25</ele></trkpt>
   <trkpt lat="45.765458" lon="3.122042"><ele>355.25</ele></trkpt>
   <trkpt lat="45.765528" lon="3.121951"><ele>355.75</ele></trkpt>
   <trkpt lat="45.765623" lon="3.121845"><ele>356.75</ele></trkpt>
   <trkpt lat="45.765785" lon="3.121685"><ele>358.5</ele></trkpt>
   <trkpt lat="45.765837" lon="3.121628"><ele>359</ele></trkpt>
   <trkpt lat="45.765868" lon="3.121597"><ele>359.25</ele></trkpt>
   <trkpt lat="45.765884" lon="3.121581"><ele>359.25</ele></trkpt>
   <trkpt lat="45.765937" lon="3.12153"><ele>359.5</ele></trkpt>
   <trkpt lat="45.766131" lon="3.12135"><ele>361.25</ele></trkpt>
   <trkpt lat="45.766183" lon="3.121319"><ele>361.75</ele></trkpt>
   <trkpt lat="45.766444" lon="3.121036"><ele>365.25</ele></trkpt>
   <trkpt lat="45.766612" lon="3.120872"><ele>366.25</ele></trkpt>
   <trkpt lat="45.766686" lon="3.120793"><ele>366</ele></trkpt>
   <trkpt lat="45.766713" lon="3.120762"><ele>366.25</ele></trkpt>
   <trkpt lat="45.766796" lon="3.120657"><ele>367</ele></trkpt>
   <trkpt lat="45.76694" lon="3.120437"><ele>368</ele></trkpt>
   <trkpt lat="45.766984" lon="3.120361"><ele>368</ele></trkpt>
   <trkpt lat="45.767198" lon="3.120032"><ele>369</ele></trkpt>
   <trkpt lat="45.767344" lon="3.11979"><ele>370</ele></trkpt>
   <trkpt lat="45.767511" lon="3.119527"><ele>369.75</ele></trkpt>
   <trkpt lat="45.767685" lon="3.119233"><ele>370.5</ele></trkpt>
   <trkpt lat="45.767764" lon="3.119074"><ele>370.25</ele></trkpt>
   <trkpt lat="45.767781" lon="3.11904"><ele>370.25</ele></trkpt>
   <trkpt lat="45.767936" lon="3.118738"><ele>371</ele></trkpt>
   <trkpt lat="45.767977" lon="3.118642"><ele>371.25</ele></trkpt>
   <trkpt lat="45.768304" lon="3.117996"><ele>370.25</ele></trkpt>
   <trkpt lat="45.76862" lon="3.117365"><ele>370.25</ele></trkpt>
   <trkpt lat="45.768917" lon="3.116787"><ele>369.5</ele></trkpt>
   <trkpt lat="45.768958" lon="3.116704"><ele>369.5</ele></trkpt>
   <trkpt lat="45.769016" lon="3.116589"><ele>369.5</ele></trkpt>
   <trkpt lat="45.769037" lon="3.116547"><ele>369.5</ele></trkpt>
   <trkpt lat="45.769041" lon="3.116535"><ele>369.5</ele></trkpt>
   <trkpt lat="45.769072" lon="3.116449"><ele>369.5</ele></trkpt>
   <trkpt lat="45.769123" lon="3.116348"><ele>369.25</ele></trkpt>
   <trkpt lat="45.769235" lon="3.116128"><ele>369.5</ele></trkpt>
   <trkpt lat="45.769314" lon="3.115966"><ele>369.25</ele></trkpt>
   <trkpt lat="45.76934" lon="3.115912"><ele>369.25</ele></trkpt>
   <trkpt lat="45.769368" lon="3.115854"><ele>369.25</ele></trkpt>
   <trkpt lat="45.76939" lon="3.11581"><ele>369</ele></trkpt>
   <trkpt lat="45.769409" lon="3.115772"><ele>369</ele></trkpt>
   <trkpt lat="45.769432" lon="3.115699"><ele>369</ele></trkpt>
   <trkpt lat="45.76949" lon="3.115511"><ele>368.75</ele></trkpt>
   <trkpt lat="45.769522" lon="3.115342"><ele>368.5</ele></trkpt>
   <trkpt lat="45.769539" lon="3.1152"><ele>368.25</ele></trkpt>
   <trkpt lat="45.769536" lon="3.114953"><ele>367.5</ele></trkpt>
   <trkpt lat="45.76953" lon="3.114901"><ele>367.5</ele></trkpt>
   <trkpt lat="45.7695" lon="3.114711"><ele>367.75</ele></trkpt>
   <trkpt lat="45.769463" lon="3.1145"><ele>367</ele></trkpt>
   <trkpt lat="45.769458" lon="3.114473"><ele>367</ele></trkpt>
   <trkpt lat="45.769451" lon="3.114428"><ele>366.75</ele></trkpt>
   <trkpt lat="45.769445" lon="3.114396"><ele>366.75</ele></trkpt>
   <trkpt lat="45.769325" lon="3.113721"><ele>366.25</ele></trkpt>
   <trkpt lat="45.76931" lon="3.113617"><ele>366.25</ele></trkpt>
   <trkpt lat="45.769301" lon="3.113433"><ele>366.5</ele></trkpt>
   <trkpt lat="45.769312" lon="3.113272"><ele>366.5</ele></trkpt>
   <trkpt lat="45.769396" lon="3.11285"><ele>367</ele></trkpt>
   <trkpt lat="45.769552" lon="3.112151"><ele>369.25</ele></trkpt>
   <trkpt lat="45.769558" lon="3.112123"><ele>369.25</ele></trkpt>
   <trkpt lat="45.769563" lon="3.1121"><ele>369.25</ele></trkpt>
   <trkpt lat="45.769573" lon="3.112057"><ele>369.25</ele></trkpt>
   <trkpt lat="45.76961" lon="3.111861"><ele>369.75</ele></trkpt>
   <trkpt lat="45.769635" lon="3.111711"><ele>370.25</ele></trkpt>
   <trkpt lat="45.76964" lon="3.111689"><ele>370.25</ele></trkpt>
   <trkpt lat="45.769645" lon="3.11166"><ele>370.5</ele></trkpt>
   <trkpt lat="45.769665" lon="3.111556"><ele>370.25</ele></trkpt>
   <trkpt lat="45.769676" lon="3.111501"><ele>370.25</ele></trkpt>
   <trkpt lat="45.769743" lon="3.111192"><ele>370.5</ele></trkpt>
   <trkpt lat="45.769761" lon="3.111111"><ele>371</ele></trkpt>
   <trkpt lat="45.769819" lon="3.110856"><ele>372</ele></trkpt>
   <trkpt lat="45.769854" lon="3.110711"><ele>372.25</ele></trkpt>
   <trkpt lat="45.769907" lon="3.110509"><ele>372.75</ele></trkpt>
   <trkpt lat="45.77" lon="3.110061"><ele>371.75</ele></trkpt>
   <trkpt lat="45.770088" lon="3.109637"><ele>370.5</ele></trkpt>
   <trkpt lat="45.770108" lon="3.109462"><ele>370.25</ele></trkpt>
   <trkpt lat="45.770118" lon="3.10927"><ele>371</ele></trkpt>
   <trkpt lat="45.77012" lon="3.109084"><ele>371</ele></trkpt>
   <trkpt lat="45.770075" lon="3.108364"><ele>368</ele></trkpt>
   <trkpt lat="45.770071" lon="3.108253"><ele>367.25</ele></trkpt>
   <trkpt lat="45.770066" lon="3.108131"><ele>366.75</ele></trkpt>
   <trkpt lat="45.770064" lon="3.107906"><ele>366</ele></trkpt>
   <trkpt lat="45.770087" lon="3.107585"><ele>365.5</ele></trkpt>
   <trkpt lat="45.77012" lon="3.107155"><ele>365.75</ele></trkpt>
   <trkpt lat="45.770126" lon="3.107089"><ele>365.75</ele></trkpt>
   <trkpt lat="45.77015" lon="3.106927"><ele>365.75</ele></trkpt>
   <trkpt lat="45.770172" lon="3.106786"><ele>365.75</ele></trkpt>
   <trkpt lat="45.77022" lon="3.106503"><ele>365.75</ele></trkpt>
   <trkpt lat="45.770259" lon="3.106318"><ele>365.25</ele></trkpt>
   <trkpt lat="45.77028" lon="3.106207"><ele>364.75</ele></trkpt>
   <trkpt lat="45.770407" lon="3.105457"><ele>364</ele></trkpt>
   <trkpt lat="45.77043" lon="3.105298"><ele>365.5</ele></trkpt>
   <trkpt lat="45.770456" lon="3.105125"><ele>365</ele></trkpt>
   <trkpt lat="45.77047" lon="3.105026"><ele>364.5</ele></trkpt>
   <trkpt lat="45.770538" lon="3.104533"><ele>364.25</ele></trkpt>
   <trkpt lat="45.770705" lon="3.103696"><ele>364.75</ele></trkpt>
   <trkpt lat="45.770773" lon="3.103424"><ele>364.75</ele></trkpt>
   <trkpt lat="45.770816" lon="3.103255"><ele>364.25</ele></trkpt>
   <trkpt lat="45.77087" lon="3.103033"><ele>364.25</ele></trkpt>
   <trkpt lat="45.770945" lon="3.102725"><ele>364.25</ele></trkpt>
   <trkpt lat="45.770953" lon="3.102694"><ele>364.25</ele></trkpt>
   <trkpt lat="45.770958" lon="3.102662"><ele>364.5</ele></trkpt>
   <trkpt lat="45.770972" lon="3.10258"><ele>364.5</ele></trkpt>
   <trkpt lat="45.771029" lon="3.102324"><ele>365</ele></trkpt>
   <trkpt lat="45.771039" lon="3.10223"><ele>365</ele></trkpt>
   <trkpt lat="45.771045" lon="3.102201"><ele>365.25</ele></trkpt>
   <trkpt lat="45.771049" lon="3.102173"><ele>365.25</ele></trkpt>
   <trkpt lat="45.771099" lon="3.101857"><ele>366</ele></trkpt>
   <trkpt lat="45.771136" lon="3.101657"><ele>365.75</ele></trkpt>
   <trkpt lat="45.771181" lon="3.101501"><ele>367.25</ele></trkpt>
   <trkpt lat="45.771218" lon="3.101422"><ele>367.75</ele></trkpt>
   <trkpt lat="45.771289" lon="3.101301"><ele>367.5</ele></trkpt>
   <trkpt lat="45.771463" lon="3.101027"><ele>367.25</ele></trkpt>
   <trkpt lat="45.77155" lon="3.100897"><ele>367.5</ele></trkpt>
   <trkpt lat="45.771655" lon="3.100741"><ele>367.25</ele></trkpt>
   <trkpt lat="45.771812" lon="3.100535"><ele>367</ele></trkpt>
   <trkpt lat="45.771834" lon="3.100511"><ele>367</ele></trkpt>
   <trkpt lat="45.771888" lon="3.100439"><ele>367</ele></trkpt>
   <trkpt lat="45.771987" lon="3.100315"><ele>367.25</ele></trkpt>
   <trkpt lat="45.772169" lon="3.100069"><ele>367.25</ele></trkpt>
   <trkpt lat="45.772188" lon="3.100037"><ele>367</ele></trkpt>
   <trkpt lat="45.772223" lon="3.099984"><ele>367</ele></trkpt>
   <trkpt lat="45.772277" lon="3.099885"><ele>367.75</ele></trkpt>
   <trkpt lat="45.772628" lon="3.09926"><ele>369.25</ele></trkpt>
   <trkpt lat="45.772751" lon="3.099049"><ele>368.75</ele></trkpt>
   <trkpt lat="45.772983" lon="3.0987"><ele>368.75</ele></trkpt>
   <trkpt lat="45.773043" lon="3.098621"><ele>369</ele></trkpt>
   <trkpt lat="45.773215" lon="3.098357"><ele>368</ele></trkpt>
   <trkpt lat="45.773238" lon="3.098323"><ele>368</ele></trkpt>
   <trkpt lat="45.773338" lon="3.098163"><ele>367.5</ele></trkpt>
   <trkpt lat="45.773377" lon="3.098101"><ele>367.5</ele></trkpt>
   <trkpt lat="45.773517" lon="3.097929"><ele>367.75</ele></trkpt>
   <trkpt lat="45.773679" lon="3.097673"><ele>367.75</ele></trkpt>
   <trkpt lat="45.773697" lon="3.097645"><ele>367.5</ele></trkpt>
   <trkpt lat="45.773712" lon="3.097621"><ele>367.5</ele></trkpt>
   <trkpt lat="45.773759" lon="3.097529"><ele>367.25</ele></trkpt>
   <trkpt lat="45.773859" lon="3.097343"><ele>367.5</ele></trkpt>
   <trkpt lat="45.773876" lon="3.097317"><ele>367.5</ele></trkpt>
   <trkpt lat="45.773894" lon="3.097292"><ele>367.5</ele></trkpt>
   <trkpt lat="45.774116" lon="3.096977"><ele>367</ele></trkpt>
   <trkpt lat="45.774245" lon="3.096789"><ele>365.5</ele></trkpt>
   <trkpt lat="45.774431" lon="3.096521"><ele>365</ele></trkpt>
   <trkpt lat="45.774492" lon="3.096441"><ele>366.75</ele></trkpt>
   <trkpt lat="45.774783" lon="3.096044"><ele>366.75</ele></trkpt>
   <trkpt lat="45.774861" lon="3.095941"><ele>366.5</ele></trkpt>
   <trkpt lat="45.774872" lon="3.095927"><ele>366.25</ele></trkpt>
   <trkpt lat="45.774878" lon="3.095919"><ele>366.25</ele></trkpt>
   <trkpt lat="45.774864" lon="3.095872"><ele>366.25</ele></trkpt>
   <trkpt lat="45.774864" lon="3.095843"><ele>366.25</ele></trkpt>
   <trkpt lat="45.774881" lon="3.095721"><ele>366.25</ele></trkpt>
   <trkpt lat="45.774888" lon="3.095675"><ele>366.25</ele></trkpt>
   <trkpt lat="45.775029" lon="3.095727"><ele>365.75</ele></trkpt>
   <trkpt lat="45.775144" lon="3.095686"><ele>365.75</ele></trkpt>
   <trkpt lat="45.775196" lon="3.095646"><ele>365.75</ele></trkpt>
   <trkpt lat="45.775216" lon="3.095624"><ele>365.75</ele></trkpt>
   <trkpt lat="45.775281" lon="3.095711"><ele>365.25</ele></trkpt>
   <trkpt lat="45.77538" lon="3.095807"><ele>365</ele></trkpt>
   <trkpt lat="45.775492" lon="3.09588"><ele>365</ele></trkpt>
   <trkpt lat="45.775582" lon="3.095898"><ele>365</ele></trkpt>
   <trkpt lat="45.775588" lon="3.095899"><ele>365</ele></trkpt>
   <trkpt lat="45.775696" lon="3.095918"><ele>365</ele></trkpt>
   <trkpt lat="45.776002" lon="3.095947"><ele>364.75</ele></trkpt>
   <trkpt lat="45.776052" lon="3.095943"><ele>364.5</ele></trkpt>
   <trkpt lat="45.776123" lon="3.095907"><ele>364.75</ele></trkpt>
   <trkpt lat="45.776227" lon="3.095914"><ele>365</ele></trkpt>
   <trkpt lat="45.776289" lon="3.095916"><ele>365.25</ele></trkpt>
   <trkpt lat="45.776343" lon="3.095995"><ele>365.25</ele></trkpt>
   <trkpt lat="45.777033" lon="3.096108"><ele>364.25</ele></trkpt>
   <trkpt lat="45.777073" lon="3.096109"><ele>364.25</ele></trkpt>
   <trkpt lat="45.777179" lon="3.096088"><ele>364.75</ele></trkpt>
   <trkpt lat="45.777217" lon="3.09608"><ele>364.75</ele></trkpt>
   <trkpt lat="45.777307" lon="3.096087"><ele>365</ele></trkpt>
   <trkpt lat="45.777394" lon="3.096096"><ele>365</ele></trkpt>
   <trkpt lat="45.777393" lon="3.096211"><ele>364.75</ele></trkpt>
   <trkpt lat="45.777388" lon="3.096438"><ele>364.25</ele></trkpt>
   <trkpt lat="45.777414" lon="3.096578"><ele>364</ele></trkpt>
   <trkpt lat="45.777454" lon="3.096696"><ele>363.75</ele></trkpt>
   <trkpt lat="45.777508" lon="3.096827"><ele>363.25</ele></trkpt>
   <trkpt lat="45.777682" lon="3.09719"><ele>363</ele></trkpt>
   <trkpt lat="45.777761" lon="3.097349"><ele>362.5</ele></trkpt>
   <trkpt lat="45.778235" lon="3.098273"><ele>360.25</ele></trkpt>
   <trkpt lat="45.778586" lon="3.098951"><ele>358.75</ele></trkpt>
   <trkpt lat="45.778672" lon="3.099115"><ele>359</ele></trkpt>
   <trkpt lat="45.778716" lon="3.0992"><ele>358.75</ele></trkpt>
   <trkpt lat="45.778742" lon="3.099255"><ele>358.75</ele></trkpt>
   <trkpt lat="45.778942" lon="3.09968"><ele>358</ele></trkpt>
   <trkpt lat="45.778955" lon="3.099709"><ele>358</ele></trkpt>
   <trkpt lat="45.778966" lon="3.099789"><ele>358</ele></trkpt>
   <trkpt lat="45.778982" lon="3.099831"><ele>358</ele></trkpt>
   <trkpt lat="45.779061" lon="3.099985"><ele>358</ele></trkpt>
   <trkpt lat="45.779131" lon="3.100059"><ele>358</ele></trkpt>
   <trkpt lat="45.779222" lon="3.100228"><ele>358</ele></trkpt>
   <trkpt lat="45.779386" lon="3.100561"><ele>358</ele></trkpt>
   <trkpt lat="45.779472" lon="3.100704"><ele>358</ele></trkpt>
   <trkpt lat="45.779508" lon="3.10077"><ele>358</ele></trkpt>
   <trkpt lat="45.779563" lon="3.100863"><ele>358</ele></trkpt>
   <trkpt lat="45.77975" lon="3.101228"><ele>358</ele></trkpt>
   <trkpt lat="45.779956" lon="3.101642"><ele>358</ele></trkpt>
   <trkpt lat="45.780526" lon="3.102758"><ele>355</ele></trkpt>
  </trkseg>
 </trk>
</gpx>