<?xml version="1.0" encoding="UTF-8"?>
<!-- track-length = 30048 filtered ascend = 665 plain-ascend = 7 cost=85730 energy=0.2kwh time=2h 28m 32s -->
<gpx 
 xmlns="http://www.topografix.com/GPX/1/1" 
 xmlns:xsi="http://www.w3.org/2001/XMLSchema-instance" 
 xsi:schemaLocation="http://www.topografix.com/GPX/1/1 http://www.topografix.com/GPX/1/1/gpx.xsd" 
 version="1.1" 
 creator="BRouter-Web 0.18.1">
 <trk>
  <name>first (30km)</name>
  <trkseg>
   <trkpt lat="45.78073" lon="3.103154"><ele>356</ele></trkpt>
   <trkpt lat="45.779956" lon="3.101642"><ele>358</ele></trkpt>
   <trkpt lat="45.77975" lon="3.101228"><ele>358</ele></trkpt>
   <trkpt lat="45.779563" lon="3.100863"><ele>358</ele></trkpt>
   <trkpt lat="45.779508" lon="3.10077"><ele>358</ele></trkpt>
   <trkpt lat="45.779472" lon="3.100704"><ele>358</ele></trkpt>
   <trkpt lat="45.779386" lon="3.100561"><ele>358</ele></trkpt>
   <trkpt lat="45.779222" lon="3.100228"><ele>358</ele></trkpt>
   <trkpt lat="45.779131" lon="3.100059"><ele>358</ele></trkpt>
   <trkpt lat="45.779061" lon="3.099985"><ele>358</ele></trkpt>
   <trkpt lat="45.778982" lon="3.099831"><ele>358</ele></trkpt>
   <trkpt lat="45.778966" lon="3.099789"><ele>358</ele></trkpt>
   <trkpt lat="45.778955" lon="3.099709"><ele>358</ele></trkpt>
   <trkpt lat="45.778942" lon="3.09968"><ele>358</ele></trkpt>
   <trkpt lat="45.778742" lon="3.099255"><ele>358.75</ele></trkpt>
   <trkpt lat="45.778716" lon="3.0992"><ele>358.75</ele></trkpt>
   <trkpt lat="45.778763" lon="3.099147"><ele>359</ele></trkpt>
   <trkpt lat="45.778842" lon="3.099055"><ele>359.25</ele></trkpt>
   <trkpt lat="45.778858" lon="3.099009"><ele>359.5</ele></trkpt>
   <trkpt lat="45.778883" lon="3.09869"><ele>359.75</ele></trkpt>
   <trkpt lat="45.778992" lon="3.097711"><ele>362</ele></trkpt>
   <trkpt lat="45.779042" lon="3.097184"><ele>364</ele></trkpt>
   <trkpt lat="45.779142" lon="3.096065"><ele>367</ele></trkpt>
   <trkpt lat="45.779154" lon="3.095941"><ele>367</ele></trkpt>
   <trkpt lat="45.779163" lon="3.095876"><ele>367</ele></trkpt>
   <trkpt lat="45.779208" lon="3.095869"><ele>366.75</ele></trkpt>
   <trkpt lat="45.779233" lon="3.095865"><ele>366.75</ele></trkpt>
   <trkpt lat="45.779654" lon="3.095799"><ele>367</ele></trkpt>
   <trkpt lat="45.779736" lon="3.095787"><ele>367</ele></trkpt>
   <trkpt lat="45.77981" lon="3.095774"><ele>367</ele></trkpt>
   <trkpt lat="45.780636" lon="3.095631"><ele>365.5</ele></trkpt>
   <trkpt lat="45.781034" lon="3.095562"><ele>364.25</ele></trkpt>
   <trkpt lat="45.781301" lon="3.095516"><ele>363.25</ele></trkpt>
   <trkpt lat="45.782042" lon="3.095383"><ele>361.75</ele></trkpt>
   <trkpt lat="45.782069" lon="3.095374"><ele>361.75</ele></trkpt>
   <trkpt lat="45.782082" lon="3.095369"><ele>361.75</ele></trkpt>
   <trkpt lat="45.782084" lon="3.095297"><ele>361.75</ele></trkpt>
   <trkpt lat="45.7821" lon="3.095228"><ele>362</ele></trkpt>
   <trkpt lat="45.782128" lon="3.095172"><ele>362</ele></trkpt>
   <trkpt lat="45.782172" lon="3.095123"><ele>362</ele></trkpt>
   <trkpt lat="45.782225" lon="3.095097"><ele>361.75</ele></trkpt>
   <trkpt lat="45.782281" lon="3.095097"><ele>361.75</ele></trkpt>
   <trkpt lat="45.782334" lon="3.095122"><ele>361.5</ele></trkpt>
   <trkpt lat="45.782348" lon="3.095102"><ele>361.5</ele></trkpt>
   <trkpt lat="45.782393" lon="3.095041"><ele>361.25</ele></trkpt>
   <trkpt lat="45.782431" lon="3.094972"><ele>361</ele></trkpt>
   <trkpt lat="45.782539" lon="3.094829"><ele>360</ele></trkpt>
   <trkpt lat="45.782587" lon="3.094777"><ele>359.75</ele></trkpt>
   <trkpt lat="45.782688" lon="3.094689"><ele>359.5</ele></trkpt>
   <trkpt lat="45.782931" lon="3.094523"><ele>359.75</ele></trkpt>
   <trkpt lat="45.783026" lon="3.094485"><ele>359.75</ele></trkpt>
   <trkpt lat="45.783205" lon="3.09443"><ele>359.25</ele></trkpt>
   <trkpt lat="45.783325" lon="3.094413"><ele>359</ele></trkpt>
   <trkpt lat="45.78342" lon="3.094389"><ele>358.75</ele></trkpt>
   <trkpt lat="45.783449" lon="3.094374"><ele>359</ele></trkpt>
   <trkpt lat="45.783508" lon="3.094333"><ele>359</ele></trkpt>
   <trkpt lat="45.784172" lon="3.093839"><ele>358</ele></trkpt>
   <trkpt lat="45.785284" lon="3.093023"><ele>359</ele></trkpt>
   <trkpt lat="45.785458" lon="3.092886"><ele>359.75</ele></trkpt>
   <trkpt lat="45.785644" lon="3.092712"><ele>360</ele></trkpt>
   <trkpt lat="45.785728" lon="3.092626"><ele>360</ele></trkpt>
   <trkpt lat="45.785797" lon="3.092549"><ele>360</ele></trkpt>
   <trkpt lat="45.785858" lon="3.092473"><ele>360</ele></trkpt>
   <trkpt lat="45.786004" lon="3.092306"><ele>360.75</ele></trkpt>
   <trkpt lat="45.786154" lon="3.092082"><ele>361.5</ele></trkpt>
   <trkpt lat="45.786314" lon="3.09178"><ele>362</ele></trkpt>
   <trkpt lat="45.786393" lon="3.091598"><ele>362</ele></trkpt>
   <trkpt lat="45.78646" lon="3.091413"><ele>362</ele></trkpt>
   <trkpt lat="45.786561" lon="3.091074"><ele>363</ele></trkpt>
   <trkpt lat="45.786638" lon="3.090774"><ele>363</ele></trkpt>
   <trkpt lat="45.786679" lon="3.090564"><ele>364</ele></trkpt>
   <trkpt lat="45.786719" lon="3.090193"><ele>364</ele></trkpt>
   <trkpt lat="45.786748" lon="3.089797"><ele>364.75</ele></trkpt>
   <trkpt lat="45.786749" lon="3.089718"><ele>365</ele></trkpt>
   <trkpt lat="45.786714" lon="3.089679"><ele>365</ele></trkpt>
   <trkpt lat="45.786694" lon="3.089657"><ele>365</ele></trkpt>
   <trkpt lat="45.786692" lon="3.089558"><ele>365.5</ele></trkpt>
   <trkpt lat="45.786673" lon="3.089555"><ele>365.5</ele></trkpt>
   <trkpt lat="45.786366" lon="3.089509"><ele>364.75</ele></trkpt>
   <trkpt lat="45.78648" lon="3.088082"><ele>367</ele></trkpt>
   <trkpt lat="45.786489" lon="3.08797"><ele>367</ele></trkpt>
   <trkpt lat="45.786568" lon="3.086735"><ele>368.75</ele></trkpt>
   <trkpt lat="45.786574" lon="3.08665"><ele>369</ele></trkpt>
   <trkpt lat="45.786579" lon="3.086565"><ele>369</ele></trkpt>
   <trkpt lat="45.786689" lon="3.08485"><ele>372</ele></trkpt>
   <trkpt lat="45.786698" lon="3.084771"><ele>372</ele></trkpt>
   <trkpt lat="45.786702" lon="3.084703"><ele>372</ele></trkpt>
   <trkpt lat="45.786682" lon="3.084619"><ele>372</ele></trkpt>
   <trkpt lat="45.786857" lon="3.084591"><ele>372.5</ele></trkpt>
   <trkpt lat="45.787025" lon="3.084573"><ele>373</ele></trkpt>
   <trkpt lat="45.787048" lon="3.08457"><ele>373</ele></trkpt>
   <trkpt lat="45.787156" lon="3.084556"><ele>373</ele></trkpt>
   <trkpt lat="45.787267" lon="3.084532"><ele>373</ele></trkpt>
   <trkpt lat="45.787288" lon="3.084528"><ele>373</ele></trkpt>
   <trkpt lat="45.787543" lon="3.084483"><ele>374</ele></trkpt>
   <trkpt lat="45.78775" lon="3.084446"><ele>374</ele></trkpt>
   <trkpt lat="45.787771" lon="3.084443"><ele>374</ele></trkpt>
   <trkpt lat="45.787842" lon="3.084431"><ele>374.25</ele></trkpt>
   <trkpt lat="45.787911" lon="3.08442"><ele>374.5</ele></trkpt>
   <trkpt lat="45.787929" lon="3.084417"><ele>374.5</ele></trkpt>
   <trkpt lat="45.78821" lon="3.084369"><ele>375</ele></trkpt>
   <trkpt lat="45.788744" lon="3.084284"><ele>376.25</ele></trkpt>
   <trkpt lat="45.789445" lon="3.084244"><ele>377</ele></trkpt>
   <trkpt lat="45.789546" lon="3.084237"><ele>377.25</ele></trkpt>
   <trkpt lat="45.789815" lon="3.084218"><ele>378</ele></trkpt>
   <trkpt lat="45.790018" lon="3.084198"><ele>378</ele></trkpt>
   <trkpt lat="45.790101" lon="3.084175"><ele>378.25</ele></trkpt>
   <trkpt lat="45.790364" lon="3.084065"><ele>379.25</ele></trkpt>
   <trkpt lat="45.790451" lon="3.084034"><ele>379.5</ele></trkpt>
   <trkpt lat="45.790545" lon="3.084015"><ele>379.75</ele></trkpt>
   <trkpt lat="45.790625" lon="3.083998"><ele>380</ele></trkpt>
   <trkpt lat="45.790665" lon="3.083992"><ele>380</ele></trkpt>
   <trkpt lat="45.791312" lon="3.084027"><ele>381.5</ele></trkpt>
   <trkpt lat="45.791446" lon="3.084039"><ele>382</ele></trkpt>
   <trkpt lat="45.792192" lon="3.084166"><ele>383.75</ele></trkpt>
   <trkpt lat="45.792207" lon="3.084099"><ele>384</ele></trkpt>
   <trkpt lat="45.792364" lon="3.083303"><ele>387</ele></trkpt>
   <trkpt lat="45.792489" lon="3.083175"><ele>387</ele></trkpt>
   <trkpt lat="45.792518" lon="3.083091"><ele>387</ele></trkpt>
   <trkpt lat="45.792513" lon="3.082908"><ele>387.5</ele></trkpt>
   <trkpt lat="45.792408" lon="3.082599"><ele>388.5</ele></trkpt>
   <trkpt lat="45.79239" lon="3.082527"><ele>388.75</ele></trkpt>
   <trkpt lat="45.792474" lon="3.082504"><ele>388.75</ele></trkpt>
   <trkpt lat="45.792474" lon="3.082419"><ele>389</ele></trkpt>
   <trkpt lat="45.792472" lon="3.081883"><ele>390</ele></trkpt>
   <trkpt lat="45.792469" lon="3.08149"><ele>391</ele></trkpt>
   <trkpt lat="45.792503" lon="3.08125"><ele>391.5</ele></trkpt>
   <trkpt lat="45.792514" lon="3.081175"><ele>391.75</ele></trkpt>
   <trkpt lat="45.792556" lon="3.080892"><ele>392.5</ele></trkpt>
   <trkpt lat="45.792616" lon="3.080482"><ele>393.5</ele></trkpt>
   <trkpt lat="45.792694" lon="3.07995"><ele>395</ele></trkpt>
   <trkpt lat="45.792716" lon="3.079777"><ele>395</ele></trkpt>
   <trkpt lat="45.792735" lon="3.079627"><ele>395.25</ele></trkpt>
   <trkpt lat="45.792743" lon="3.07959"><ele>395.5</ele></trkpt>
   <trkpt lat="45.792755" lon="3.079525"><ele>395.75</ele></trkpt>
   <trkpt lat="45.792759" lon="3.07951"><ele>395.75</ele></trkpt>
   <trkpt lat="45.792773" lon="3.079478"><ele>395.75</ele></trkpt>
   <trkpt lat="45.79256" lon="3.079207"><ele>396.75</ele></trkpt>
   <trkpt lat="45.79252" lon="3.079166"><ele>397</ele></trkpt>
   <trkpt lat="45.792478" lon="3.079135"><ele>397</ele></trkpt>
   <trkpt lat="45.792481" lon="3.079078"><ele>397</ele></trkpt>
   <trkpt lat="45.792483" lon="3.079046"><ele>397</ele></trkpt>
   <trkpt lat="45.792485" lon="3.079002"><ele>397</ele></trkpt>
   <trkpt lat="45.792499" lon="3.078747"><ele>397.5</ele></trkpt>
   <trkpt lat="45.792517" lon="3.078393"><ele>398.75</ele></trkpt>
   <trkpt lat="45.79252" lon="3.078347"><ele>399</ele></trkpt>
   <trkpt lat="45.79252" lon="3.078265"><ele>399.25</ele></trkpt>
   <trkpt lat="45.792538" lon="3.077633"><ele>401</ele></trkpt>
   <trkpt lat="45.792514" lon="3.07749"><ele>401</ele></trkpt>
   <trkpt lat="45.792342" lon="3.077145"><ele>402.75</ele></trkpt>
   <trkpt lat="45.792322" lon="3.077005"><ele>403.25</ele></trkpt>
   <trkpt lat="45.792328" lon="3.076761"><ele>403</ele></trkpt>
   <trkpt lat="45.792348" lon="3.075934"><ele>405</ele></trkpt>
   <trkpt lat="45.792357" lon="3.075569"><ele>406.25</ele></trkpt>
   <trkpt lat="45.792368" lon="3.075305"><ele>407.75</ele></trkpt>
   <trkpt lat="45.792371" lon="3.075265"><ele>408</ele></trkpt>
   <trkpt lat="45.792422" lon="3.074818"><ele>408.75</ele></trkpt>
   <trkpt lat="45.792433" lon="3.074733"><ele>408.75</ele></trkpt>
   <trkpt lat="45.792445" lon="3.074609"><ele>409</ele></trkpt>
   <trkpt lat="45.792447" lon="3.074538"><ele>409.25</ele></trkpt>
   <trkpt lat="45.792454" lon="3.074394"><ele>409.5</ele></trkpt>
   <trkpt lat="45.792631" lon="3.072881"><ele>413.75</ele></trkpt>
   <trkpt lat="45.792647" lon="3.072334"><ele>414.5</ele></trkpt>
   <trkpt lat="45.792647" lon="3.072296"><ele>414.5</ele></trkpt>
   <trkpt lat="45.792643" lon="3.072227"><ele>414.75</ele></trkpt>
   <trkpt lat="45.792663" lon="3.072201"><ele>415</ele></trkpt>
   <trkpt lat="45.792692" lon="3.072166"><ele>415</ele></trkpt>
   <trkpt lat="45.792711" lon="3.072143"><ele>415.25</ele></trkpt>
   <trkpt lat="45.792777" lon="3.071945"><ele>415.75</ele></trkpt>
   <trkpt lat="45.79282" lon="3.071765"><ele>417.25</ele></trkpt>
   <trkpt lat="45.792878" lon="3.071508"><ele>419.75</ele></trkpt>
   <trkpt lat="45.792937" lon="3.071243"><ele>421.75</ele></trkpt>
   <trkpt lat="45.792967" lon="3.071098"><ele>422.25</ele></trkpt>
   <trkpt lat="45.792986" lon="3.07097"><ele>423.25</ele></trkpt>
   <trkpt lat="45.793015" lon="3.070767"><ele>425</ele></trkpt>
   <trkpt lat="45.793023" lon="3.070688"><ele>425.75</ele></trkpt>
   <trkpt lat="45.793037" lon="3.070532"><ele>427</ele></trkpt>
   <trkpt lat="45.793055" lon="3.070162"><ele>429.75</ele></trkpt>
   <trkpt lat="45.793064" lon="3.069967"><ele>431.25</ele></trkpt>
   <trkpt lat="45.793072" lon="3.069391"><ele>435.5</ele></trkpt>
   <trkpt lat="45.793077" lon="3.069255"><ele>436.5</ele></trkpt>
   <trkpt lat="45.793088" lon="3.068917"><ele>439.25</ele></trkpt>
   <trkpt lat="45.793093" lon="3.068244"><ele>444.5</ele></trkpt>
   <trkpt lat="45.793083" lon="3.067645"><ele>447.75</ele></trkpt>
   <trkpt lat="45.793072" lon="3.0673"><ele>448</ele></trkpt>
   <trkpt lat="45.793084" lon="3.06702"><ele>448.5</ele></trkpt>
   <trkpt lat="45.793109" lon="3.066863"><ele>449</ele></trkpt>
   <trkpt lat="45.793178" lon="3.0666"><ele>449.5</ele></trkpt>
   <trkpt lat="45.793211" lon="3.066482"><ele>449.75</ele></trkpt>
   <trkpt lat="45.793303" lon="3.066172"><ele>450.5</ele></trkpt>
   <trkpt lat="45.793309" lon="3.06611"><ele>450.75</ele></trkpt>
   <trkpt lat="45.793281" lon="3.066031"><ele>450.5</ele></trkpt>
   <trkpt lat="45.793087" lon="3.06591"><ele>449.75</ele></trkpt>
   <trkpt lat="45.792871" lon="3.065773"><ele>449.5</ele></trkpt>
   <trkpt lat="45.792926" lon="3.065582"><ele>450.25</ele></trkpt>
   <trkpt lat="45.792986" lon="3.065372"><ele>452</ele></trkpt>
   <trkpt lat="45.792788" lon="3.06525"><ele>452</ele></trkpt>
   <trkpt lat="45.792589" lon="3.065135"><ele>452.25</ele></trkpt>
   <trkpt lat="45.792451" lon="3.065054"><ele>452.25</ele></trkpt>
   <trkpt lat="45.792354" lon="3.064958"><ele>453</ele></trkpt>
   <trkpt lat="45.792302" lon="3.064876"><ele>454</ele></trkpt>
   <trkpt lat="45.792329" lon="3.06473"><ele>456.25</ele></trkpt>
   <trkpt lat="45.792359" lon="3.064619"><ele>457.25</ele></trkpt>
   <trkpt lat="45.792654" lon="3.063982"><ele>465</ele></trkpt>
   <trkpt lat="45.792851" lon="3.063584"><ele>468.5</ele></trkpt>
   <trkpt lat="45.792912" lon="3.063505"><ele>469.5</ele></trkpt>
   <trkpt lat="45.793182" lon="3.063214"><ele>472.5</ele></trkpt>
   <trkpt lat="45.793334" lon="3.063064"><ele>473.75</ele></trkpt>
   <trkpt lat="45.793385" lon="3.063031"><ele>474.75</ele></trkpt>
   <trkpt lat="45.793438" lon="3.062977"><ele>476</ele></trkpt>
   <trkpt lat="45.793499" lon="3.062944"><ele>476.75</ele></trkpt>
   <trkpt lat="45.793574" lon="3.062915"><ele>477</ele></trkpt>
   <trkpt lat="45.793808" lon="3.062798"><ele>478.75</ele></trkpt>
   <trkpt lat="45.794021" lon="3.062661"><ele>482.25</ele></trkpt>
   <trkpt lat="45.794103" lon="3.062523"><ele>483</ele></trkpt>
   <trkpt lat="45.79419" lon="3.062434"><ele>484</ele></trkpt>
   <trkpt lat="45.794199" lon="3.062427"><ele>484</ele></trkpt>
   <trkpt lat="45.794276" lon="3.062371"><ele>485.25</ele></trkpt>
   <trkpt lat="45.794524" lon="3.062247"><ele>486.5</ele></trkpt>
   <trkpt lat="45.794781" lon="3.062154"><ele>487</ele></trkpt>
   <trkpt lat="45.795208" lon="3.062035"><ele>489.75</ele></trkpt>
   <trkpt lat="45.795425" lon="3.061951"><ele>491.25</ele></trkpt>
   <trkpt lat="45.795599" lon="3.061843"><ele>492.5</ele></trkpt>
   <trkpt lat="45.7958" lon="3.061612"><ele>495.25</ele></trkpt>
   <trkpt lat="45.795814" lon="3.061578"><ele>495.5</ele></trkpt>
   <trkpt lat="45.795814" lon="3.061466"><ele>496.5</ele></trkpt>
   <trkpt lat="45.795899" lon="3.061391"><ele>497.25</ele></trkpt>
   <trkpt lat="45.796204" lon="3.061102"><ele>499.25</ele></trkpt>
   <trkpt lat="45.796246" lon="3.061048"><ele>499.5</ele></trkpt>
   <trkpt lat="45.796301" lon="3.060978"><ele>499.75</ele></trkpt>
   <trkpt lat="45.796324" lon="3.060938"><ele>500</ele></trkpt>
   <trkpt lat="45.796361" lon="3.060887"><ele>500</ele></trkpt>
   <trkpt lat="45.796515" lon="3.060628"><ele>503.25</ele></trkpt>
   <trkpt lat="45.796569" lon="3.060488"><ele>503.75</ele></trkpt>
   <trkpt lat="45.796826" lon="3.059555"><ele>503.25</ele></trkpt>
   <trkpt lat="45.796874" lon="3.059378"><ele>503</ele></trkpt>
   <trkpt lat="45.79691" lon="3.059236"><ele>503</ele></trkpt>
   <trkpt lat="45.796924" lon="3.059169"><ele>503</ele></trkpt>
   <trkpt lat="45.797018" lon="3.05874"><ele>503.25</ele></trkpt>
   <trkpt lat="45.797065" lon="3.058422"><ele>503.5</ele></trkpt>
   <trkpt lat="45.797101" lon="3.058045"><ele>503.75</ele></trkpt>
   <trkpt lat="45.79711" lon="3.057958"><ele>503.75</ele></trkpt>
   <trkpt lat="45.797055" lon="3.057928"><ele>504</ele></trkpt>
   <trkpt lat="45.797036" lon="3.0579"><ele>504.25</ele></trkpt>
   <trkpt lat="45.797023" lon="3.057836"><ele>504.25</ele></trkpt>
   <trkpt lat="45.796955" lon="3.057165"><ele>505.75</ele></trkpt>
   <trkpt lat="45.796929" lon="3.056683"><ele>507</ele></trkpt>
   <trkpt lat="45.796913" lon="3.055657"><ele>508</ele></trkpt>
   <trkpt lat="45.796959" lon="3.054914"><ele>510</ele></trkpt>
   <trkpt lat="45.796962" lon="3.054787"><ele>510.5</ele></trkpt>
   <trkpt lat="45.79701" lon="3.054688"><ele>510</ele></trkpt>
   <trkpt lat="45.797021" lon="3.054697"><ele>510</ele></trkpt>
   <trkpt lat="45.797046" lon="3.054698"><ele>509.75</ele></trkpt>
   <trkpt lat="45.797067" lon="3.054677"><ele>509.5</ele></trkpt>
   <trkpt lat="45.797073" lon="3.05466"><ele>509.25</ele></trkpt>
   <trkpt lat="45.797073" lon="3.054623"><ele>509.25</ele></trkpt>
   <trkpt lat="45.797057" lon="3.054593"><ele>509.5</ele></trkpt>
   <trkpt lat="45.797031" lon="3.054584"><ele>509.5</ele></trkpt>
   <trkpt lat="45.797007" lon="3.0546"><ele>509.75</ele></trkpt>
   <trkpt lat="45.796988" lon="3.054572"><ele>510</ele></trkpt>
   <trkpt lat="45.796971" lon="3.054514"><ele>510</ele></trkpt>
   <trkpt lat="45.796939" lon="3.054462"><ele>510</ele></trkpt>
   <trkpt lat="45.796819" lon="3.054311"><ele>511.75</ele></trkpt>
   <trkpt lat="45.796073" lon="3.053445"><ele>517.25</ele></trkpt>
   <trkpt lat="45.79588" lon="3.053232"><ele>517.75</ele></trkpt>
   <trkpt lat="45.795843" lon="3.053196"><ele>517.75</ele></trkpt>
   <trkpt lat="45.795802" lon="3.053157"><ele>518</ele></trkpt>
   <trkpt lat="45.795773" lon="3.052903"><ele>516.25</ele></trkpt>
   <trkpt lat="45.79576" lon="3.052832"><ele>515.75</ele></trkpt>
   <trkpt lat="45.795756" lon="3.052646"><ele>514.75</ele></trkpt>
   <trkpt lat="45.795728" lon="3.052463"><ele>514.25</ele></trkpt>
   <trkpt lat="45.795553" lon="3.052451"><ele>514.75</ele></trkpt>
   <trkpt lat="45.795496" lon="3.052455"><ele>515.25</ele></trkpt>
   <trkpt lat="45.795495" lon="3.052357"><ele>515</ele></trkpt>
   <trkpt lat="45.795427" lon="3.05204"><ele>516</ele></trkpt>
   <trkpt lat="45.795347" lon="3.051686"><ele>516</ele></trkpt>
   <trkpt lat="45.795289" lon="3.051692"><ele>516</ele></trkpt>
   <trkpt lat="45.795155" lon="3.051783"><ele>518</ele></trkpt>
   <trkpt lat="45.795031" lon="3.051866"><ele>519.5</ele></trkpt>
   <trkpt lat="45.795004" lon="3.051855"><ele>519.75</ele></trkpt>
   <trkpt lat="45.794986" lon="3.051844"><ele>520</ele></trkpt>
   <trkpt lat="45.79496" lon="3.051716"><ele>520.25</ele></trkpt>
   <trkpt lat="45.794892" lon="3.051542"><ele>521</ele></trkpt>
   <trkpt lat="45.794844" lon="3.051414"><ele>521.5</ele></trkpt>
   <trkpt lat="45.794655" lon="3.051113"><ele>524.75</ele></trkpt>
   <trkpt lat="45.794442" lon="3.050717"><ele>525.25</ele></trkpt>
   <trkpt lat="45.79439" lon="3.050576"><ele>525.5</ele></trkpt>
   <trkpt lat="45.794218" lon="3.050206"><ele>526</ele></trkpt>
   <trkpt lat="45.794205" lon="3.050165"><ele>526</ele></trkpt>
   <trkpt lat="45.794195" lon="3.050051"><ele>526</ele></trkpt>
   <trkpt lat="45.794137" lon="3.049988"><ele>526.25</ele></trkpt>
   <trkpt lat="45.794079" lon="3.049925"><ele>527</ele></trkpt>
   <trkpt lat="45.793716" lon="3.049537"><ele>532</ele></trkpt>
   <trkpt lat="45.793643" lon="3.04945"><ele>531.25</ele></trkpt>
   <trkpt lat="45.793526" lon="3.049302"><ele>531.75</ele></trkpt>
   <trkpt lat="45.793568" lon="3.049212"><ele>531.25</ele></trkpt>
   <trkpt lat="45.793573" lon="3.049189"><ele>531.25</ele></trkpt>
   <trkpt lat="45.793575" lon="3.049009"><ele>530.75</ele></trkpt>
   <trkpt lat="45.793584" lon="3.048928"><ele>530.25</ele></trkpt>
   <trkpt lat="45.793601" lon="3.048858"><ele>530</ele></trkpt>
   <trkpt lat="45.793364" lon="3.04836"><ele>531.5</ele></trkpt>
   <trkpt lat="45.793251" lon="3.04816"><ele>532.25</ele></trkpt>
   <trkpt lat="45.793017" lon="3.047627"><ele>536</ele></trkpt>
   <trkpt lat="45.792952" lon="3.047405"><ele>537</ele></trkpt>
   <trkpt lat="45.792825" lon="3.047004"><ele>540.25</ele></trkpt>
   <trkpt lat="45.792664" lon="3.046255"><ele>545.5</ele></trkpt>
   <trkpt lat="45.792439" lon="3.045751"><ele>550.25</ele></trkpt>
   <trkpt lat="45.792351" lon="3.045534"><ele>552.5</ele></trkpt>
   <trkpt lat="45.79217" lon="3.045202"><ele>556.75</ele></trkpt>
   <trkpt lat="45.792118" lon="3.045094"><ele>558.25</ele></trkpt>
   <trkpt lat="45.791962" lon="3.044636"><ele>562</ele></trkpt>
   <trkpt lat="45.791756" lon="3.044262"><ele>569.25</ele></trkpt>
   <trkpt lat="45.791648" lon="3.044026"><ele>572.25</ele></trkpt>
   <trkpt lat="45.791509" lon="3.043598"><ele>578</ele></trkpt>
   <trkpt lat="45.791476" lon="3.043528"><ele>578.25</ele></trkpt>
   <trkpt lat="45.791347" lon="3.043326"><ele>582.25</ele></trkpt>
   <trkpt lat="45.7913" lon="3.043223"><ele>583.75</ele></trkpt>
   <trkpt lat="45.791209" lon="3.042974"><ele>585.5</ele></trkpt>
   <trkpt lat="45.791174" lon="3.042819"><ele>585.75</ele></trkpt>
   <trkpt lat="45.790979" lon="3.041654"><ele>598.5</ele></trkpt>
   <trkpt lat="45.790848" lon="3.041325"><ele>601.25</ele></trkpt>
   <trkpt lat="45.790726" lon="3.041061"><ele>604.25</ele></trkpt>
   <trkpt lat="45.790522" lon="3.040804"><ele>608.75</ele></trkpt>
   <trkpt lat="45.790412" lon="3.040557"><ele>608.5</ele></trkpt>
   <trkpt lat="45.79013" lon="3.039879"><ele>620.5</ele></trkpt>
   <trkpt lat="45.7901" lon="3.039793"><ele>621.75</ele></trkpt>
   <trkpt lat="45.790093" lon="3.039698"><ele>622</ele></trkpt>
   <trkpt lat="45.790094" lon="3.039591"><ele>623.25</ele></trkpt>
   <trkpt lat="45.790119" lon="3.039315"><ele>625.75</ele></trkpt>
   <trkpt lat="45.790168" lon="3.039258"><ele>625.5</ele></trkpt>
   <trkpt lat="45.790382" lon="3.039166"><ele>626</ele></trkpt>
   <trkpt lat="45.790958" lon="3.038779"><ele>636.5</ele></trkpt>
   <trkpt lat="45.791053" lon="3.038389"><ele>642.5</ele></trkpt>
   <trkpt lat="45.790601" lon="3.037771"><ele>651</ele></trkpt>
   <trkpt lat="45.790427" lon="3.0375"><ele>657</ele></trkpt>
   <trkpt lat="45.790344" lon="3.037162"><ele>659.25</ele></trkpt>
   <trkpt lat="45.790328" lon="3.036481"><ele>663.75</ele></trkpt>
   <trkpt lat="45.790217" lon="3.035756"><ele>672.75</ele></trkpt>
   <trkpt lat="45.790363" lon="3.035201"><ele>678.25</ele></trkpt>
   <trkpt lat="45.790972" lon="3.034244"><ele>685.75</ele></trkpt>
   <trkpt lat="45.79124" lon="3.033872"><ele>688.25</ele></trkpt>
   <trkpt lat="45.791569" lon="3.033382"><ele>693</ele></trkpt>
   <trkpt lat="45.79167" lon="3.033278"><ele>694.5</ele></trkpt>
   <trkpt lat="45.79182" lon="3.033191"><ele>696.25</ele></trkpt>
   <trkpt lat="45.792127" lon="3.03319"><ele>698</ele></trkpt>
   <trkpt lat="45.792254" lon="3.033133"><ele>698.75</ele></trkpt>
   <trkpt lat="45.79252" lon="3.032814"><ele>700</ele></trkpt>
   <trkpt lat="45.792745" lon="3.03247"><ele>701.75</ele></trkpt>
   <trkpt lat="45.792937" lon="3.032206"><ele>702.75</ele></trkpt>
   <trkpt lat="45.793063" lon="3.031942"><ele>702.5</ele></trkpt>
   <trkpt lat="45.793106" lon="3.031534"><ele>702.5</ele></trkpt>
   <trkpt lat="45.793113" lon="3.031192"><ele>703</ele></trkpt>
   <trkpt lat="45.793121" lon="3.03094"><ele>703.75</ele></trkpt>
   <trkpt lat="45.793156" lon="3.030833"><ele>703.75</ele></trkpt>
   <trkpt lat="45.79321" lon="3.030801"><ele>703.5</ele></trkpt>
   <trkpt lat="45.793294" lon="3.03082"><ele>702.5</ele></trkpt>
   <trkpt lat="45.793494" lon="3.030989"><ele>702.5</ele></trkpt>
   <trkpt lat="45.793569" lon="3.031027"><ele>703.5</ele></trkpt>
   <trkpt lat="45.793749" lon="3.031031"><ele>705.75</ele></trkpt>
   <trkpt lat="45.793869" lon="3.031004"><ele>707.25</ele></trkpt>
   <trkpt lat="45.794032" lon="3.030952"><ele>708.5</ele></trkpt>
   <trkpt lat="45.794211" lon="3.030828"><ele>709.25</ele></trkpt>
   <trkpt lat="45.794329" lon="3.030697"><ele>709.5</ele></trkpt>
   <trkpt lat="45.79439" lon="3.030525"><ele>711</ele></trkpt>
   <trkpt lat="45.794449" lon="3.030131"><ele>713.75</ele></trkpt>
   <trkpt lat="45.794493" lon="3.029781"><ele>715.25</ele></trkpt>
   <trkpt lat="45.794521" lon="3.029659"><ele>715.75</ele></trkpt>
   <trkpt lat="45.794758" lon="3.029209"><ele>715.5</ele></trkpt>
   <trkpt lat="45.794801" lon="3.029105"><ele>715.75</ele></trkpt>
   <trkpt lat="45.794847" lon="3.028946"><ele>716.25</ele></trkpt>
   <trkpt lat="45.794861" lon="3.028755"><ele>717.25</ele></trkpt>
   <trkpt lat="45.794914" lon="3.028473"><ele>718.5</ele></trkpt>
   <trkpt lat="45.79498" lon="3.028405"><ele>718.25</ele></trkpt>
   <trkpt lat="45.795045" lon="3.028394"><ele>718.25</ele></trkpt>
   <trkpt lat="45.795192" lon="3.028433"><ele>718.5</ele></trkpt>
   <trkpt lat="45.795506" lon="3.028603"><ele>718.25</ele></trkpt>
   <trkpt lat="45.79571" lon="3.028663"><ele>718.5</ele></trkpt>
   <trkpt lat="45.795744" lon="3.028726"><ele>718.5</ele></trkpt>
   <trkpt lat="45.795757" lon="3.028827"><ele>718.5</ele></trkpt>
   <trkpt lat="45.795755" lon="3.028949"><ele>718.25</ele></trkpt>
   <trkpt lat="45.795764" lon="3.029037"><ele>718.5</ele></trkpt>
   <trkpt lat="45.79578" lon="3.029085"><ele>718.75</ele></trkpt>
   <trkpt lat="45.795798" lon="3.029124"><ele>719.25</ele></trkpt>
   <trkpt lat="45.795857" lon="3.029212"><ele>720</ele></trkpt>
   <trkpt lat="45.795947" lon="3.02933"><ele>720.75</ele></trkpt>
   <trkpt lat="45.796204" lon="3.029657"><ele>723.25</ele></trkpt>
   <trkpt lat="45.796385" lon="3.029929"><ele>722.75</ele></trkpt>
   <trkpt lat="45.796557" lon="3.030085"><ele>723.75</ele></trkpt>
   <trkpt lat="45.796609" lon="3.030141"><ele>724</ele></trkpt>
   <trkpt lat="45.796683" lon="3.030248"><ele>724.25</ele></trkpt>
   <trkpt lat="45.796771" lon="3.030431"><ele>723</ele></trkpt>
   <trkpt lat="45.796826" lon="3.030488"><ele>722.75</ele></trkpt>
   <trkpt lat="45.796839" lon="3.030555"><ele>722</ele></trkpt>
   <trkpt lat="45.797002" lon="3.030818"><ele>720.25</ele></trkpt>
   <trkpt lat="45.797062" lon="3.030954"><ele>719.25</ele></trkpt>
   <trkpt lat="45.79738" lon="3.030909"><ele>719.75</ele></trkpt>
   <trkpt lat="45.797522" lon="3.030917"><ele>719.25</ele></trkpt>
   <trkpt lat="45.797661" lon="3.030976"><ele>718.25</ele></trkpt>
   <trkpt lat="45.797884" lon="3.031101"><ele>715.5</ele></trkpt>
   <trkpt lat="45.797903" lon="3.031125"><ele>715.25</ele></trkpt>
   <trkpt lat="45.798055" lon="3.030991"><ele>716.25</ele></trkpt>
   <trkpt lat="45.798267" lon="3.030758"><ele>717.5</ele></trkpt>
   <trkpt lat="45.798381" lon="3.030597"><ele>718.5</ele></trkpt>
   <trkpt lat="45.79857" lon="3.03027"><ele>720.5</ele></trkpt>
   <trkpt lat="45.798668" lon="3.030141"><ele>721</ele></trkpt>
   <trkpt lat="45.798754" lon="3.030063"><ele>721.5</ele></trkpt>
   <trkpt lat="45.798853" lon="3.030006"><ele>722</ele></trkpt>
   <trkpt lat="45.798999" lon="3.02996"><ele>723.25</ele></trkpt>
   <trkpt lat="45.799128" lon="3.029962"><ele>723.75</ele></trkpt>
   <trkpt lat="45.799305" lon="3.029981"><ele>724.25</ele></trkpt>
   <trkpt lat="45.799444" lon="3.029969"><ele>725.5</ele></trkpt>
   <trkpt lat="45.799571" lon="3.029939"><ele>725.75</ele></trkpt>
   <trkpt lat="45.799698" lon="3.029872"><ele>726.25</ele></trkpt>
   <trkpt lat="45.800082" lon="3.029513"><ele>728.25</ele></trkpt>
   <trkpt lat="45.800409" lon="3.029183"><ele>730.75</ele></trkpt>
   <trkpt lat="45.800534" lon="3.029036"><ele>732</ele></trkpt>
   <trkpt lat="45.800611" lon="3.028903"><ele>733.25</ele></trkpt>
   <trkpt lat="45.800896" lon="3.028139"><ele>737.25</ele></trkpt>
   <trkpt lat="45.800978" lon="3.028005"><ele>737.75</ele></trkpt>
   <trkpt lat="45.801051" lon="3.027931"><ele>737.75</ele></trkpt>
   <trkpt lat="45.801105" lon="3.027896"><ele>737.75</ele></trkpt>
   <trkpt lat="45.801179" lon="3.027877"><ele>738.25</ele></trkpt>
   <trkpt lat="45.801285" lon="3.027877"><ele>739</ele></trkpt>
   <trkpt lat="45.802354" lon="3.028225"><ele>746</ele></trkpt>
   <trkpt lat="45.802482" lon="3.028228"><ele>746.5</ele></trkpt>
   <trkpt lat="45.802607" lon="3.028174"><ele>746.75</ele></trkpt>
   <trkpt lat="45.802682" lon="3.028118"><ele>747.25</ele></trkpt>
   <trkpt lat="45.80274" lon="3.028048"><ele>748</ele></trkpt>
   <trkpt lat="45.802784" lon="3.027957"><ele>748.5</ele></trkpt>
   <trkpt lat="45.802844" lon="3.027777"><ele>748.75</ele></trkpt>
   <trkpt lat="45.802871" lon="3.027617"><ele>749.25</ele></trkpt>
   <trkpt lat="45.802881" lon="3.027449"><ele>749.75</ele></trkpt>
   <trkpt lat="45.802853" lon="3.027288"><ele>750.5</ele></trkpt>
   <trkpt lat="45.802793" lon="3.027108"><ele>751.5</ele></trkpt>
   <trkpt lat="45.802608" lon="3.026773"><ele>753</ele></trkpt>
   <trkpt lat="45.802547" lon="3.026641"><ele>753.75</ele></trkpt>
   <trkpt lat="45.80251" lon="3.026501"><ele>755</ele></trkpt>
   <trkpt lat="45.802495" lon="3.026318"><ele>756.25</ele></trkpt>
   <trkpt lat="45.80252" lon="3.026112"><ele>756.75</ele></trkpt>
   <trkpt lat="45.802642" lon="3.025565"><ele>759.25</ele></trkpt>
   <trkpt lat="45.802707" lon="3.025366"><ele>761</ele></trkpt>
   <trkpt lat="45.802794" lon="3.025189"><ele>761.75</ele></trkpt>
   <trkpt lat="45.802904" lon="3.025003"><ele>762.5</ele></trkpt>
   <trkpt lat="45.803041" lon="3.024834"><ele>763.75</ele></trkpt>
   <trkpt lat="45.803136" lon="3.024745"><ele>765</ele></trkpt>
   <trkpt lat="45.803236" lon="3.024681"><ele>766</ele></trkpt>
   <trkpt lat="45.803524" lon="3.024555"><ele>766.75</ele></trkpt>
   <trkpt lat="45.803636" lon="3.024446"><ele>767.5</ele></trkpt>
   <trkpt lat="45.803738" lon="3.024245"><ele>768.75</ele></trkpt>
   <trkpt lat="45.804008" lon="3.023622"><ele>772.5</ele></trkpt>
   <trkpt lat="45.804045" lon="3.023458"><ele>773</ele></trkpt>
   <trkpt lat="45.804049" lon="3.023291"><ele>773.5</ele></trkpt>
   <trkpt lat="45.804023" lon="3.023134"><ele>773.5</ele></trkpt>
   <trkpt lat="45.803903" lon="3.022836"><ele>777.25</ele></trkpt>
   <trkpt lat="45.803876" lon="3.0227"><ele>778.25</ele></trkpt>
   <trkpt lat="45.803844" lon="3.022537"><ele>779.25</ele></trkpt>
   <trkpt lat="45.803788" lon="3.022393"><ele>779.25</ele></trkpt>
   <trkpt lat="45.803702" lon="3.022276"><ele>780</ele></trkpt>
   <trkpt lat="45.803403" lon="3.022"><ele>783.25</ele></trkpt>
   <trkpt lat="45.803239" lon="3.021679"><ele>784.75</ele></trkpt>
   <trkpt lat="45.803045" lon="3.021328"><ele>787.5</ele></trkpt>
   <trkpt lat="45.802962" lon="3.021239"><ele>788.25</ele></trkpt>
   <trkpt lat="45.802814" lon="3.021082"><ele>789</ele></trkpt>
   <trkpt lat="45.802597" lon="3.02088"><ele>790</ele></trkpt>
   <trkpt lat="45.80256" lon="3.020802"><ele>790</ele></trkpt>
   <trkpt lat="45.802541" lon="3.020698"><ele>790.25</ele></trkpt>
   <trkpt lat="45.802545" lon="3.020573"><ele>790.5</ele></trkpt>
   <trkpt lat="45.802584" lon="3.020464"><ele>792</ele></trkpt>
   <trkpt lat="45.80265" lon="3.020371"><ele>793.5</ele></trkpt>
   <trkpt lat="45.802739" lon="3.020312"><ele>794.25</ele></trkpt>
   <trkpt lat="45.802844" lon="3.020268"><ele>795</ele></trkpt>
   <trkpt lat="45.802969" lon="3.020244"><ele>795.5</ele></trkpt>
   <trkpt lat="45.803092" lon="3.020244"><ele>795.75</ele></trkpt>
   <trkpt lat="45.803226" lon="3.020289"><ele>796.75</ele></trkpt>
   <trkpt lat="45.80348" lon="3.020421"><ele>797.75</ele></trkpt>
   <trkpt lat="45.803639" lon="3.020457"><ele>799.75</ele></trkpt>
   <trkpt lat="45.803745" lon="3.02044"><ele>800</ele></trkpt>
   <trkpt lat="45.803861" lon="3.020391"><ele>800.75</ele></trkpt>
   <trkpt lat="45.80403" lon="3.020246"><ele>801.5</ele></trkpt>
   <trkpt lat="45.804249" lon="3.020002"><ele>805</ele></trkpt>
   <trkpt lat="45.804399" lon="3.019887"><ele>805.75</ele></trkpt>
   <trkpt lat="45.804545" lon="3.019794"><ele>807.25</ele></trkpt>
   <trkpt lat="45.80468" lon="3.019763"><ele>807.5</ele></trkpt>
   <trkpt lat="45.805036" lon="3.01979"><ele>810.5</ele></trkpt>
   <trkpt lat="45.805152" lon="3.01978"><ele>810.75</ele></trkpt>
   <trkpt lat="45.805389" lon="3.019671"><ele>813</ele></trkpt>
   <trkpt lat="45.805657" lon="3.019528"><ele>815.75</ele></trkpt>
   <trkpt lat="45.805803" lon="3.019414"><ele>817</ele></trkpt>
   <trkpt lat="45.805911" lon="3.019279"><ele>817.5</ele></trkpt>
   <trkpt lat="45.806098" lon="3.018925"><ele>819.5</ele></trkpt>
   <trkpt lat="45.806516" lon="3.018051"><ele>823.75</ele></trkpt>
   <trkpt lat="45.80674" lon="3.017678"><ele>827.25</ele></trkpt>
   <trkpt lat="45.807031" lon="3.017216"><ele>830.5</ele></trkpt>
   <trkpt lat="45.807204" lon="3.016901"><ele>832.5</ele></trkpt>
   <trkpt lat="45.80737" lon="3.016525"><ele>834.25</ele></trkpt>
   <trkpt lat="45.807501" lon="3.016178"><ele>837</ele></trkpt>
   <trkpt lat="45.807568" lon="3.015847"><ele>837.25</ele></trkpt>
   <trkpt lat="45.807604" lon="3.01558"><ele>839</ele></trkpt>
   <trkpt lat="45.807609" lon="3.015399"><ele>840.25</ele></trkpt>
   <trkpt lat="45.80759" lon="3.015234"><ele>841.75</ele></trkpt>
   <trkpt lat="45.807545" lon="3.015064"><ele>842.75</ele></trkpt>
   <trkpt lat="45.807407" lon="3.014788"><ele>844.25</ele></trkpt>
   <trkpt lat="45.807143" lon="3.014309"><ele>846.75</ele></trkpt>
   <trkpt lat="45.807001" lon="3.014041"><ele>849</ele></trkpt>
   <trkpt lat="45.806901" lon="3.013849"><ele>850.5</ele></trkpt>
   <trkpt lat="45.806841" lon="3.013689"><ele>851.75</ele></trkpt>
   <trkpt lat="45.806817" lon="3.013545"><ele>852.25</ele></trkpt>
   <trkpt lat="45.806809" lon="3.013369"><ele>852.75</ele></trkpt>
   <trkpt lat="45.806815" lon="3.013198"><ele>854</ele></trkpt>
   <trkpt lat="45.806847" lon="3.013031"><ele>855.25</ele></trkpt>
   <trkpt lat="45.806875" lon="3.012967"><ele>855.5</ele></trkpt>
   <trkpt lat="45.806931" lon="3.012851"><ele>856.25</ele></trkpt>
   <trkpt lat="45.807001" lon="3.012741"><ele>857</ele></trkpt>
   <trkpt lat="45.807129" lon="3.012613"><ele>858.25</ele></trkpt>
   <trkpt lat="45.807227" lon="3.012529"><ele>859.5</ele></trkpt>
   <trkpt lat="45.807319" lon="3.012421"><ele>860.25</ele></trkpt>
   <trkpt lat="45.807391" lon="3.012294"><ele>861.75</ele></trkpt>
   <trkpt lat="45.807456" lon="3.012145"><ele>862.75</ele></trkpt>
   <trkpt lat="45.807519" lon="3.01192"><ele>863.75</ele></trkpt>
   <trkpt lat="45.807524" lon="3.011817"><ele>864.25</ele></trkpt>
   <trkpt lat="45.807509" lon="3.011747"><ele>865.25</ele></trkpt>
   <trkpt lat="45.807493" lon="3.011676"><ele>866</ele></trkpt>
   <trkpt lat="45.807566" lon="3.011583"><ele>865.75</ele></trkpt>
   <trkpt lat="45.80763" lon="3.011458"><ele>866.25</ele></trkpt>
   <trkpt lat="45.807674" lon="3.0113"><ele>867</ele></trkpt>
   <trkpt lat="45.807693" lon="3.011118"><ele>868.75</ele></trkpt>
   <trkpt lat="45.8077" lon="3.010945"><ele>869.5</ele></trkpt>
   <trkpt lat="45.807661" lon="3.01057"><ele>870</ele></trkpt>
   <trkpt lat="45.807593" lon="3.010238"><ele>872</ele></trkpt>
   <trkpt lat="45.807577" lon="3.010162"><ele>872</ele></trkpt>
   <trkpt lat="45.807503" lon="3.009912"><ele>872.75</ele></trkpt>
   <trkpt lat="45.807466" lon="3.009815"><ele>874</ele></trkpt>
   <trkpt lat="45.807433" lon="3.009729"><ele>874.75</ele></trkpt>
   <trkpt lat="45.807392" lon="3.009568"><ele>875.25</ele></trkpt>
   <trkpt lat="45.807374" lon="3.009448"><ele>875</ele></trkpt>
   <trkpt lat="45.807332" lon="3.008929"><ele>874.25</ele></trkpt>
   <trkpt lat="45.80733" lon="3.008891"><ele>874.25</ele></trkpt>
   <trkpt lat="45.807311" lon="3.008813"><ele>874.75</ele></trkpt>
   <trkpt lat="45.807271" lon="3.008718"><ele>875.75</ele></trkpt>
   <trkpt lat="45.807029" lon="3.00834"><ele>879</ele></trkpt>
   <trkpt lat="45.807007" lon="3.008253"><ele>879.25</ele></trkpt>
   <trkpt lat="45.807044" lon="3.008114"><ele>879</ele></trkpt>
   <trkpt lat="45.807053" lon="3.008093"><ele>879</ele></trkpt>
   <trkpt lat="45.807106" lon="3.007968"><ele>879</ele></trkpt>
   <trkpt lat="45.807199" lon="3.007814"><ele>879</ele></trkpt>
   <trkpt lat="45.807262" lon="3.007663"><ele>878.5</ele></trkpt>
   <trkpt lat="45.807332" lon="3.007509"><ele>878.5</ele></trkpt>
   <trkpt lat="45.807368" lon="3.00745"><ele>878.75</ele></trkpt>
   <trkpt lat="45.80746" lon="3.007391"><ele>879</ele></trkpt>
   <trkpt lat="45.80756" lon="3.007387"><ele>879.5</ele></trkpt>
   <trkpt lat="45.807739" lon="3.007403"><ele>880.5</ele></trkpt>
   <trkpt lat="45.807906" lon="3.007446"><ele>881.5</ele></trkpt>
   <trkpt lat="45.807981" lon="3.007498"><ele>881</ele></trkpt>
   <trkpt lat="45.808196" lon="3.007677"><ele>882.25</ele></trkpt>
   <trkpt lat="45.808714" lon="3.008087"><ele>883.5</ele></trkpt>
   <trkpt lat="45.808964" lon="3.008247"><ele>885.25</ele></trkpt>
   <trkpt lat="45.809091" lon="3.008301"><ele>885.5</ele></trkpt>
   <trkpt lat="45.809211" lon="3.008298"><ele>886.25</ele></trkpt>
   <trkpt lat="45.809343" lon="3.008227"><ele>886.5</ele></trkpt>
   <trkpt lat="45.809621" lon="3.007974"><ele>888</ele></trkpt>
   <trkpt lat="45.81033" lon="3.007371"><ele>891.75</ele></trkpt>
   <trkpt lat="45.810529" lon="3.007156"><ele>892.75</ele></trkpt>
   <trkpt lat="45.810652" lon="3.006941"><ele>894</ele></trkpt>
   <trkpt lat="45.810733" lon="3.006753"><ele>895.25</ele></trkpt>
   <trkpt lat="45.810789" lon="3.006548"><ele>896.25</ele></trkpt>
   <trkpt lat="45.810871" lon="3.006312"><ele>896.5</ele></trkpt>
   <trkpt lat="45.810955" lon="3.006158"><ele>897.25</ele></trkpt>
   <trkpt lat="45.811067" lon="3.006044"><ele>897.5</ele></trkpt>
   <trkpt lat="45.811174" lon="3.005982"><ele>898.25</ele></trkpt>
   <trkpt lat="45.811294" lon="3.005941"><ele>899.25</ele></trkpt>
   <trkpt lat="45.811662" lon="3.005935"><ele>900</ele></trkpt>
   <trkpt lat="45.811852" lon="3.005963"><ele>900.5</ele></trkpt>
   <trkpt lat="45.812023" lon="3.006035"><ele>901</ele></trkpt>
   <trkpt lat="45.812341" lon="3.00621"><ele>902</ele></trkpt>
   <trkpt lat="45.812504" lon="3.006242"><ele>903</ele></trkpt>
   <trkpt lat="45.812803" lon="3.00625"><ele>904</ele></trkpt>
   <trkpt lat="45.813173" lon="3.006228"><ele>905.5</ele></trkpt>
   <trkpt lat="45.813348" lon="3.006187"><ele>906.5</ele></trkpt>
   <trkpt lat="45.813543" lon="3.006075"><ele>907.75</ele></trkpt>
   <trkpt lat="45.813818" lon="3.005876"><ele>908.75</ele></trkpt>
   <trkpt lat="45.813965" lon="3.005681"><ele>909.5</ele></trkpt>
   <trkpt lat="45.814104" lon="3.00541"><ele>911</ele></trkpt>
   <trkpt lat="45.814339" lon="3.004845"><ele>912.5</ele></trkpt>
   <trkpt lat="45.814506" lon="3.004232"><ele>915</ele></trkpt>
   <trkpt lat="45.814594" lon="3.003842"><ele>916</ele></trkpt>
   <trkpt lat="45.814987" lon="3.00228"><ele>920</ele></trkpt>
   <trkpt lat="45.815039" lon="3.002116"><ele>920</ele></trkpt>
   <trkpt lat="45.815103" lon="3.001997"><ele>920</ele></trkpt>
   <trkpt lat="45.815181" lon="3.001915"><ele>919.75</ele></trkpt>
   <trkpt lat="45.815393" lon="3.001761"><ele>919.75</ele></trkpt>
   <trkpt lat="45.815913" lon="3.001444"><ele>920</ele></trkpt>
   <trkpt lat="45.816267" lon="3.002037"><ele>919</ele></trkpt>
   <trkpt lat="45.81649" lon="3.002286"><ele>921</ele></trkpt>
   <trkpt lat="45.816821" lon="3.002531"><ele>924</ele></trkpt>
   <trkpt lat="45.81688" lon="3.002621"><ele>924.25</ele></trkpt>
   <trkpt lat="45.816922" lon="3.002741"><ele>924.75</ele></trkpt>
   <trkpt lat="45.81701" lon="3.002788"><ele>924.5</ele></trkpt>
   <trkpt lat="45.817141" lon="3.002893"><ele>923.75</ele></trkpt>
   <trkpt lat="45.817477" lon="3.003069"><ele>922.75</ele></trkpt>
   <trkpt lat="45.818045" lon="3.003653"><ele>919.5</ele></trkpt>
   <trkpt lat="45.818723" lon="3.004156"><ele>913</ele></trkpt>
   <trkpt lat="45.819374" lon="3.00451"><ele>910</ele></trkpt>
   <trkpt lat="45.820278" lon="3.005178"><ele>905.5</ele></trkpt>
   <trkpt lat="45.820999" lon="3.005624"><ele>907</ele></trkpt>
   <trkpt lat="45.82154" lon="3.00592"><ele>908</ele></trkpt>
   <trkpt lat="45.821745" lon="3.005719"><ele>908</ele></trkpt>
   <trkpt lat="45.821999" lon="3.005313"><ele>906.75</ele></trkpt>
   <trkpt lat="45.822244" lon="3.005072"><ele>905.75</ele></trkpt>
   <trkpt lat="45.822549" lon="3.005064"><ele>905</ele></trkpt>
   <trkpt lat="45.822891" lon="3.00513"><ele>905.25</ele></trkpt>
   <trkpt lat="45.822996" lon="3.005797"><ele>905</ele></trkpt>
   <trkpt lat="45.823027" lon="3.00604"><ele>903.25</ele></trkpt>
   <trkpt lat="45.822996" lon="3.005797"><ele>905</ele></trkpt>
   <trkpt lat="45.822891" lon="3.00513"><ele>905.25</ele></trkpt>
   <trkpt lat="45.822619" lon="3.00408"><ele>904.5</ele></trkpt>
   <trkpt lat="45.822263" lon="3.002336"><ele>901</ele></trkpt>
   <trkpt lat="45.822209" lon="3.001803"><ele>898.5</ele></trkpt>
   <trkpt lat="45.822145" lon="3.001259"><ele>896.5</ele></trkpt>
   <trkpt lat="45.822097" lon="3.000359"><ele>895</ele></trkpt>
   <trkpt lat="45.822005" lon="2.99901"><ele>894.5</ele></trkpt>
   <trkpt lat="45.82198" lon="2.998429"><ele>893.75</ele></trkpt>
   <trkpt lat="45.822007" lon="2.997986"><ele>894.75</ele></trkpt>
   <trkpt lat="45.822312" lon="2.997209"><ele>895</ele></trkpt>
   <trkpt lat="45.822363" lon="2.996803"><ele>895</ele></trkpt>
   <trkpt lat="45.822428" lon="2.99648"><ele>895</ele></trkpt>
   <trkpt lat="45.822551" lon="2.99529"><ele>894</ele></trkpt>
   <trkpt lat="45.822568" lon="2.995129"><ele>894</ele></trkpt>
   <trkpt lat="45.822483" lon="2.995095"><ele>894</ele></trkpt>
   <trkpt lat="45.822202" lon="2.995104"><ele>894.5</ele></trkpt>
   <trkpt lat="45.821768" lon="2.995039"><ele>895.5</ele></trkpt>
   <trkpt lat="45.821506" lon="2.994982"><ele>895.75</ele></trkpt>
   <trkpt lat="45.821334" lon="2.994985"><ele>896</ele></trkpt>
   <trkpt lat="45.8211" lon="2.994965"><ele>896</ele></trkpt>
   <trkpt lat="45.821021" lon="2.994972"><ele>896</ele></trkpt>
   <trkpt lat="45.820747" lon="2.995045"><ele>896.25</ele></trkpt>
   <trkpt lat="45.820648" lon="2.995041"><ele>896.5</ele></trkpt>
   <trkpt lat="45.820566" lon="2.995026"><ele>896.75</ele></trkpt>
   <trkpt lat="45.820524" lon="2.99501"><ele>896.75</ele></trkpt>
   <trkpt lat="45.820409" lon="2.995032"><ele>896.75</ele></trkpt>
   <trkpt lat="45.820247" lon="2.995026"><ele>897</ele></trkpt>
   <trkpt lat="45.820088" lon="2.994976"><ele>896.75</ele></trkpt>
   <trkpt lat="45.81968" lon="2.994822"><ele>897.5</ele></trkpt>
   <trkpt lat="45.819193" lon="2.994692"><ele>898</ele></trkpt>
   <trkpt lat="45.818463" lon="2.994393"><ele>899</ele></trkpt>
   <trkpt lat="45.818379" lon="2.99438"><ele>899</ele></trkpt>
   <trkpt lat="45.818098" lon="2.994366"><ele>899.75</ele></trkpt>
   <trkpt lat="45.817557" lon="2.99429"><ele>903</ele></trkpt>
   <trkpt lat="45.817411" lon="2.994257"><ele>903.75</ele></trkpt>
   <trkpt lat="45.81729" lon="2.994212"><ele>904.5</ele></trkpt>
   <trkpt lat="45.817205" lon="2.994133"><ele>905</ele></trkpt>
   <trkpt lat="45.817067" lon="2.994077"><ele>905.75</ele></trkpt>
   <trkpt lat="45.816606" lon="2.994046"><ele>908.75</ele></trkpt>
   <trkpt lat="45.816526" lon="2.994024"><ele>908.75</ele></trkpt>
   <trkpt lat="45.816434" lon="2.994014"><ele>909.25</ele></trkpt>
   <trkpt lat="45.81621" lon="2.994013"><ele>910.5</ele></trkpt>
   <trkpt lat="45.815694" lon="2.994073"><ele>914.25</ele></trkpt>
   <trkpt lat="45.815495" lon="2.994067"><ele>915.5</ele></trkpt>
   <trkpt lat="45.81523" lon="2.99396"><ele>916.5</ele></trkpt>
   <trkpt lat="45.813434" lon="2.994267"><ele>928.5</ele></trkpt>
   <trkpt lat="45.812293" lon="2.994478"><ele>935.25</ele></trkpt>
   <trkpt lat="45.811884" lon="2.994494"><ele>938</ele></trkpt>
   <trkpt lat="45.811404" lon="2.994439"><ele>940.75</ele></trkpt>
   <trkpt lat="45.809662" lon="2.99366"><ele>950.75</ele></trkpt>
   <trkpt lat="45.809125" lon="2.993587"><ele>954.75</ele></trkpt>
   <trkpt lat="45.808546" lon="2.993611"><ele>958</ele></trkpt>
   <trkpt lat="45.807907" lon="2.993809"><ele>962</ele></trkpt>
   <trkpt lat="45.807449" lon="2.993868"><ele>965</ele></trkpt>
   <trkpt lat="45.807331" lon="2.993884"><ele>965</ele></trkpt>
   <trkpt lat="45.8068" lon="2.993797"><ele>967</ele></trkpt>
   <trkpt lat="45.806535" lon="2.993561"><ele>968.25</ele></trkpt>
   <trkpt lat="45.806008" lon="2.992922"><ele>972.5</ele></trkpt>
   <trkpt lat="45.805389" lon="2.992423"><ele>976.25</ele></trkpt>
   <trkpt lat="45.805196" lon="2.992286"><ele>977.25</ele></trkpt>
   <trkpt lat="45.805106" lon="2.992207"><ele>977.5</ele></trkpt>
   <trkpt lat="45.80496" lon="2.992049"><ele>978</ele></trkpt>
   <trkpt lat="45.804861" lon="2.991907"><ele>977.75</ele></trkpt>
   <trkpt lat="45.804494" lon="2.991313"><ele>976</ele></trkpt>
   <trkpt lat="45.804485" lon="2.991299"><ele>976</ele></trkpt>
   <trkpt lat="45.804349" lon="2.991158"><ele>975.25</ele></trkpt>
   <trkpt lat="45.804297" lon="2.99104"><ele>974.75</ele></trkpt>
   <trkpt lat="45.804268" lon="2.990915"><ele>974.5</ele></trkpt>
   <trkpt lat="45.804231" lon="2.990589"><ele>974.25</ele></trkpt>
   <trkpt lat="45.804086" lon="2.9896"><ele>972.5</ele></trkpt>
   <trkpt lat="45.804021" lon="2.989354"><ele>973.25</ele></trkpt>
   <trkpt lat="45.803956" lon="2.989238"><ele>974</ele></trkpt>
   <trkpt lat="45.803824" lon="2.989121"><ele>974.5</ele></trkpt>
   <trkpt lat="45.803577" lon="2.988961"><ele>975</ele></trkpt>
   <trkpt lat="45.803443" lon="2.988899"><ele>975.25</ele></trkpt>
   <trkpt lat="45.803218" lon="2.988908"><ele>975.25</ele></trkpt>
   <trkpt lat="45.803059" lon="2.988974"><ele>975.75</ele></trkpt>
   <trkpt lat="45.802909" lon="2.988985"><ele>976.25</ele></trkpt>
   <trkpt lat="45.802825" lon="2.988939"><ele>976.5</ele></trkpt>
   <trkpt lat="45.802685" lon="2.989394"><ele>976.75</ele></trkpt>
   <trkpt lat="45.802526" lon="2.989791"><ele>974.75</ele></trkpt>
   <trkpt lat="45.802352" lon="2.990158"><ele>972.25</ele></trkpt>
   <trkpt lat="45.80218" lon="2.990469"><ele>972.5</ele></trkpt>
   <trkpt lat="45.802018" lon="2.990724"><ele>971.25</ele></trkpt>
   <trkpt lat="45.801765" lon="2.991058"><ele>969.25</ele></trkpt>
   <trkpt lat="45.801443" lon="2.991377"><ele>968.25</ele></trkpt>
   <trkpt lat="45.801073" lon="2.991651"><ele>968.5</ele></trkpt>
   <trkpt lat="45.800584" lon="2.991882"><ele>967.5</ele></trkpt>
   <trkpt lat="45.800223" lon="2.992005"><ele>968.25</ele></trkpt>
   <trkpt lat="45.80004" lon="2.992054"><ele>968.75</ele></trkpt>
   <trkpt lat="45.799842" lon="2.992105"><ele>969</ele></trkpt>
   <trkpt lat="45.799725" lon="2.992158"><ele>969</ele></trkpt>
   <trkpt lat="45.799592" lon="2.992047"><ele>969.5</ele></trkpt>
   <trkpt lat="45.799473" lon="2.992099"><ele>969.75</ele></trkpt>
   <trkpt lat="45.799255" lon="2.992223"><ele>969</ele></trkpt>
   <trkpt lat="45.799017" lon="2.992284"><ele>968.5</ele></trkpt>
   <trkpt lat="45.798834" lon="2.992275"><ele>967.75</ele></trkpt>
   <trkpt lat="45.798825" lon="2.992426"><ele>967.75</ele></trkpt>
   <trkpt lat="45.798727" lon="2.992409"><ele>967.5</ele></trkpt>
   <trkpt lat="45.798597" lon="2.992405"><ele>967</ele></trkpt>
   <trkpt lat="45.798464" lon="2.992425"><ele>966</ele></trkpt>
   <trkpt lat="45.797639" lon="2.992631"><ele>959.5</ele></trkpt>
   <trkpt lat="45.796449" lon="2.992913"><ele>952</ele></trkpt>
   <trkpt lat="45.795958" lon="2.993096"><ele>947.5</ele></trkpt>
   <trkpt lat="45.795709" lon="2.99324"><ele>945.75</ele></trkpt>
   <trkpt lat="45.795589" lon="2.993292"><ele>944.75</ele></trkpt>
   <trkpt lat="45.795471" lon="2.993361"><ele>943.5</ele></trkpt>
   <trkpt lat="45.79509" lon="2.99365"><ele>940.5</ele></trkpt>
   <trkpt lat="45.794665" lon="2.994069"><ele>936.25</ele></trkpt>
   <trkpt lat="45.794513" lon="2.994277"><ele>935.5</ele></trkpt>
   <trkpt lat="45.794242" lon="2.994619"><ele>933</ele></trkpt>
   <trkpt lat="45.793939" lon="2.995104"><ele>928.5</ele></trkpt>
   <trkpt lat="45.7937" lon="2.99557"><ele>925</ele></trkpt>
   <trkpt lat="45.793465" lon="2.996132"><ele>920.75</ele></trkpt>
   <trkpt lat="45.793476" lon="2.99655"><ele>920.75</ele></trkpt>
   <trkpt lat="45.79373" lon="2.997659"><ele>923</ele></trkpt>
   <trkpt lat="45.793727" lon="2.998162"><ele>919.75</ele></trkpt>
   <trkpt lat="45.7937" lon="2.998468"><ele>917.5</ele></trkpt>
   <trkpt lat="45.793751" lon="2.99893"><ele>915.75</ele></trkpt>
   <trkpt lat="45.793796" lon="2.999194"><ele>915.25</ele></trkpt>
   <trkpt lat="45.793718" lon="2.99943"><ele>912.5</ele></trkpt>
   <trkpt lat="45.793727" lon="2.999541"><ele>912</ele></trkpt>
   <trkpt lat="45.793961" lon="3.000207"><ele>911.25</ele></trkpt>
   <trkpt lat="45.793967" lon="3.000743"><ele>909</ele></trkpt>
   <trkpt lat="45.793986" lon="3.001003"><ele>908.25</ele></trkpt>
   <trkpt lat="45.794045" lon="3.001202"><ele>908</ele></trkpt>
   <trkpt lat="45.794099" lon="3.001346"><ele>907.5</ele></trkpt>
   <trkpt lat="45.795079" lon="3.002305"><ele>910.75</ele></trkpt>
   <trkpt lat="45.79507" lon="3.002716"><ele>908.5</ele></trkpt>
   <trkpt lat="45.795769" lon="3.003186"><ele>909.75</ele></trkpt>
   <trkpt lat="45.796818" lon="3.00378"><ele>911</ele></trkpt>
   <trkpt lat="45.796872" lon="3.003849"><ele>910.75</ele></trkpt>
   <trkpt lat="45.796869" lon="3.003942"><ele>909.75</ele></trkpt>
   <trkpt lat="45.796673" lon="3.004458"><ele>905.75</ele></trkpt>
   <trkpt lat="45.796314" lon="3.005452"><ele>900.5</ele></trkpt>
   <trkpt lat="45.796238" lon="3.005732"><ele>898.75</ele></trkpt>
   <trkpt lat="45.796192" lon="3.00603"><ele>898</ele></trkpt>
   <trkpt lat="45.796112" lon="3.006745"><ele>896.75</ele></trkpt>
   <trkpt lat="45.796035" lon="3.007129"><ele>897</ele></trkpt>
   <trkpt lat="45.795881" lon="3.007501"><ele>897.25</ele></trkpt>
   <trkpt lat="45.795827" lon="3.007925"><ele>894.5</ele></trkpt>
   <trkpt lat="45.795815" lon="3.008026"><ele>894.5</ele></trkpt>
   <trkpt lat="45.795785" lon="3.008266"><ele>894.5</ele></trkpt>
   <trkpt lat="45.795435" lon="3.008605"><ele>894.5</ele></trkpt>
   <trkpt lat="45.795166" lon="3.008745"><ele>891.75</ele></trkpt>
   <trkpt lat="45.794418" lon="3.008499"><ele>890.5</ele></trkpt>
   <trkpt lat="45.793272" lon="3.008219"><ele>881.5</ele></trkpt>
   <trkpt lat="45.792828" lon="3.007833"><ele>879.25</ele></trkpt>
   <trkpt lat="45.791823" lon="3.006851"><ele>872.75</ele></trkpt>
   <trkpt lat="45.791161" lon="3.006445"><ele>864.75</ele></trkpt>
   <trkpt lat="45.791086" lon="3.006399"><ele>864.75</ele></trkpt>
   <trkpt lat="45.790513" lon="3.006142"><ele>865.25</ele></trkpt>
   <trkpt lat="45.790356" lon="3.006116"><ele>866.25</ele></trkpt>
   <trkpt lat="45.790226" lon="3.006205"><ele>866</ele></trkpt>
   <trkpt lat="45.790036" lon="3.00638"><ele>865</ele></trkpt>
   <trkpt lat="45.789854" lon="3.006529"><ele>865</ele></trkpt>
   <trkpt lat="45.789496" lon="3.006581"><ele>865.75</ele></trkpt>
   <trkpt lat="45.789131" lon="3.006596"><ele>864.5</ele></trkpt>
   <trkpt lat="45.788855" lon="3.006653"><ele>861.75</ele></trkpt>
   <trkpt lat="45.788585" lon="3.007328"><ele>858.25</ele></trkpt>
   <trkpt lat="45.788468" lon="3.007618"><ele>856.25</ele></trkpt>
   <trkpt lat="45.788285" lon="3.00807"><ele>853.75</ele></trkpt>
   <trkpt lat="45.788233" lon="3.008025"><ele>853.5</ele></trkpt>
   <trkpt lat="45.788137" lon="3.008022"><ele>853.25</ele></trkpt>
   <trkpt lat="45.787966" lon="3.008065"><ele>852.5</ele></trkpt>
   <trkpt lat="45.787353" lon="3.008317"><ele>851.25</ele></trkpt>
   <trkpt lat="45.787005" lon="3.008455"><ele>850.5</ele></trkpt>
   <trkpt lat="45.786714" lon="3.008554"><ele>850.75</ele></trkpt>
   <trkpt lat="45.786648" lon="3.008578"><ele>850.75</ele></trkpt>
   <trkpt lat="45.785356" lon="3.009085"><ele>845.75</ele></trkpt>
   <trkpt lat="45.784879" lon="3.009277"><ele>842.5</ele></trkpt>
   <trkpt lat="45.784816" lon="3.009305"><ele>842</ele></trkpt>
   <trkpt lat="45.784623" lon="3.009411"><ele>841</ele></trkpt>
   <trkpt lat="45.78441" lon="3.009572"><ele>840.5</ele></trkpt>
   <trkpt lat="45.784278" lon="3.009728"><ele>840.5</ele></trkpt>
   <trkpt lat="45.78403" lon="3.010063"><ele>840.5</ele></trkpt>
   <trkpt lat="45.783264" lon="3.011157"><ele>839</ele></trkpt>
   <trkpt lat="45.783181" lon="3.011324"><ele>838.25</ele></trkpt>
   <trkpt lat="45.783155" lon="3.011465"><ele>837.5</ele></trkpt>
   <trkpt lat="45.783125" lon="3.011675"><ele>836</ele></trkpt>
   <trkpt lat="45.783106" lon="3.011808"><ele>835.25</ele></trkpt>
   <trkpt lat="45.783086" lon="3.011942"><ele>834.25</ele></trkpt>
   <trkpt lat="45.783086" lon="3.012035"><ele>833.5</ele></trkpt>
   <trkpt lat="45.783101" lon="3.012157"><ele>833</ele></trkpt>
   <trkpt lat="45.78321" lon="3.012563"><ele>829.25</ele></trkpt>
   <trkpt lat="45.783559" lon="3.013042"><ele>825.5</ele></trkpt>
   <trkpt lat="45.783573" lon="3.01306"><ele>825.5</ele></trkpt>
   <trkpt lat="45.783611" lon="3.01314"><ele>825.25</ele></trkpt>
   <trkpt lat="45.783615" lon="3.0132"><ele>824.75</ele></trkpt>
   <trkpt lat="45.783538" lon="3.013187"><ele>824.5</ele></trkpt>
   <trkpt lat="45.783074" lon="3.013128"><ele>821.5</ele></trkpt>
   <trkpt lat="45.782945" lon="3.013084"><ele>820.5</ele></trkpt>
   <trkpt lat="45.782813" lon="3.012992"><ele>820</ele></trkpt>
   <trkpt lat="45.782628" lon="3.012843"><ele>819.75</ele></trkpt>
   <trkpt lat="45.782432" lon="3.01265"><ele>819.75</ele></trkpt>
   <trkpt lat="45.782316" lon="3.012524"><ele>819.75</ele></trkpt>
   <trkpt lat="45.782245" lon="3.012428"><ele>819.5</ele></trkpt>
   <trkpt lat="45.78218" lon="3.012325"><ele>820</ele></trkpt>
   <trkpt lat="45.782113" lon="3.012202"><ele>820.25</ele></trkpt>
   <trkpt lat="45.782054" lon="3.012114"><ele>820.25</ele></trkpt>
   <trkpt lat="45.781966" lon="3.012035"><ele>819.75</ele></trkpt>
   <trkpt lat="45.781907" lon="3.012002"><ele>819.75</ele></trkpt>
   <trkpt lat="45.781858" lon="3.01199"><ele>819.75</ele></trkpt>
   <trkpt lat="45.781705" lon="3.012"><ele>819.5</ele></trkpt>
   <trkpt lat="45.781503" lon="3.012028"><ele>818.5</ele></trkpt>
   <trkpt lat="45.781473" lon="3.012078"><ele>818</ele></trkpt>
   <trkpt lat="45.780832" lon="3.012509"><ele>809.75</ele></trkpt>
   <trkpt lat="45.780312" lon="3.012792"><ele>802.25</ele></trkpt>
   <trkpt lat="45.779659" lon="3.012908"><ele>796.5</ele></trkpt>
   <trkpt lat="45.77931" lon="3.012884"><ele>793</ele></trkpt>
   <trkpt lat="45.779223" lon="3.012883"><ele>792</ele></trkpt>
   <trkpt lat="45.779152" lon="3.012919"><ele>791.25</ele></trkpt>
   <trkpt lat="45.77901" lon="3.013136"><ele>789.25</ele></trkpt>
   <trkpt lat="45.778784" lon="3.013568"><ele>786.75</ele></trkpt>
   <trkpt lat="45.778695" lon="3.013995"><ele>785.75</ele></trkpt>
   <trkpt lat="45.778671" lon="3.014111"><ele>785</ele></trkpt>
   <trkpt lat="45.778447" lon="3.014671"><ele>783.75</ele></trkpt>
   <trkpt lat="45.778383" lon="3.014982"><ele>783.5</ele></trkpt>
   <trkpt lat="45.77837" lon="3.015734"><ele>782</ele></trkpt>
   <trkpt lat="45.778296" lon="3.016175"><ele>781</ele></trkpt>
   <trkpt lat="45.778194" lon="3.016611"><ele>779.75</ele></trkpt>
   <trkpt lat="45.778146" lon="3.016705"><ele>779.5</ele></trkpt>
   <trkpt lat="45.778136" lon="3.016761"><ele>779.5</ele></trkpt>
   <trkpt lat="45.77812" lon="3.016812"><ele>779.5</ele></trkpt>
   <trkpt lat="45.778025" lon="3.017119"><ele>778.75</ele></trkpt>
   <trkpt lat="45.777906" lon="3.017338"><ele>777.25</ele></trkpt>
   <trkpt lat="45.777767" lon="3.017638"><ele>774.5</ele></trkpt>
   <trkpt lat="45.777748" lon="3.017832"><ele>773.5</ele></trkpt>
   <trkpt lat="45.777619" lon="3.018277"><ele>770</ele></trkpt>
   <trkpt lat="45.777567" lon="3.018622"><ele>767</ele></trkpt>
   <trkpt lat="45.777416" lon="3.01886"><ele>766</ele></trkpt>
   <trkpt lat="45.777322" lon="3.01904"><ele>765.75</ele></trkpt>
   <trkpt lat="45.777259" lon="3.019174"><ele>765.5</ele></trkpt>
   <trkpt lat="45.777204" lon="3.019244"><ele>765.5</ele></trkpt>
   <trkpt lat="45.777144" lon="3.019294"><ele>765.5</ele></trkpt>
   <trkpt lat="45.776973" lon="3.019338"><ele>766.5</ele></trkpt>
   <trkpt lat="45.776901" lon="3.019396"><ele>766.25</ele></trkpt>
   <trkpt lat="45.776778" lon="3.019522"><ele>765.75</ele></trkpt>
   <trkpt lat="45.776551" lon="3.01971"><ele>764</ele></trkpt>
   <trkpt lat="45.776465" lon="3.019754"><ele>763.5</ele></trkpt>
   <trkpt lat="45.776411" lon="3.019744"><ele>763.75</ele></trkpt>
   <trkpt lat="45.77635" lon="3.019708"><ele>764</ele></trkpt>
   <trkpt lat="45.776307" lon="3.019678"><ele>764.25</ele></trkpt>
   <trkpt lat="45.776247" lon="3.019666"><ele>764.25</ele></trkpt>
   <trkpt lat="45.776156" lon="3.019664"><ele>764</ele></trkpt>
   <trkpt lat="45.776042" lon="3.019798"><ele>763.5</ele></trkpt>
   <trkpt lat="45.775947" lon="3.019977"><ele>762.75</ele></trkpt>
   <trkpt lat="45.775865" lon="3.020148"><ele>762</ele></trkpt>
   <trkpt lat="45.775822" lon="3.020217"><ele>762</ele></trkpt>
   <trkpt lat="45.775784" lon="3.02025"><ele>761.5</ele></trkpt>
   <trkpt lat="45.775765" lon="3.020261"><ele>761.25</ele></trkpt>
   <trkpt lat="45.775741" lon="3.020262"><ele>761</ele></trkpt>
   <trkpt lat="45.77564" lon="3.020197"><ele>760.25</ele></trkpt>
   <trkpt lat="45.775601" lon="3.020161"><ele>760.25</ele></trkpt>
   <trkpt lat="45.775534" lon="3.02013"><ele>759.75</ele></trkpt>
   <trkpt lat="45.775259" lon="3.020052"><ele>758</ele></trkpt>
   <trkpt lat="45.775154" lon="3.019984"><ele>757.25</ele></trkpt>
   <trkpt lat="45.775064" lon="3.019902"><ele>757.25</ele></trkpt>
   <trkpt lat="45.77483" lon="3.019679"><ele>756.75</ele></trkpt>
   <trkpt lat="45.774667" lon="3.019557"><ele>755.75</ele></trkpt>
   <trkpt lat="45.77473" lon="3.019776"><ele>753</ele></trkpt>
   <trkpt lat="45.774842" lon="3.020067"><ele>750.25</ele></trkpt>
   <trkpt lat="45.775058" lon="3.020529"><ele>745.75</ele></trkpt>
   <trkpt lat="45.775419" lon="3.021469"><ele>737.25</ele></trkpt>
   <trkpt lat="45.775426" lon="3.021564"><ele>736.75</ele></trkpt>
   <trkpt lat="45.775448" lon="3.021868"><ele>734.25</ele></trkpt>
   <trkpt lat="45.775479" lon="3.021917"><ele>734</ele></trkpt>
   <trkpt lat="45.775533" lon="3.022003"><ele>734.25</ele></trkpt>
   <trkpt lat="45.775569" lon="3.022291"><ele>734</ele></trkpt>
   <trkpt lat="45.775623" lon="3.022641"><ele>734.25</ele></trkpt>
   <trkpt lat="45.775674" lon="3.023009"><ele>734.5</ele></trkpt>
   <trkpt lat="45.775737" lon="3.023311"><ele>735.5</ele></trkpt>
   <trkpt lat="45.77578" lon="3.023661"><ele>736</ele></trkpt>
   <trkpt lat="45.775819" lon="3.023904"><ele>735.75</ele></trkpt>
   <trkpt lat="45.77595" lon="3.024365"><ele>736</ele></trkpt>
   <trkpt lat="45.776207" lon="3.025066"><ele>736.25</ele></trkpt>
   <trkpt lat="45.776342" lon="3.025348"><ele>736.25</ele></trkpt>
   <trkpt lat="45.776493" lon="3.025981"><ele>733.75</ele></trkpt>
   <trkpt lat="45.776544" lon="3.026283"><ele>733</ele></trkpt>
   <trkpt lat="45.776668" lon="3.02679"><ele>731</ele></trkpt>
   <trkpt lat="45.776784" lon="3.027338"><ele>730.5</ele></trkpt>
   <trkpt lat="45.776835" lon="3.02765"><ele>730</ele></trkpt>
   <trkpt lat="45.776899" lon="3.028147"><ele>728.25</ele></trkpt>
   <trkpt lat="45.776945" lon="3.029265"><ele>724.75</ele></trkpt>
   <trkpt lat="45.777096" lon="3.029586"><ele>723</ele></trkpt>
   <trkpt lat="45.777296" lon="3.029937"><ele>718.25</ele></trkpt>
   <trkpt lat="45.777788" lon="3.030475"><ele>713.25</ele></trkpt>
   <trkpt lat="45.77808" lon="3.030824"><ele>709.25</ele></trkpt>
   <trkpt lat="45.778243" lon="3.031126"><ele>707.75</ele></trkpt>
   <trkpt lat="45.778613" lon="3.031752"><ele>703.5</ele></trkpt>
   <trkpt lat="45.778741" lon="3.03201"><ele>702.75</ele></trkpt>
   <trkpt lat="45.778797" lon="3.032236"><ele>701.75</ele></trkpt>
   <trkpt lat="45.778875" lon="3.032715"><ele>698.25</ele></trkpt>
   <trkpt lat="45.778931" lon="3.033007"><ele>697.5</ele></trkpt>
   <trkpt lat="45.779425" lon="3.034225"><ele>686</ele></trkpt>
   <trkpt lat="45.779519" lon="3.034399"><ele>684.75</ele></trkpt>
   <trkpt lat="45.779749" lon="3.034624"><ele>683.25</ele></trkpt>
   <trkpt lat="45.779943" lon="3.034876"><ele>679</ele></trkpt>
   <trkpt lat="45.779971" lon="3.035123"><ele>673</ele></trkpt>
   <trkpt lat="45.779907" lon="3.035418"><ele>669</ele></trkpt>
   <trkpt lat="45.779819" lon="3.035882"><ele>663.25</ele></trkpt>
   <trkpt lat="45.779812" lon="3.036241"><ele>658.75</ele></trkpt>
   <trkpt lat="45.77987" lon="3.036718"><ele>652.75</ele></trkpt>
   <trkpt lat="45.779836" lon="3.037065"><ele>649</ele></trkpt>
   <trkpt lat="45.779779" lon="3.037185"><ele>646.75</ele></trkpt>
   <trkpt lat="45.779739" lon="3.037269"><ele>644.75</ele></trkpt>
   <trkpt lat="45.779685" lon="3.037477"><ele>641.25</ele></trkpt>
   <trkpt lat="45.779603" lon="3.037581"><ele>639.75</ele></trkpt>
   <trkpt lat="45.779409" lon="3.037721"><ele>636</ele></trkpt>
   <trkpt lat="45.779386" lon="3.037892"><ele>632.5</ele></trkpt>
   <trkpt lat="45.779696" lon="3.03834"><ele>624.75</ele></trkpt>
   <trkpt lat="45.779789" lon="3.038665"><ele>622.75</ele></trkpt>
   <trkpt lat="45.779781" lon="3.039357"><ele>616.75</ele></trkpt>
   <trkpt lat="45.779612" lon="3.039813"><ele>610.75</ele></trkpt>
   <trkpt lat="45.77948" lon="3.040111"><ele>607.75</ele></trkpt>
   <trkpt lat="45.779426" lon="3.040232"><ele>605.75</ele></trkpt>
   <trkpt lat="45.779362" lon="3.04057"><ele>604.25</ele></trkpt>
   <trkpt lat="45.779411" lon="3.040895"><ele>599.75</ele></trkpt>
   <trkpt lat="45.779532" lon="3.041177"><ele>597</ele></trkpt>
   <trkpt lat="45.780012" lon="3.0416"><ele>589.5</ele></trkpt>
   <trkpt lat="45.780171" lon="3.041782"><ele>587.5</ele></trkpt>
   <trkpt lat="45.780281" lon="3.041946"><ele>586</ele></trkpt>
   <trkpt lat="45.780446" lon="3.042192"><ele>584.25</ele></trkpt>
   <trkpt lat="45.780703" lon="3.042718"><ele>578.75</ele></trkpt>
   <trkpt lat="45.780883" lon="3.043343"><ele>569.25</ele></trkpt>
   <trkpt lat="45.781051" lon="3.044455"><ele>554</ele></trkpt>
   <trkpt lat="45.781078" lon="3.044761"><ele>549.75</ele></trkpt>
   <trkpt lat="45.781074" lon="3.044901"><ele>547.25</ele></trkpt>
   <trkpt lat="45.781092" lon="3.044978"><ele>546</ele></trkpt>
   <trkpt lat="45.7811" lon="3.045042"><ele>545.5</ele></trkpt>
   <trkpt lat="45.781101" lon="3.045122"><ele>544.75</ele></trkpt>
   <trkpt lat="45.781083" lon="3.045225"><ele>543.75</ele></trkpt>
   <trkpt lat="45.781058" lon="3.045295"><ele>543</ele></trkpt>
   <trkpt lat="45.781014" lon="3.045377"><ele>542.25</ele></trkpt>
   <trkpt lat="45.780919" lon="3.045512"><ele>540.75</ele></trkpt>
   <trkpt lat="45.780862" lon="3.04558"><ele>539.5</ele></trkpt>
   <trkpt lat="45.780806" lon="3.045684"><ele>538.25</ele></trkpt>
   <trkpt lat="45.780703" lon="3.045913"><ele>536</ele></trkpt>
   <trkpt lat="45.780521" lon="3.046362"><ele>531</ele></trkpt>
   <trkpt lat="45.780303" lon="3.046965"><ele>527</ele></trkpt>
   <trkpt lat="45.780167" lon="3.0473"><ele>524</ele></trkpt>
   <trkpt lat="45.780089" lon="3.047524"><ele>522.25</ele></trkpt>
   <trkpt lat="45.780008" lon="3.047647"><ele>521</ele></trkpt>
   <trkpt lat="45.779961" lon="3.047718"><ele>520</ele></trkpt>
   <trkpt lat="45.779926" lon="3.047722"><ele>519.75</ele></trkpt>
   <trkpt lat="45.779889" lon="3.047747"><ele>519.25</ele></trkpt>
   <trkpt lat="45.77986" lon="3.047794"><ele>518.75</ele></trkpt>
   <trkpt lat="45.779846" lon="3.047858"><ele>518.5</ele></trkpt>
   <trkpt lat="45.77985" lon="3.047917"><ele>518.25</ele></trkpt>
   <trkpt lat="45.779815" lon="3.048039"><ele>517.5</ele></trkpt>
   <trkpt lat="45.779757" lon="3.048182"><ele>516.75</ele></trkpt>
   <trkpt lat="45.779694" lon="3.04826"><ele>516</ele></trkpt>
   <trkpt lat="45.779567" lon="3.048365"><ele>515.25</ele></trkpt>
   <trkpt lat="45.779353" lon="3.048467"><ele>513</ele></trkpt>
   <trkpt lat="45.779103" lon="3.048684"><ele>510.25</ele></trkpt>
   <trkpt lat="45.778942" lon="3.048807"><ele>508.75</ele></trkpt>
   <trkpt lat="45.778747" lon="3.048973"><ele>505.75</ele></trkpt>
   <trkpt lat="45.778455" lon="3.049359"><ele>500.25</ele></trkpt>
   <trkpt lat="45.77836" lon="3.049443"><ele>498.25</ele></trkpt>
   <trkpt lat="45.777366" lon="3.050128"><ele>486.25</ele></trkpt>
   <trkpt lat="45.777264" lon="3.050185"><ele>485.5</ele></trkpt>
   <trkpt lat="45.777117" lon="3.05024"><ele>484.75</ele></trkpt>
   <trkpt lat="45.777101" lon="3.050238"><ele>484.75</ele></trkpt>
   <trkpt lat="45.777067" lon="3.050266"><ele>484.5</ele></trkpt>
   <trkpt lat="45.777041" lon="3.050309"><ele>484</ele></trkpt>
   <trkpt lat="45.777006" lon="3.050425"><ele>483.5</ele></trkpt>
   <trkpt lat="45.777019" lon="3.050529"><ele>483</ele></trkpt>
   <trkpt lat="45.776949" lon="3.050751"><ele>482</ele></trkpt>
   <trkpt lat="45.776856" lon="3.050913"><ele>481.75</ele></trkpt>
   <trkpt lat="45.776792" lon="3.051021"><ele>481.5</ele></trkpt>
   <trkpt lat="45.776602" lon="3.051308"><ele>481</ele></trkpt>
   <trkpt lat="45.776524" lon="3.051485"><ele>480.75</ele></trkpt>
   <trkpt lat="45.776426" lon="3.051628"><ele>480.25</ele></trkpt>
   <trkpt lat="45.776356" lon="3.051766"><ele>480.25</ele></trkpt>
   <trkpt lat="45.776304" lon="3.051885"><ele>481.25</ele></trkpt>
   <trkpt lat="45.776119" lon="3.052437"><ele>476.75</ele></trkpt>
   <trkpt lat="45.775949" lon="3.052851"><ele>470</ele></trkpt>
   <trkpt lat="45.775861" lon="3.053022"><ele>469</ele></trkpt>
   <trkpt lat="45.775627" lon="3.053438"><ele>461.75</ele></trkpt>
   <trkpt lat="45.775561" lon="3.053574"><ele>460.75</ele></trkpt>
   <trkpt lat="45.775511" lon="3.05371"><ele>459.5</ele></trkpt>
   <trkpt lat="45.775501" lon="3.053749"><ele>459.25</ele></trkpt>
   <trkpt lat="45.77546" lon="3.053915"><ele>457.75</ele></trkpt>
   <trkpt lat="45.775421" lon="3.054097"><ele>456.25</ele></trkpt>
   <trkpt lat="45.77541" lon="3.054164"><ele>455.75</ele></trkpt>
   <trkpt lat="45.775382" lon="3.054383"><ele>453.75</ele></trkpt>
   <trkpt lat="45.775378" lon="3.054471"><ele>453.25</ele></trkpt>
   <trkpt lat="45.775391" lon="3.054743"><ele>453</ele></trkpt>
   <trkpt lat="45.775409" lon="3.054976"><ele>451</ele></trkpt>
   <trkpt lat="45.775449" lon="3.055219"><ele>449.25</ele></trkpt>
   <trkpt lat="45.775507" lon="3.055514"><ele>446.75</ele></trkpt>
   <trkpt lat="45.775524" lon="3.055755"><ele>445.75</ele></trkpt>
   <trkpt lat="45.775504" lon="3.056015"><ele>443.75</ele></trkpt>
   <trkpt lat="45.775382" lon="3.056821"><ele>439</ele></trkpt>
   <trkpt lat="45.775334" lon="3.057083"><ele>437.5</ele></trkpt>
   <trkpt lat="45.775225" lon="3.057782"><ele>432.5</ele></trkpt>
   <trkpt lat="45.775204" lon="3.057961"><ele>432</ele></trkpt>
   <trkpt lat="45.775194" lon="3.058266"><ele>430.75</ele></trkpt>
   <trkpt lat="45.775207" lon="3.058556"><ele>428.5</ele></trkpt>
   <trkpt lat="45.775224" lon="3.058764"><ele>427.25</ele></trkpt>
   <trkpt lat="45.775235" lon="3.059076"><ele>425.25</ele></trkpt>
   <trkpt lat="45.775271" lon="3.059292"><ele>424</ele></trkpt>
   <trkpt lat="45.775333" lon="3.059407"><ele>423.5</ele></trkpt>
   <trkpt lat="45.775543" lon="3.059608"><ele>422</ele></trkpt>
   <trkpt lat="45.775611" lon="3.059656"><ele>421.75</ele></trkpt>
   <trkpt lat="45.77569" lon="3.059787"><ele>421</ele></trkpt>
   <trkpt lat="45.775746" lon="3.059895"><ele>420.25</ele></trkpt>
   <trkpt lat="45.775805" lon="3.060154"><ele>418.75</ele></trkpt>
   <trkpt lat="45.775948" lon="3.061025"><ele>415.25</ele></trkpt>
   <trkpt lat="45.775996" lon="3.061329"><ele>414</ele></trkpt>
   <trkpt lat="45.776138" lon="3.062226"><ele>409.75</ele></trkpt>
   <trkpt lat="45.776145" lon="3.062268"><ele>409.75</ele></trkpt>
   <trkpt lat="45.776167" lon="3.06243"><ele>409.25</ele></trkpt>
   <trkpt lat="45.776169" lon="3.06254"><ele>409</ele></trkpt>
   <trkpt lat="45.776172" lon="3.062643"><ele>408.75</ele></trkpt>
   <trkpt lat="45.776174" lon="3.062745"><ele>408.5</ele></trkpt>
   <trkpt lat="45.776214" lon="3.063298"><ele>406</ele></trkpt>
   <trkpt lat="45.776227" lon="3.063456"><ele>405.5</ele></trkpt>
   <trkpt lat="45.77623" lon="3.063614"><ele>405</ele></trkpt>
   <trkpt lat="45.77623" lon="3.063665"><ele>405</ele></trkpt>
   <trkpt lat="45.776229" lon="3.064067"><ele>404.25</ele></trkpt>
   <trkpt lat="45.776229" lon="3.064148"><ele>404</ele></trkpt>
   <trkpt lat="45.776237" lon="3.064597"><ele>403.25</ele></trkpt>
   <trkpt lat="45.776237" lon="3.064708"><ele>403</ele></trkpt>
   <trkpt lat="45.77623" lon="3.064772"><ele>402.75</ele></trkpt>
   <trkpt lat="45.776216" lon="3.064849"><ele>402.75</ele></trkpt>
   <trkpt lat="45.776202" lon="3.064903"><ele>402.75</ele></trkpt>
   <trkpt lat="45.776198" lon="3.064921"><ele>402.75</ele></trkpt>
   <trkpt lat="45.776172" lon="3.065018"><ele>402.5</ele></trkpt>
   <trkpt lat="45.776143" lon="3.065136"><ele>402.25</ele></trkpt>
   <trkpt lat="45.776189" lon="3.065226"><ele>401.75</ele></trkpt>
   <trkpt lat="45.776275" lon="3.065342"><ele>401.25</ele></trkpt>
   <trkpt lat="45.77632" lon="3.065474"><ele>401</ele></trkpt>
   <trkpt lat="45.776367" lon="3.065644"><ele>401</ele></trkpt>
   <trkpt lat="45.776411" lon="3.065877"><ele>400.75</ele></trkpt>
   <trkpt lat="45.776427" lon="3.065964"><ele>400.75</ele></trkpt>
   <trkpt lat="45.776538" lon="3.066248"><ele>401</ele></trkpt>
   <trkpt lat="45.776567" lon="3.066411"><ele>401</ele></trkpt>
   <trkpt lat="45.776592" lon="3.066636"><ele>401</ele></trkpt>
   <trkpt lat="45.776611" lon="3.06679"><ele>401.5</ele></trkpt>
   <trkpt lat="45.776567" lon="3.067012"><ele>401.75</ele></trkpt>
   <trkpt lat="45.776534" lon="3.067144"><ele>401.25</ele></trkpt>
   <trkpt lat="45.776525" lon="3.067341"><ele>400.75</ele></trkpt>
   <trkpt lat="45.776508" lon="3.067428"><ele>400.5</ele></trkpt>
   <trkpt lat="45.776573" lon="3.06792"><ele>400</ele></trkpt>
   <trkpt lat="45.776593" lon="3.067946"><ele>400</ele></trkpt>
   <trkpt lat="45.776717" lon="3.06815"><ele>399.5</ele></trkpt>
   <trkpt lat="45.776824" lon="3.068292"><ele>399</ele></trkpt>
   <trkpt lat="45.776848" lon="3.068327"><ele>399</ele></trkpt>
   <trkpt lat="45.776945" lon="3.068581"><ele>398</ele></trkpt>
   <trkpt lat="45.777092" lon="3.068928"><ele>396.75</ele></trkpt>
   <trkpt lat="45.77716" lon="3.068903"><ele>396.75</ele></trkpt>
   <trkpt lat="45.777296" lon="3.068874"><ele>396.75</ele></trkpt>
   <trkpt lat="45.77737" lon="3.068842"><ele>396.5</ele></trkpt>
   <trkpt lat="45.777429" lon="3.068817"><ele>396.25</ele></trkpt>
   <trkpt lat="45.777421" lon="3.068959"><ele>396</ele></trkpt>
   <trkpt lat="45.777419" lon="3.068987"><ele>395.75</ele></trkpt>
   <trkpt lat="45.777416" lon="3.069033"><ele>395.75</ele></trkpt>
   <trkpt lat="45.777401" lon="3.069315"><ele>395</ele></trkpt>
   <trkpt lat="45.777458" lon="3.069324"><ele>395</ele></trkpt>
   <trkpt lat="45.777509" lon="3.069347"><ele>394.75</ele></trkpt>
   <trkpt lat="45.777553" lon="3.069412"><ele>394.75</ele></trkpt>
   <trkpt lat="45.777658" lon="3.069595"><ele>394.25</ele></trkpt>
   <trkpt lat="45.777739" lon="3.069754"><ele>394</ele></trkpt>
   <trkpt lat="45.777907" lon="3.069957"><ele>393.5</ele></trkpt>
   <trkpt lat="45.778039" lon="3.070086"><ele>393.25</ele></trkpt>
   <trkpt lat="45.778147" lon="3.070235"><ele>392.75</ele></trkpt>
   <trkpt lat="45.778205" lon="3.070334"><ele>392.25</ele></trkpt>
   <trkpt lat="45.778249" lon="3.070414"><ele>391.75</ele></trkpt>
   <trkpt lat="45.778308" lon="3.070639"><ele>392</ele></trkpt>
   <trkpt lat="45.778358" lon="3.070926"><ele>391.75</ele></trkpt>
   <trkpt lat="45.778489" lon="3.07168"><ele>391.25</ele></trkpt>
   <trkpt lat="45.778535" lon="3.071924"><ele>391.25</ele></trkpt>
   <trkpt lat="45.778549" lon="3.071993"><ele>391</ele></trkpt>
   <trkpt lat="45.778533" lon="3.072155"><ele>391</ele></trkpt>
   <trkpt lat="45.77852" lon="3.072241"><ele>391</ele></trkpt>
   <trkpt lat="45.778533" lon="3.072287"><ele>391</ele></trkpt>
   <trkpt lat="45.778542" lon="3.072315"><ele>391</ele></trkpt>
   <trkpt lat="45.778553" lon="3.072354"><ele>391</ele></trkpt>
   <trkpt lat="45.778621" lon="3.07257"><ele>390.75</ele></trkpt>
   <trkpt lat="45.778677" lon="3.072698"><ele>390.75</ele></trkpt>
   <trkpt lat="45.778906" lon="3.073469"><ele>389.75</ele></trkpt>
   <trkpt lat="45.778953" lon="3.073548"><ele>389.5</ele></trkpt>
   <trkpt lat="45.77894" lon="3.073579"><ele>389.75</ele></trkpt>
   <trkpt lat="45.778905" lon="3.073662"><ele>389.75</ele></trkpt>
   <trkpt lat="45.778874" lon="3.073769"><ele>390</ele></trkpt>
   <trkpt lat="45.778805" lon="3.074714"><ele>389.25</ele></trkpt>
   <trkpt lat="45.7788" lon="3.074853"><ele>389</ele></trkpt>
   <trkpt lat="45.778803" lon="3.074957"><ele>389</ele></trkpt>
   <trkpt lat="45.77882" lon="3.075103"><ele>389</ele></trkpt>
   <trkpt lat="45.778841" lon="3.075223"><ele>389</ele></trkpt>
   <trkpt lat="45.779016" lon="3.07603"><ele>386</ele></trkpt>
   <trkpt lat="45.779135" lon="3.076616"><ele>386.75</ele></trkpt>
   <trkpt lat="45.779339" lon="3.077324"><ele>385.75</ele></trkpt>
   <trkpt lat="45.779399" lon="3.077534"><ele>385</ele></trkpt>
   <trkpt lat="45.779408" lon="3.077576"><ele>385</ele></trkpt>
   <trkpt lat="45.779416" lon="3.077661"><ele>385</ele></trkpt>
   <trkpt lat="45.779436" lon="3.077723"><ele>385</ele></trkpt>
   <trkpt lat="45.779445" lon="3.077746"><ele>384.75</ele></trkpt>
   <trkpt lat="45.779452" lon="3.077767"><ele>384.75</ele></trkpt>
   <trkpt lat="45.779669" lon="3.078303"><ele>385</ele></trkpt>
   <trkpt lat="45.779704" lon="3.078386"><ele>385</ele></trkpt>
   <trkpt lat="45.779729" lon="3.07845"><ele>384.75</ele></trkpt>
   <trkpt lat="45.779809" lon="3.078673"><ele>384.5</ele></trkpt>
   <trkpt lat="45.779856" lon="3.078788"><ele>384</ele></trkpt>
   <trkpt lat="45.780156" lon="3.079498"><ele>380.5</ele></trkpt>
   <trkpt lat="45.780185" lon="3.079552"><ele>380.75</ele></trkpt>
   <trkpt lat="45.78023" lon="3.079583"><ele>380.75</ele></trkpt>
   <trkpt lat="45.780314" lon="3.079618"><ele>381</ele></trkpt>
   <trkpt lat="45.780381" lon="3.079664"><ele>381.5</ele></trkpt>
   <trkpt lat="45.780432" lon="3.079729"><ele>382</ele></trkpt>
   <trkpt lat="45.780458" lon="3.079801"><ele>382</ele></trkpt>
   <trkpt lat="45.780452" lon="3.079833"><ele>382</ele></trkpt>
   <trkpt lat="45.780446" lon="3.079862"><ele>382</ele></trkpt>
   <trkpt lat="45.780438" lon="3.07991"><ele>382</ele></trkpt>
   <trkpt lat="45.780387" lon="3.080034"><ele>382</ele></trkpt>
   <trkpt lat="45.780365" lon="3.080119"><ele>382</ele></trkpt>
   <trkpt lat="45.780359" lon="3.080594"><ele>384</ele></trkpt>
   <trkpt lat="45.780373" lon="3.080642"><ele>384.25</ele></trkpt>
   <trkpt lat="45.780377" lon="3.080727"><ele>384.5</ele></trkpt>
   <trkpt lat="45.780354" lon="3.081149"><ele>385.75</ele></trkpt>
   <trkpt lat="45.78037" lon="3.081686"><ele>387.5</ele></trkpt>
   <trkpt lat="45.78038" lon="3.081759"><ele>387.5</ele></trkpt>
   <trkpt lat="45.780382" lon="3.081773"><ele>387.5</ele></trkpt>
   <trkpt lat="45.780421" lon="3.081842"><ele>387.25</ele></trkpt>
   <trkpt lat="45.780344" lon="3.081957"><ele>387.75</ele></trkpt>
   <trkpt lat="45.780299" lon="3.082055"><ele>387.75</ele></trkpt>
   <trkpt lat="45.780279" lon="3.082148"><ele>387.75</ele></trkpt>
   <trkpt lat="45.780273" lon="3.082263"><ele>388</ele></trkpt>
   <trkpt lat="45.780278" lon="3.082375"><ele>388.5</ele></trkpt>
   <trkpt lat="45.780282" lon="3.082424"><ele>388.5</ele></trkpt>
   <trkpt lat="45.780335" lon="3.082964"><ele>389</ele></trkpt>
   <trkpt lat="45.780337" lon="3.082994"><ele>389</ele></trkpt>
   <trkpt lat="45.780341" lon="3.083026"><ele>389</ele></trkpt>
   <trkpt lat="45.780369" lon="3.083304"><ele>389.25</ele></trkpt>
   <trkpt lat="45.780393" lon="3.083525"><ele>389</ele></trkpt>
   <trkpt lat="45.780398" lon="3.083563"><ele>389</ele></trkpt>
   <trkpt lat="45.780412" lon="3.083678"><ele>389</ele></trkpt>
   <trkpt lat="45.780451" lon="3.083676"><ele>388.75</ele></trkpt>
   <trkpt lat="45.780485" lon="3.083866"><ele>388.5</ele></trkpt>
   <trkpt lat="45.780748" lon="3.085048"><ele>384.25</ele></trkpt>
   <trkpt lat="45.780795" lon="3.085266"><ele>383</ele></trkpt>
   <trkpt lat="45.780803" lon="3.085303"><ele>383.5</ele></trkpt>
   <trkpt lat="45.780864" lon="3.085586"><ele>386.75</ele></trkpt>
   <trkpt lat="45.780933" lon="3.0859"><ele>384.5</ele></trkpt>
   <trkpt lat="45.781114" lon="3.08673"><ele>385.5</ele></trkpt>
   <trkpt lat="45.781136" lon="3.086807"><ele>384.75</ele></trkpt>
   <trkpt lat="45.781185" lon="3.086971"><ele>383</ele></trkpt>
   <trkpt lat="45.781276" lon="3.087426"><ele>381.5</ele></trkpt>
   <trkpt lat="45.781336" lon="3.087832"><ele>382.75</ele></trkpt>
   <trkpt lat="45.781439" lon="3.088349"><ele>380.5</ele></trkpt>
   <trkpt lat="45.781467" lon="3.088389"><ele>379.75</ele></trkpt>
   <trkpt lat="45.781485" lon="3.088464"><ele>379.25</ele></trkpt>
   <trkpt lat="45.781496" lon="3.08852"><ele>379</ele></trkpt>
   <trkpt lat="45.781489" lon="3.088566"><ele>379</ele></trkpt>
   <trkpt lat="45.781499" lon="3.088648"><ele>379</ele></trkpt>
   <trkpt lat="45.781512" lon="3.088799"><ele>378.75</ele></trkpt>
   <trkpt lat="45.781511" lon="3.088908"><ele>378.5</ele></trkpt>
   <trkpt lat="45.781497" lon="3.089033"><ele>378.5</ele></trkpt>
   <trkpt lat="45.781383" lon="3.090062"><ele>379</ele></trkpt>
   <trkpt lat="45.7813" lon="3.090809"><ele>377.25</ele></trkpt>
   <trkpt lat="45.781291" lon="3.090891"><ele>376.5</ele></trkpt>
   <trkpt lat="45.781286" lon="3.090931"><ele>376.25</ele></trkpt>
   <trkpt lat="45.781246" lon="3.09093"><ele>376.5</ele></trkpt>
   <trkpt lat="45.781235" lon="3.09093"><ele>376.75</ele></trkpt>
   <trkpt lat="45.781173" lon="3.090934"><ele>377.25</ele></trkpt>
   <trkpt lat="45.781148" lon="3.090935"><ele>377.5</ele></trkpt>
   <trkpt lat="45.781129" lon="3.090935"><ele>377.75</ele></trkpt>
   <trkpt lat="45.781081" lon="3.090928"><ele>378</ele></trkpt>
   <trkpt lat="45.78106" lon="3.090926"><ele>378</ele></trkpt>
   <trkpt lat="45.780987" lon="3.09092"><ele>378.25</ele></trkpt>
   <trkpt lat="45.780985" lon="3.090956"><ele>378.25</ele></trkpt>
   <trkpt lat="45.780979" lon="3.091041"><ele>378.25</ele></trkpt>
   <trkpt lat="45.780721" lon="3.091051"><ele>379</ele></trkpt>
   <trkpt lat="45.780527" lon="3.091058"><ele>379.25</ele></trkpt>
   <trkpt lat="45.780382" lon="3.091064"><ele>379.75</ele></trkpt>
   <trkpt lat="45.780334" lon="3.091064"><ele>379.75</ele></trkpt>
   <trkpt lat="45.780321" lon="3.091064"><ele>380</ele></trkpt>
   <trkpt lat="45.780096" lon="3.091067"><ele>380.5</ele></trkpt>
   <trkpt lat="45.780029" lon="3.091056"><ele>380.75</ele></trkpt>
   <trkpt lat="45.779962" lon="3.09113"><ele>380.75</ele></trkpt>
   <trkpt lat="45.77994" lon="3.091165"><ele>380.75</ele></trkpt>
   <trkpt lat="45.779895" lon="3.09129"><ele>380.5</ele></trkpt>
   <trkpt lat="45.779869" lon="3.091429"><ele>380.25</ele></trkpt>
   <trkpt lat="45.779855" lon="3.091589"><ele>380</ele></trkpt>
   <trkpt lat="45.779852" lon="3.091698"><ele>379.75</ele></trkpt>
   <trkpt lat="45.779773" lon="3.091815"><ele>379.25</ele></trkpt>
   <trkpt lat="45.779679" lon="3.091952"><ele>378.75</ele></trkpt>
   <trkpt lat="45.779621" lon="3.091989"><ele>378.25</ele></trkpt>
   <trkpt lat="45.7795" lon="3.092187"><ele>377.25</ele></trkpt>
   <trkpt lat="45.77946" lon="3.092239"><ele>377</ele></trkpt>
   <trkpt lat="45.779438" lon="3.092416"><ele>376.75</ele></trkpt>
   <trkpt lat="45.779439" lon="3.092456"><ele>376.75</ele></trkpt>
   <trkpt lat="45.779458" lon="3.092553"><ele>376.75</ele></trkpt>
   <trkpt lat="45.779473" lon="3.092631"><ele>376.5</ele></trkpt>
   <trkpt lat="45.779477" lon="3.092697"><ele>376.25</ele></trkpt>
   <trkpt lat="45.779355" lon="3.093974"><ele>372.5</ele></trkpt>
   <trkpt lat="45.779344" lon="3.094092"><ele>372.25</ele></trkpt>
   <trkpt lat="45.779336" lon="3.094167"><ele>371.75</ele></trkpt>
   <trkpt lat="45.779181" lon="3.095744"><ele>367.25</ele></trkpt>
   <trkpt lat="45.779163" lon="3.095876"><ele>367</ele></trkpt>
   <trkpt lat="45.779136" lon="3.09588"><ele>366.75</ele></trkpt>
   <trkpt lat="45.779068" lon="3.095891"><ele>367</ele></trkpt>
   <trkpt lat="45.779046" lon="3.095894"><ele>367</ele></trkpt>
   <trkpt lat="45.77845" lon="3.095994"><ele>366</ele></trkpt>
   <trkpt lat="45.778341" lon="3.096014"><ele>365.75</ele></trkpt>
   <trkpt lat="45.777865" lon="3.096098"><ele>365</ele></trkpt>
   <trkpt lat="45.777669" lon="3.096132"><ele>364.75</ele></trkpt>
   <trkpt lat="45.777506" lon="3.096145"><ele>364.75</ele></trkpt>
   <trkpt lat="45.77746" lon="3.096134"><ele>364.75</ele></trkpt>
   <trkpt lat="45.77743" lon="3.096115"><ele>364.75</ele></trkpt>
   <trkpt lat="45.777394" lon="3.096096"><ele>365</ele></trkpt>
   <trkpt lat="45.777393" lon="3.096211"><ele>364.75</ele></trkpt>
   <trkpt lat="45.777388" lon="3.096438"><ele>364.25</ele></trkpt>
   <trkpt lat="45.777414" lon="3.096578"><ele>364</ele></trkpt>
   <trkpt lat="45.777454" lon="3.096696"><ele>363.75</ele></trkpt>
   <trkpt lat="45.777508" lon="3.096827"><ele>363.25</ele></trkpt>
   <trkpt lat="45.777682" lon="3.09719"><ele>363</ele></trkpt>
   <trkpt lat="45.777761" lon="3.097349"><ele>362.5</ele></trkpt>
   <trkpt lat="45.778118" lon="3.098044"><ele>360.25</ele></trkpt>
  </trkseg>
 </trk>
</gpx>