<?xml version="1.0" encoding="UTF-8"?>
<!-- track-length = 16381 filtered ascend = 353 plain-ascend = 5 cost=51646 energy=0.1kwh time=1h 18m 44s -->
<gpx 
 xmlns="http://www.topografix.com/GPX/1/1" 
 xmlns:xsi="http://www.w3.org/2001/XMLSchema-instance" 
 xsi:schemaLocation="http://www.topografix.com/GPX/1/1 http://www.topografix.com/GPX/1/1/gpx.xsd" 
 version="1.1" 
 creator="BRouter-Web 99.71.0">
 <trk>
  <name>Clermont-Ferrand (16.4km)</name>
  <link href="https://brouter.damsy.net/latest/#map=13/45.7939/3.0961/standard&amp;lonlats=3.103316,45.780747;3.086874,45.812064;3.061798,45.804237;3.074534,45.803276;3.076701,45.800255;3.100853,45.779479;3.101643,45.77987&amp;profile=safety">
   <text>BRouter-Web</text>
  </link>
  <trkseg>
   <trkpt lat="45.780741" lon="3.103319"><ele>357</ele></trkpt>
   <trkpt lat="45.780643" lon="3.103096"><ele>357.75</ele></trkpt>
   <trkpt lat="45.780569" lon="3.103045"><ele>358</ele></trkpt>
   <trkpt lat="45.780445" lon="3.102806"><ele>358</ele></trkpt>
   <trkpt lat="45.780266" lon="3.102448"><ele>357</ele></trkpt>
   <trkpt lat="45.780183" lon="3.102285"><ele>357.75</ele></trkpt>
   <trkpt lat="45.780162" lon="3.102149"><ele>358</ele></trkpt>
   <trkpt lat="45.780061" lon="3.101952"><ele>358</ele></trkpt>
   <trkpt lat="45.779956" lon="3.101787"><ele>358</ele></trkpt>
   <trkpt lat="45.779906" lon="3.10169"><ele>358</ele></trkpt>
   <trkpt lat="45.779956" lon="3.101642"><ele>358</ele></trkpt>
   <trkpt lat="45.781189" lon="3.104052"><ele>355</ele></trkpt>
   <trkpt lat="45.781214" lon="3.104102"><ele>355</ele></trkpt>
   <trkpt lat="45.781235" lon="3.104143"><ele>355</ele></trkpt>
   <trkpt lat="45.781286" lon="3.104323"><ele>354.75</ele></trkpt>
   <trkpt lat="45.781369" lon="3.104303"><ele>354.5</ele></trkpt>
   <trkpt lat="45.781411" lon="3.104271"><ele>354.5</ele></trkpt>
   <trkpt lat="45.781491" lon="3.1042"><ele>354.75</ele></trkpt>
   <trkpt lat="45.783282" lon="3.102423"><ele>353.25</ele></trkpt>
   <trkpt lat="45.783975" lon="3.10172"><ele>353.5</ele></trkpt>
   <trkpt lat="45.784119" lon="3.101573"><ele>353.5</ele></trkpt>
   <trkpt lat="45.784167" lon="3.101536"><ele>353.25</ele></trkpt>
   <trkpt lat="45.784354" lon="3.101341"><ele>353.25</ele></trkpt>
   <trkpt lat="45.78449" lon="3.101232"><ele>353</ele></trkpt>
   <trkpt lat="45.784649" lon="3.101071"><ele>353</ele></trkpt>
   <trkpt lat="45.784798" lon="3.100922"><ele>353</ele></trkpt>
   <trkpt lat="45.784929" lon="3.100854"><ele>353</ele></trkpt>
   <trkpt lat="45.784971" lon="3.100767"><ele>353</ele></trkpt>
   <trkpt lat="45.784986" lon="3.100741"><ele>353</ele></trkpt>
   <trkpt lat="45.785035" lon="3.100636"><ele>353</ele></trkpt>
   <trkpt lat="45.784906" lon="3.100258"><ele>353</ele></trkpt>
   <trkpt lat="45.784892" lon="3.100081"><ele>353</ele></trkpt>
   <trkpt lat="45.784892" lon="3.099926"><ele>353</ele></trkpt>
   <trkpt lat="45.784903" lon="3.099797"><ele>353.25</ele></trkpt>
   <trkpt lat="45.784917" lon="3.099743"><ele>353.25</ele></trkpt>
   <trkpt lat="45.784949" lon="3.099752"><ele>353</ele></trkpt>
   <trkpt lat="45.784972" lon="3.099736"><ele>353</ele></trkpt>
   <trkpt lat="45.785781" lon="3.09891"><ele>353</ele></trkpt>
   <trkpt lat="45.786158" lon="3.098527"><ele>353</ele></trkpt>
   <trkpt lat="45.786189" lon="3.098513"><ele>353</ele></trkpt>
   <trkpt lat="45.786217" lon="3.098512"><ele>353</ele></trkpt>
   <trkpt lat="45.78657" lon="3.098522"><ele>352.25</ele></trkpt>
   <trkpt lat="45.787105" lon="3.09854"><ele>351.5</ele></trkpt>
   <trkpt lat="45.78717" lon="3.098537"><ele>351.25</ele></trkpt>
   <trkpt lat="45.787294" lon="3.098532"><ele>351</ele></trkpt>
   <trkpt lat="45.78758" lon="3.098529"><ele>351</ele></trkpt>
   <trkpt lat="45.788674" lon="3.098557"><ele>350</ele></trkpt>
   <trkpt lat="45.788701" lon="3.09856"><ele>350</ele></trkpt>
   <trkpt lat="45.788743" lon="3.098578"><ele>350</ele></trkpt>
   <trkpt lat="45.788816" lon="3.098576"><ele>350</ele></trkpt>
   <trkpt lat="45.789011" lon="3.098587"><ele>350</ele></trkpt>
   <trkpt lat="45.789073" lon="3.098618"><ele>349.75</ele></trkpt>
   <trkpt lat="45.789124" lon="3.098639"><ele>349.75</ele></trkpt>
   <trkpt lat="45.789206" lon="3.098641"><ele>349.75</ele></trkpt>
   <trkpt lat="45.789527" lon="3.098651"><ele>349.75</ele></trkpt>
   <trkpt lat="45.789598" lon="3.098651"><ele>349.75</ele></trkpt>
   <trkpt lat="45.78966" lon="3.098651"><ele>349.75</ele></trkpt>
   <trkpt lat="45.789677" lon="3.098643"><ele>349.75</ele></trkpt>
   <trkpt lat="45.789693" lon="3.098619"><ele>349.75</ele></trkpt>
   <trkpt lat="45.789702" lon="3.098587"><ele>350</ele></trkpt>
   <trkpt lat="45.789725" lon="3.098561"><ele>349.75</ele></trkpt>
   <trkpt lat="45.789757" lon="3.098548"><ele>349.75</ele></trkpt>
   <trkpt lat="45.790683" lon="3.098565"><ele>349</ele></trkpt>
   <trkpt lat="45.790812" lon="3.098577"><ele>349</ele></trkpt>
   <trkpt lat="45.790908" lon="3.098601"><ele>348.75</ele></trkpt>
   <trkpt lat="45.791116" lon="3.098681"><ele>348.75</ele></trkpt>
   <trkpt lat="45.791219" lon="3.098748"><ele>348.5</ele></trkpt>
   <trkpt lat="45.791361" lon="3.098855"><ele>348.75</ele></trkpt>
   <trkpt lat="45.793399" lon="3.100871"><ele>346.5</ele></trkpt>
   <trkpt lat="45.793419" lon="3.100891"><ele>346.5</ele></trkpt>
   <trkpt lat="45.793478" lon="3.100949"><ele>346.75</ele></trkpt>
   <trkpt lat="45.793554" lon="3.100996"><ele>346.75</ele></trkpt>
   <trkpt lat="45.793632" lon="3.101023"><ele>346.75</ele></trkpt>
   <trkpt lat="45.793874" lon="3.101218"><ele>346.75</ele></trkpt>
   <trkpt lat="45.794168" lon="3.101427"><ele>349</ele></trkpt>
   <trkpt lat="45.794606" lon="3.101675"><ele>352</ele></trkpt>
   <trkpt lat="45.794894" lon="3.101823"><ele>351.25</ele></trkpt>
   <trkpt lat="45.795022" lon="3.1019"><ele>351</ele></trkpt>
   <trkpt lat="45.79507" lon="3.101946"><ele>351.25</ele></trkpt>
   <trkpt lat="45.795093" lon="3.10198"><ele>351.5</ele></trkpt>
   <trkpt lat="45.795199" lon="3.102068"><ele>351.75</ele></trkpt>
   <trkpt lat="45.795263" lon="3.102118"><ele>352</ele></trkpt>
   <trkpt lat="45.795375" lon="3.102172"><ele>352.75</ele></trkpt>
   <trkpt lat="45.795452" lon="3.102246"><ele>353</ele></trkpt>
   <trkpt lat="45.795548" lon="3.102344"><ele>353.75</ele></trkpt>
   <trkpt lat="45.795726" lon="3.102551"><ele>354.25</ele></trkpt>
   <trkpt lat="45.79574" lon="3.102609"><ele>354.25</ele></trkpt>
   <trkpt lat="45.795754" lon="3.102651"><ele>354.25</ele></trkpt>
   <trkpt lat="45.796007" lon="3.10297"><ele>355.75</ele></trkpt>
   <trkpt lat="45.796678" lon="3.103654"><ele>355.75</ele></trkpt>
   <trkpt lat="45.796741" lon="3.103693"><ele>356.25</ele></trkpt>
   <trkpt lat="45.796831" lon="3.103771"><ele>356.5</ele></trkpt>
   <trkpt lat="45.796859" lon="3.103821"><ele>356</ele></trkpt>
   <trkpt lat="45.796863" lon="3.103876"><ele>355.5</ele></trkpt>
   <trkpt lat="45.796888" lon="3.103913"><ele>355.25</ele></trkpt>
   <trkpt lat="45.796929" lon="3.103953"><ele>355.25</ele></trkpt>
   <trkpt lat="45.796979" lon="3.103964"><ele>355.75</ele></trkpt>
   <trkpt lat="45.797023" lon="3.103984"><ele>356</ele></trkpt>
   <trkpt lat="45.797083" lon="3.104031"><ele>356</ele></trkpt>
   <trkpt lat="45.797134" lon="3.10408"><ele>356</ele></trkpt>
   <trkpt lat="45.797179" lon="3.104165"><ele>355.5</ele></trkpt>
   <trkpt lat="45.797251" lon="3.104232"><ele>356</ele></trkpt>
   <trkpt lat="45.797379" lon="3.104355"><ele>355.75</ele></trkpt>
   <trkpt lat="45.79746" lon="3.104387"><ele>355.5</ele></trkpt>
   <trkpt lat="45.797638" lon="3.104546"><ele>355.75</ele></trkpt>
   <trkpt lat="45.797684" lon="3.104604"><ele>356</ele></trkpt>
   <trkpt lat="45.797737" lon="3.104654"><ele>356</ele></trkpt>
   <trkpt lat="45.798092" lon="3.104902"><ele>356.25</ele></trkpt>
   <trkpt lat="45.798139" lon="3.104922"><ele>356.25</ele></trkpt>
   <trkpt lat="45.798177" lon="3.104926"><ele>356.25</ele></trkpt>
   <trkpt lat="45.798397" lon="3.105122"><ele>355</ele></trkpt>
   <trkpt lat="45.798445" lon="3.105204"><ele>354.25</ele></trkpt>
   <trkpt lat="45.79849" lon="3.105352"><ele>352.75</ele></trkpt>
   <trkpt lat="45.798506" lon="3.105382"><ele>352.5</ele></trkpt>
   <trkpt lat="45.798524" lon="3.105401"><ele>352.25</ele></trkpt>
   <trkpt lat="45.798558" lon="3.105418"><ele>352</ele></trkpt>
   <trkpt lat="45.798579" lon="3.105424"><ele>352</ele></trkpt>
   <trkpt lat="45.798607" lon="3.105429"><ele>351.75</ele></trkpt>
   <trkpt lat="45.798613" lon="3.105354"><ele>352.25</ele></trkpt>
   <trkpt lat="45.798641" lon="3.105212"><ele>354</ele></trkpt>
   <trkpt lat="45.798697" lon="3.104984"><ele>357.25</ele></trkpt>
   <trkpt lat="45.798716" lon="3.104904"><ele>358</ele></trkpt>
   <trkpt lat="45.798767" lon="3.104747"><ele>359.25</ele></trkpt>
   <trkpt lat="45.798859" lon="3.104522"><ele>360.5</ele></trkpt>
   <trkpt lat="45.798886" lon="3.104442"><ele>361</ele></trkpt>
   <trkpt lat="45.79898" lon="3.103943"><ele>366.5</ele></trkpt>
   <trkpt lat="45.799029" lon="3.103967"><ele>366.75</ele></trkpt>
   <trkpt lat="45.799188" lon="3.104043"><ele>368</ele></trkpt>
   <trkpt lat="45.79963" lon="3.104204"><ele>367.5</ele></trkpt>
   <trkpt lat="45.800006" lon="3.104331"><ele>367</ele></trkpt>
   <trkpt lat="45.800085" lon="3.104349"><ele>366.5</ele></trkpt>
   <trkpt lat="45.800141" lon="3.104349"><ele>366.25</ele></trkpt>
   <trkpt lat="45.80028" lon="3.104331"><ele>365.75</ele></trkpt>
   <trkpt lat="45.800352" lon="3.104321"><ele>365.5</ele></trkpt>
   <trkpt lat="45.800621" lon="3.104295"><ele>364.75</ele></trkpt>
   <trkpt lat="45.80079" lon="3.104294"><ele>364.5</ele></trkpt>
   <trkpt lat="45.800931" lon="3.104312"><ele>364.25</ele></trkpt>
   <trkpt lat="45.80129" lon="3.104407"><ele>363.25</ele></trkpt>
   <trkpt lat="45.801581" lon="3.104489"><ele>362</ele></trkpt>
   <trkpt lat="45.801682" lon="3.104499"><ele>361.5</ele></trkpt>
   <trkpt lat="45.80209" lon="3.104506"><ele>359.5</ele></trkpt>
   <trkpt lat="45.80213" lon="3.104505"><ele>359.25</ele></trkpt>
   <trkpt lat="45.802168" lon="3.104503"><ele>359</ele></trkpt>
   <trkpt lat="45.802188" lon="3.104506"><ele>358.75</ele></trkpt>
   <trkpt lat="45.802218" lon="3.104496"><ele>358.75</ele></trkpt>
   <trkpt lat="45.802243" lon="3.104492"><ele>358.75</ele></trkpt>
   <trkpt lat="45.802485" lon="3.104455"><ele>359.75</ele></trkpt>
   <trkpt lat="45.802684" lon="3.1044"><ele>361.25</ele></trkpt>
   <trkpt lat="45.802974" lon="3.104277"><ele>362</ele></trkpt>
   <trkpt lat="45.803127" lon="3.104185"><ele>361.25</ele></trkpt>
   <trkpt lat="45.803285" lon="3.10405"><ele>361.25</ele></trkpt>
   <trkpt lat="45.803565" lon="3.103768"><ele>359.75</ele></trkpt>
   <trkpt lat="45.803795" lon="3.103562"><ele>359.5</ele></trkpt>
   <trkpt lat="45.803957" lon="3.10343"><ele>359.5</ele></trkpt>
   <trkpt lat="45.804133" lon="3.103308"><ele>358.75</ele></trkpt>
   <trkpt lat="45.805141" lon="3.102686"><ele>357.25</ele></trkpt>
   <trkpt lat="45.805395" lon="3.102537"><ele>356.25</ele></trkpt>
   <trkpt lat="45.805521" lon="3.102482"><ele>356.25</ele></trkpt>
   <trkpt lat="45.805715" lon="3.102434"><ele>356.25</ele></trkpt>
   <trkpt lat="45.805823" lon="3.102431"><ele>356.25</ele></trkpt>
   <trkpt lat="45.806007" lon="3.102442"><ele>356</ele></trkpt>
   <trkpt lat="45.80627" lon="3.102498"><ele>355.25</ele></trkpt>
   <trkpt lat="45.806285" lon="3.102501"><ele>355.25</ele></trkpt>
   <trkpt lat="45.806383" lon="3.102508"><ele>354.75</ele></trkpt>
   <trkpt lat="45.806752" lon="3.102545"><ele>355</ele></trkpt>
   <trkpt lat="45.806811" lon="3.102535"><ele>355.25</ele></trkpt>
   <trkpt lat="45.807217" lon="3.102396"><ele>356.25</ele></trkpt>
   <trkpt lat="45.807335" lon="3.102373"><ele>356.25</ele></trkpt>
   <trkpt lat="45.80746" lon="3.102419"><ele>356.25</ele></trkpt>
   <trkpt lat="45.807517" lon="3.102443"><ele>356</ele></trkpt>
   <trkpt lat="45.807523" lon="3.102394"><ele>356.25</ele></trkpt>
   <trkpt lat="45.807597" lon="3.102075"><ele>357.25</ele></trkpt>
   <trkpt lat="45.80761" lon="3.101931"><ele>358</ele></trkpt>
   <trkpt lat="45.807672" lon="3.10127"><ele>360.75</ele></trkpt>
   <trkpt lat="45.807774" lon="3.099977"><ele>365</ele></trkpt>
   <trkpt lat="45.807783" lon="3.099829"><ele>366.25</ele></trkpt>
   <trkpt lat="45.807825" lon="3.099224"><ele>370</ele></trkpt>
   <trkpt lat="45.807829" lon="3.099156"><ele>370.5</ele></trkpt>
   <trkpt lat="45.807849" lon="3.099113"><ele>371</ele></trkpt>
   <trkpt lat="45.807877" lon="3.099074"><ele>371.5</ele></trkpt>
   <trkpt lat="45.808291" lon="3.098686"><ele>376.75</ele></trkpt>
   <trkpt lat="45.808333" lon="3.098624"><ele>377</ele></trkpt>
   <trkpt lat="45.80837" lon="3.098516"><ele>378.75</ele></trkpt>
   <trkpt lat="45.808396" lon="3.098377"><ele>380.5</ele></trkpt>
   <trkpt lat="45.808454" lon="3.097963"><ele>384.75</ele></trkpt>
   <trkpt lat="45.808468" lon="3.09782"><ele>386</ele></trkpt>
   <trkpt lat="45.808533" lon="3.097367"><ele>390.25</ele></trkpt>
   <trkpt lat="45.808558" lon="3.097098"><ele>393</ele></trkpt>
   <trkpt lat="45.808723" lon="3.09613"><ele>406.25</ele></trkpt>
   <trkpt lat="45.808874" lon="3.095606"><ele>413</ele></trkpt>
   <trkpt lat="45.808977" lon="3.095124"><ele>422</ele></trkpt>
   <trkpt lat="45.809038" lon="3.094694"><ele>430</ele></trkpt>
   <trkpt lat="45.809172" lon="3.094166"><ele>437</ele></trkpt>
   <trkpt lat="45.809195" lon="3.093992"><ele>440.75</ele></trkpt>
   <trkpt lat="45.809325" lon="3.093484"><ele>452.5</ele></trkpt>
   <trkpt lat="45.809298" lon="3.093392"><ele>454</ele></trkpt>
   <trkpt lat="45.809061" lon="3.092998"><ele>459.75</ele></trkpt>
   <trkpt lat="45.808975" lon="3.092824"><ele>461.75</ele></trkpt>
   <trkpt lat="45.808952" lon="3.092679"><ele>463.75</ele></trkpt>
   <trkpt lat="45.808954" lon="3.09252"><ele>466.5</ele></trkpt>
   <trkpt lat="45.809008" lon="3.09205"><ele>476.75</ele></trkpt>
   <trkpt lat="45.809019" lon="3.091826"><ele>480</ele></trkpt>
   <trkpt lat="45.809273" lon="3.091249"><ele>486.5</ele></trkpt>
   <trkpt lat="45.809507" lon="3.090794"><ele>490.5</ele></trkpt>
   <trkpt lat="45.809559" lon="3.090648"><ele>492.5</ele></trkpt>
   <trkpt lat="45.809577" lon="3.090485"><ele>494.25</ele></trkpt>
   <trkpt lat="45.809597" lon="3.090276"><ele>496.75</ele></trkpt>
   <trkpt lat="45.809585" lon="3.090033"><ele>500.5</ele></trkpt>
   <trkpt lat="45.809511" lon="3.089668"><ele>505</ele></trkpt>
   <trkpt lat="45.809405" lon="3.089465"><ele>505.75</ele></trkpt>
   <trkpt lat="45.809396" lon="3.08942"><ele>506</ele></trkpt>
   <trkpt lat="45.809398" lon="3.089379"><ele>506.25</ele></trkpt>
   <trkpt lat="45.809419" lon="3.089343"><ele>507.25</ele></trkpt>
   <trkpt lat="45.809522" lon="3.08931"><ele>510.25</ele></trkpt>
   <trkpt lat="45.809711" lon="3.089284"><ele>514.5</ele></trkpt>
   <trkpt lat="45.809818" lon="3.089201"><ele>518</ele></trkpt>
   <trkpt lat="45.809962" lon="3.089033"><ele>520.75</ele></trkpt>
   <trkpt lat="45.810614" lon="3.088324"><ele>532.25</ele></trkpt>
   <trkpt lat="45.810931" lon="3.088037"><ele>539.75</ele></trkpt>
   <trkpt lat="45.81113" lon="3.0878"><ele>543.25</ele></trkpt>
   <trkpt lat="45.811355" lon="3.087666"><ele>546.5</ele></trkpt>
   <trkpt lat="45.811498" lon="3.087624"><ele>548</ele></trkpt>
   <trkpt lat="45.811566" lon="3.087605"><ele>548.75</ele></trkpt>
   <trkpt lat="45.811717" lon="3.087536"><ele>550</ele></trkpt>
   <trkpt lat="45.811824" lon="3.087437"><ele>550</ele></trkpt>
   <trkpt lat="45.811942" lon="3.087253"><ele>550.75</ele></trkpt>
   <trkpt lat="45.812013" lon="3.087076"><ele>551</ele></trkpt>
   <trkpt lat="45.812062" lon="3.086901"><ele>551.5</ele></trkpt>
   <trkpt lat="45.812072" lon="3.086886"><ele>552.5</ele></trkpt>
   <trkpt lat="45.81218" lon="3.086733"><ele>552.5</ele></trkpt>
   <trkpt lat="45.812359" lon="3.08642"><ele>552.25</ele></trkpt>
   <trkpt lat="45.812476" lon="3.086197"><ele>552.25</ele></trkpt>
   <trkpt lat="45.812715" lon="3.085686"><ele>551.25</ele></trkpt>
   <trkpt lat="45.812837" lon="3.085452"><ele>551.25</ele></trkpt>
   <trkpt lat="45.812973" lon="3.085223"><ele>551.25</ele></trkpt>
   <trkpt lat="45.813207" lon="3.08479"><ele>551.25</ele></trkpt>
   <trkpt lat="45.81331" lon="3.08457"><ele>551.5</ele></trkpt>
   <trkpt lat="45.813425" lon="3.084293"><ele>550.5</ele></trkpt>
   <trkpt lat="45.813537" lon="3.083759"><ele>549.75</ele></trkpt>
   <trkpt lat="45.813591" lon="3.083624"><ele>549</ele></trkpt>
   <trkpt lat="45.813617" lon="3.083413"><ele>548</ele></trkpt>
   <trkpt lat="45.813611" lon="3.08312"><ele>547</ele></trkpt>
   <trkpt lat="45.813548" lon="3.082686"><ele>545.75</ele></trkpt>
   <trkpt lat="45.813557" lon="3.082503"><ele>544.75</ele></trkpt>
   <trkpt lat="45.813598" lon="3.082127"><ele>543</ele></trkpt>
   <trkpt lat="45.813647" lon="3.081866"><ele>542.75</ele></trkpt>
   <trkpt lat="45.81369" lon="3.0815"><ele>542.75</ele></trkpt>
   <trkpt lat="45.813672" lon="3.08134"><ele>542.5</ele></trkpt>
   <trkpt lat="45.813563" lon="3.080677"><ele>538.25</ele></trkpt>
   <trkpt lat="45.813512" lon="3.080419"><ele>537.5</ele></trkpt>
   <trkpt lat="45.813468" lon="3.080133"><ele>537</ele></trkpt>
   <trkpt lat="45.813445" lon="3.079665"><ele>535.25</ele></trkpt>
   <trkpt lat="45.813429" lon="3.079474"><ele>535.25</ele></trkpt>
   <trkpt lat="45.8134" lon="3.079365"><ele>535</ele></trkpt>
   <trkpt lat="45.813234" lon="3.079085"><ele>534.5</ele></trkpt>
   <trkpt lat="45.81314" lon="3.078887"><ele>534.75</ele></trkpt>
   <trkpt lat="45.813062" lon="3.078749"><ele>535.25</ele></trkpt>
   <trkpt lat="45.812983" lon="3.078661"><ele>535.75</ele></trkpt>
   <trkpt lat="45.812896" lon="3.078594"><ele>536.5</ele></trkpt>
   <trkpt lat="45.812823" lon="3.078522"><ele>536.75</ele></trkpt>
   <trkpt lat="45.812806" lon="3.078471"><ele>536.75</ele></trkpt>
   <trkpt lat="45.812809" lon="3.078392"><ele>536.5</ele></trkpt>
   <trkpt lat="45.812859" lon="3.078183"><ele>534.75</ele></trkpt>
   <trkpt lat="45.812977" lon="3.077791"><ele>533.75</ele></trkpt>
   <trkpt lat="45.813116" lon="3.077371"><ele>532.25</ele></trkpt>
   <trkpt lat="45.813189" lon="3.077294"><ele>531</ele></trkpt>
   <trkpt lat="45.81346" lon="3.077141"><ele>527.25</ele></trkpt>
   <trkpt lat="45.8135" lon="3.077097"><ele>526.75</ele></trkpt>
   <trkpt lat="45.813527" lon="3.077045"><ele>526.25</ele></trkpt>
   <trkpt lat="45.813571" lon="3.07662"><ele>526.75</ele></trkpt>
   <trkpt lat="45.813625" lon="3.076225"><ele>527.75</ele></trkpt>
   <trkpt lat="45.813666" lon="3.075946"><ele>528</ele></trkpt>
   <trkpt lat="45.81371" lon="3.075735"><ele>527.75</ele></trkpt>
   <trkpt lat="45.813773" lon="3.075598"><ele>527.5</ele></trkpt>
   <trkpt lat="45.813856" lon="3.075367"><ele>525.75</ele></trkpt>
   <trkpt lat="45.814024" lon="3.075071"><ele>523.5</ele></trkpt>
   <trkpt lat="45.814116" lon="3.074896"><ele>521.75</ele></trkpt>
   <trkpt lat="45.814221" lon="3.074676"><ele>520.75</ele></trkpt>
   <trkpt lat="45.814392" lon="3.074147"><ele>519.25</ele></trkpt>
   <trkpt lat="45.814488" lon="3.073755"><ele>517.75</ele></trkpt>
   <trkpt lat="45.81458" lon="3.073315"><ele>515.75</ele></trkpt>
   <trkpt lat="45.814664" lon="3.073039"><ele>515</ele></trkpt>
   <trkpt lat="45.814673" lon="3.072954"><ele>515</ele></trkpt>
   <trkpt lat="45.814656" lon="3.072654"><ele>514.5</ele></trkpt>
   <trkpt lat="45.81456" lon="3.071901"><ele>514</ele></trkpt>
   <trkpt lat="45.814389" lon="3.070964"><ele>511</ele></trkpt>
   <trkpt lat="45.814347" lon="3.070683"><ele>510</ele></trkpt>
   <trkpt lat="45.814334" lon="3.070528"><ele>509.5</ele></trkpt>
   <trkpt lat="45.814246" lon="3.069919"><ele>509.25</ele></trkpt>
   <trkpt lat="45.814241" lon="3.069807"><ele>509.25</ele></trkpt>
   <trkpt lat="45.81425" lon="3.069661"><ele>508.75</ele></trkpt>
   <trkpt lat="45.814247" lon="3.069541"><ele>508.5</ele></trkpt>
   <trkpt lat="45.814182" lon="3.06891"><ele>505</ele></trkpt>
   <trkpt lat="45.814148" lon="3.068437"><ele>503.25</ele></trkpt>
   <trkpt lat="45.814139" lon="3.068193"><ele>502</ele></trkpt>
   <trkpt lat="45.814112" lon="3.067962"><ele>501</ele></trkpt>
   <trkpt lat="45.814051" lon="3.06766"><ele>500.75</ele></trkpt>
   <trkpt lat="45.814028" lon="3.067552"><ele>500.75</ele></trkpt>
   <trkpt lat="45.814006" lon="3.06733"><ele>501</ele></trkpt>
   <trkpt lat="45.813988" lon="3.066938"><ele>500.25</ele></trkpt>
   <trkpt lat="45.813955" lon="3.066709"><ele>499.5</ele></trkpt>
   <trkpt lat="45.813961" lon="3.066562"><ele>499</ele></trkpt>
   <trkpt lat="45.813954" lon="3.066455"><ele>498.5</ele></trkpt>
   <trkpt lat="45.813938" lon="3.066355"><ele>498</ele></trkpt>
   <trkpt lat="45.813842" lon="3.066195"><ele>497.75</ele></trkpt>
   <trkpt lat="45.813747" lon="3.066054"><ele>496.75</ele></trkpt>
   <trkpt lat="45.813534" lon="3.06551"><ele>494</ele></trkpt>
   <trkpt lat="45.813395" lon="3.065253"><ele>493.25</ele></trkpt>
   <trkpt lat="45.813246" lon="3.064992"><ele>491</ele></trkpt>
   <trkpt lat="45.813202" lon="3.064928"><ele>490.5</ele></trkpt>
   <trkpt lat="45.813096" lon="3.064881"><ele>489.75</ele></trkpt>
   <trkpt lat="45.812989" lon="3.064879"><ele>489.25</ele></trkpt>
   <trkpt lat="45.812925" lon="3.064901"><ele>489.25</ele></trkpt>
   <trkpt lat="45.813063" lon="3.065251"><ele>493.75</ele></trkpt>
   <trkpt lat="45.813093" lon="3.065414"><ele>494.75</ele></trkpt>
   <trkpt lat="45.813099" lon="3.065569"><ele>496</ele></trkpt>
   <trkpt lat="45.813043" lon="3.065901"><ele>500.75</ele></trkpt>
   <trkpt lat="45.813009" lon="3.066155"><ele>503.25</ele></trkpt>
   <trkpt lat="45.812839" lon="3.066904"><ele>509.5</ele></trkpt>
   <trkpt lat="45.812663" lon="3.06725"><ele>514.25</ele></trkpt>
   <trkpt lat="45.812512" lon="3.067689"><ele>516.75</ele></trkpt>
   <trkpt lat="45.81236" lon="3.068086"><ele>521</ele></trkpt>
   <trkpt lat="45.812242" lon="3.068478"><ele>524.5</ele></trkpt>
   <trkpt lat="45.812213" lon="3.068917"><ele>528</ele></trkpt>
   <trkpt lat="45.812174" lon="3.069322"><ele>531.75</ele></trkpt>
   <trkpt lat="45.812119" lon="3.069553"><ele>534.5</ele></trkpt>
   <trkpt lat="45.812025" lon="3.069431"><ele>536</ele></trkpt>
   <trkpt lat="45.811877" lon="3.069276"><ele>537.75</ele></trkpt>
   <trkpt lat="45.811714" lon="3.069077"><ele>539</ele></trkpt>
   <trkpt lat="45.811599" lon="3.069132"><ele>540.25</ele></trkpt>
   <trkpt lat="45.81141" lon="3.068951"><ele>541.5</ele></trkpt>
   <trkpt lat="45.811175" lon="3.068707"><ele>542.75</ele></trkpt>
   <trkpt lat="45.811075" lon="3.068603"><ele>543.25</ele></trkpt>
   <trkpt lat="45.81098" lon="3.068521"><ele>543.75</ele></trkpt>
   <trkpt lat="45.810789" lon="3.068402"><ele>544.5</ele></trkpt>
   <trkpt lat="45.810614" lon="3.068318"><ele>546.25</ele></trkpt>
   <trkpt lat="45.81036" lon="3.068195"><ele>548.25</ele></trkpt>
   <trkpt lat="45.810447" lon="3.067863"><ele>545.25</ele></trkpt>
   <trkpt lat="45.810522" lon="3.067612"><ele>541.75</ele></trkpt>
   <trkpt lat="45.810284" lon="3.06748"><ele>541.75</ele></trkpt>
   <trkpt lat="45.809994" lon="3.067268"><ele>542.5</ele></trkpt>
   <trkpt lat="45.809759" lon="3.066992"><ele>541.25</ele></trkpt>
   <trkpt lat="45.80945" lon="3.066721"><ele>541.5</ele></trkpt>
   <trkpt lat="45.808987" lon="3.066255"><ele>539</ele></trkpt>
   <trkpt lat="45.808873" lon="3.066155"><ele>538.25</ele></trkpt>
   <trkpt lat="45.808666" lon="3.066085"><ele>537</ele></trkpt>
   <trkpt lat="45.808072" lon="3.06592"><ele>534.5</ele></trkpt>
   <trkpt lat="45.807896" lon="3.065852"><ele>530.75</ele></trkpt>
   <trkpt lat="45.807762" lon="3.065879"><ele>530</ele></trkpt>
   <trkpt lat="45.807644" lon="3.065892"><ele>529.5</ele></trkpt>
   <trkpt lat="45.807581" lon="3.065815"><ele>527.75</ele></trkpt>
   <trkpt lat="45.807501" lon="3.065658"><ele>527.75</ele></trkpt>
   <trkpt lat="45.807446" lon="3.065579"><ele>528.25</ele></trkpt>
   <trkpt lat="45.807254" lon="3.0654"><ele>529.5</ele></trkpt>
   <trkpt lat="45.807209" lon="3.065286"><ele>530</ele></trkpt>
   <trkpt lat="45.807204" lon="3.065156"><ele>530</ele></trkpt>
   <trkpt lat="45.807129" lon="3.064927"><ele>530.5</ele></trkpt>
   <trkpt lat="45.806982" lon="3.064535"><ele>531.5</ele></trkpt>
   <trkpt lat="45.806714" lon="3.063765"><ele>533.75</ele></trkpt>
   <trkpt lat="45.806635" lon="3.063621"><ele>534</ele></trkpt>
   <trkpt lat="45.806362" lon="3.063124"><ele>535</ele></trkpt>
   <trkpt lat="45.806081" lon="3.062783"><ele>535</ele></trkpt>
   <trkpt lat="45.805797" lon="3.062591"><ele>535.5</ele></trkpt>
   <trkpt lat="45.805676" lon="3.062474"><ele>536</ele></trkpt>
   <trkpt lat="45.805373" lon="3.06208"><ele>536.75</ele></trkpt>
   <trkpt lat="45.805213" lon="3.061939"><ele>537.75</ele></trkpt>
   <trkpt lat="45.805177" lon="3.06195"><ele>538.5</ele></trkpt>
   <trkpt lat="45.805144" lon="3.061942"><ele>538.75</ele></trkpt>
   <trkpt lat="45.805051" lon="3.061892"><ele>539.75</ele></trkpt>
   <trkpt lat="45.804853" lon="3.061735"><ele>542.75</ele></trkpt>
   <trkpt lat="45.804738" lon="3.061684"><ele>544.75</ele></trkpt>
   <trkpt lat="45.804659" lon="3.061673"><ele>545.75</ele></trkpt>
   <trkpt lat="45.804593" lon="3.061686"><ele>546.5</ele></trkpt>
   <trkpt lat="45.804235" lon="3.061789"><ele>550</ele></trkpt>
   <trkpt lat="45.804231" lon="3.061791"><ele>550</ele></trkpt>
   <trkpt lat="45.804062" lon="3.061853"><ele>551.75</ele></trkpt>
   <trkpt lat="45.803157" lon="3.061475"><ele>553.75</ele></trkpt>
   <trkpt lat="45.80235" lon="3.061262"><ele>554.5</ele></trkpt>
   <trkpt lat="45.801846" lon="3.061144"><ele>556</ele></trkpt>
   <trkpt lat="45.801644" lon="3.061144"><ele>556.75</ele></trkpt>
   <trkpt lat="45.801271" lon="3.06117"><ele>558.75</ele></trkpt>
   <trkpt lat="45.800898" lon="3.06127"><ele>557.25</ele></trkpt>
   <trkpt lat="45.800598" lon="3.061369"><ele>558.5</ele></trkpt>
   <trkpt lat="45.800262" lon="3.061356"><ele>558.75</ele></trkpt>
   <trkpt lat="45.800155" lon="3.061292"><ele>559.25</ele></trkpt>
   <trkpt lat="45.800031" lon="3.06113"><ele>558.75</ele></trkpt>
   <trkpt lat="45.799962" lon="3.061002"><ele>558.25</ele></trkpt>
   <trkpt lat="45.799896" lon="3.06086"><ele>557</ele></trkpt>
   <trkpt lat="45.799805" lon="3.060956"><ele>558</ele></trkpt>
   <trkpt lat="45.799674" lon="3.061027"><ele>558.25</ele></trkpt>
   <trkpt lat="45.799342" lon="3.06118"><ele>557</ele></trkpt>
   <trkpt lat="45.798908" lon="3.061424"><ele>559.5</ele></trkpt>
   <trkpt lat="45.798526" lon="3.061777"><ele>561</ele></trkpt>
   <trkpt lat="45.798377" lon="3.062049"><ele>563.25</ele></trkpt>
   <trkpt lat="45.798249" lon="3.062408"><ele>566.5</ele></trkpt>
   <trkpt lat="45.798182" lon="3.062766"><ele>568.25</ele></trkpt>
   <trkpt lat="45.798174" lon="3.064342"><ele>585.25</ele></trkpt>
   <trkpt lat="45.798196" lon="3.06467"><ele>589</ele></trkpt>
   <trkpt lat="45.798311" lon="3.064972"><ele>591.5</ele></trkpt>
   <trkpt lat="45.798769" lon="3.065824"><ele>599.25</ele></trkpt>
   <trkpt lat="45.799011" lon="3.066378"><ele>601.5</ele></trkpt>
   <trkpt lat="45.799549" lon="3.06745"><ele>608</ele></trkpt>
   <trkpt lat="45.799721" lon="3.067844"><ele>609</ele></trkpt>
   <trkpt lat="45.800019" lon="3.068581"><ele>607.25</ele></trkpt>
   <trkpt lat="45.8003" lon="3.069136"><ele>606.25</ele></trkpt>
   <trkpt lat="45.800526" lon="3.069584"><ele>605.25</ele></trkpt>
   <trkpt lat="45.800742" lon="3.070035"><ele>605</ele></trkpt>
   <trkpt lat="45.800917" lon="3.070556"><ele>605.75</ele></trkpt>
   <trkpt lat="45.801195" lon="3.071222"><ele>607.5</ele></trkpt>
   <trkpt lat="45.801622" lon="3.071924"><ele>607.75</ele></trkpt>
   <trkpt lat="45.80178" lon="3.072146"><ele>608</ele></trkpt>
   <trkpt lat="45.80183" lon="3.072215"><ele>608</ele></trkpt>
   <trkpt lat="45.802177" lon="3.07258"><ele>607.75</ele></trkpt>
   <trkpt lat="45.802316" lon="3.072785"><ele>607.5</ele></trkpt>
   <trkpt lat="45.802394" lon="3.072991"><ele>607</ele></trkpt>
   <trkpt lat="45.802483" lon="3.073199"><ele>606.75</ele></trkpt>
   <trkpt lat="45.802934" lon="3.073858"><ele>606</ele></trkpt>
   <trkpt lat="45.803101" lon="3.074257"><ele>606</ele></trkpt>
   <trkpt lat="45.80319" lon="3.074449"><ele>606</ele></trkpt>
   <trkpt lat="45.80327" lon="3.074542"><ele>606</ele></trkpt>
   <trkpt lat="45.803313" lon="3.074593"><ele>606</ele></trkpt>
   <trkpt lat="45.803552" lon="3.074905"><ele>605</ele></trkpt>
   <trkpt lat="45.803649" lon="3.075072"><ele>604.5</ele></trkpt>
   <trkpt lat="45.803799" lon="3.075292"><ele>603.75</ele></trkpt>
   <trkpt lat="45.803955" lon="3.075449"><ele>603.75</ele></trkpt>
   <trkpt lat="45.804028" lon="3.075506"><ele>603.25</ele></trkpt>
   <trkpt lat="45.80412" lon="3.075617"><ele>603</ele></trkpt>
   <trkpt lat="45.804166" lon="3.075695"><ele>602.75</ele></trkpt>
   <trkpt lat="45.804189" lon="3.075763"><ele>602.75</ele></trkpt>
   <trkpt lat="45.804207" lon="3.075845"><ele>602.75</ele></trkpt>
   <trkpt lat="45.804224" lon="3.076211"><ele>600.5</ele></trkpt>
   <trkpt lat="45.804245" lon="3.076325"><ele>599.75</ele></trkpt>
   <trkpt lat="45.804307" lon="3.076554"><ele>597.75</ele></trkpt>
   <trkpt lat="45.80443" lon="3.076958"><ele>593.5</ele></trkpt>
   <trkpt lat="45.80415" lon="3.077297"><ele>588.25</ele></trkpt>
   <trkpt lat="45.804023" lon="3.077612"><ele>585.75</ele></trkpt>
   <trkpt lat="45.803973" lon="3.077658"><ele>585.5</ele></trkpt>
   <trkpt lat="45.803908" lon="3.077647"><ele>585.5</ele></trkpt>
   <trkpt lat="45.803761" lon="3.077559"><ele>585.25</ele></trkpt>
   <trkpt lat="45.803422" lon="3.077447"><ele>585.5</ele></trkpt>
   <trkpt lat="45.803352" lon="3.077436"><ele>585.75</ele></trkpt>
   <trkpt lat="45.803268" lon="3.077459"><ele>586</ele></trkpt>
   <trkpt lat="45.803048" lon="3.077679"><ele>586</ele></trkpt>
   <trkpt lat="45.802922" lon="3.07786"><ele>586</ele></trkpt>
   <trkpt lat="45.802777" lon="3.07799"><ele>586</ele></trkpt>
   <trkpt lat="45.802658" lon="3.078125"><ele>586.25</ele></trkpt>
   <trkpt lat="45.802459" lon="3.078293"><ele>587</ele></trkpt>
   <trkpt lat="45.8024" lon="3.07836"><ele>587</ele></trkpt>
   <trkpt lat="45.802362" lon="3.07848"><ele>585.75</ele></trkpt>
   <trkpt lat="45.802495" lon="3.078635"><ele>586.75</ele></trkpt>
   <trkpt lat="45.802553" lon="3.078788"><ele>586</ele></trkpt>
   <trkpt lat="45.802527" lon="3.07893"><ele>585</ele></trkpt>
   <trkpt lat="45.802536" lon="3.079104"><ele>582</ele></trkpt>
   <trkpt lat="45.802457" lon="3.07923"><ele>579</ele></trkpt>
   <trkpt lat="45.802465" lon="3.079292"><ele>578.25</ele></trkpt>
   <trkpt lat="45.802409" lon="3.079461"><ele>574.5</ele></trkpt>
   <trkpt lat="45.80239" lon="3.079488"><ele>573.75</ele></trkpt>
   <trkpt lat="45.802317" lon="3.079482"><ele>571.75</ele></trkpt>
   <trkpt lat="45.802222" lon="3.079394"><ele>570.5</ele></trkpt>
   <trkpt lat="45.801973" lon="3.079018"><ele>566.25</ele></trkpt>
   <trkpt lat="45.801863" lon="3.078943"><ele>562.75</ele></trkpt>
   <trkpt lat="45.801777" lon="3.078798"><ele>562.25</ele></trkpt>
   <trkpt lat="45.801681" lon="3.078747"><ele>559.5</ele></trkpt>
   <trkpt lat="45.801597" lon="3.078637"><ele>559</ele></trkpt>
   <trkpt lat="45.801567" lon="3.078705"><ele>556.75</ele></trkpt>
   <trkpt lat="45.801537" lon="3.078841"><ele>553.75</ele></trkpt>
   <trkpt lat="45.801457" lon="3.078954"><ele>551</ele></trkpt>
   <trkpt lat="45.801322" lon="3.079024"><ele>548.25</ele></trkpt>
   <trkpt lat="45.801235" lon="3.078987"><ele>547</ele></trkpt>
   <trkpt lat="45.801175" lon="3.078916"><ele>546.5</ele></trkpt>
   <trkpt lat="45.801119" lon="3.078868"><ele>546.25</ele></trkpt>
   <trkpt lat="45.801112" lon="3.078846"><ele>546.25</ele></trkpt>
   <trkpt lat="45.801026" lon="3.078573"><ele>546.25</ele></trkpt>
   <trkpt lat="45.800917" lon="3.078433"><ele>545.5</ele></trkpt>
   <trkpt lat="45.800749" lon="3.078164"><ele>545.75</ele></trkpt>
   <trkpt lat="45.800701" lon="3.078032"><ele>546.75</ele></trkpt>
   <trkpt lat="45.800681" lon="3.07787"><ele>548.5</ele></trkpt>
   <trkpt lat="45.800615" lon="3.077644"><ele>550.75</ele></trkpt>
   <trkpt lat="45.800521" lon="3.077444"><ele>551.75</ele></trkpt>
   <trkpt lat="45.800519" lon="3.076911"><ele>556.75</ele></trkpt>
   <trkpt lat="45.800493" lon="3.076688"><ele>559</ele></trkpt>
   <trkpt lat="45.800519" lon="3.076911"><ele>556.75</ele></trkpt>
   <trkpt lat="45.800521" lon="3.077444"><ele>551.75</ele></trkpt>
   <trkpt lat="45.800615" lon="3.077644"><ele>550.75</ele></trkpt>
   <trkpt lat="45.800681" lon="3.07787"><ele>548.5</ele></trkpt>
   <trkpt lat="45.800701" lon="3.078032"><ele>546.75</ele></trkpt>
   <trkpt lat="45.800749" lon="3.078164"><ele>545.75</ele></trkpt>
   <trkpt lat="45.800917" lon="3.078433"><ele>545.5</ele></trkpt>
   <trkpt lat="45.801026" lon="3.078573"><ele>546.25</ele></trkpt>
   <trkpt lat="45.801112" lon="3.078846"><ele>546.25</ele></trkpt>
   <trkpt lat="45.801029" lon="3.078882"><ele>543.75</ele></trkpt>
   <trkpt lat="45.800948" lon="3.078949"><ele>541.25</ele></trkpt>
   <trkpt lat="45.800827" lon="3.079144"><ele>536</ele></trkpt>
   <trkpt lat="45.800806" lon="3.07915"><ele>535.25</ele></trkpt>
   <trkpt lat="45.800765" lon="3.07923"><ele>533</ele></trkpt>
   <trkpt lat="45.800731" lon="3.079225"><ele>532</ele></trkpt>
   <trkpt lat="45.80068" lon="3.079314"><ele>529</ele></trkpt>
   <trkpt lat="45.800647" lon="3.0793"><ele>528</ele></trkpt>
   <trkpt lat="45.80061" lon="3.079346"><ele>526</ele></trkpt>
   <trkpt lat="45.800508" lon="3.07929"><ele>523.25</ele></trkpt>
   <trkpt lat="45.800448" lon="3.07948"><ele>516.5</ele></trkpt>
   <trkpt lat="45.800336" lon="3.079433"><ele>512.75</ele></trkpt>
   <trkpt lat="45.800255" lon="3.079319"><ele>511.75</ele></trkpt>
   <trkpt lat="45.80022" lon="3.079231"><ele>512.5</ele></trkpt>
   <trkpt lat="45.800183" lon="3.07916"><ele>513</ele></trkpt>
   <trkpt lat="45.80013" lon="3.079016"><ele>514.25</ele></trkpt>
   <trkpt lat="45.800084" lon="3.078962"><ele>513.75</ele></trkpt>
   <trkpt lat="45.799941" lon="3.078822"><ele>511.25</ele></trkpt>
   <trkpt lat="45.799846" lon="3.078745"><ele>509.75</ele></trkpt>
   <trkpt lat="45.799678" lon="3.078631"><ele>507</ele></trkpt>
   <trkpt lat="45.799508" lon="3.078527"><ele>504.5</ele></trkpt>
   <trkpt lat="45.799438" lon="3.07851"><ele>503</ele></trkpt>
   <trkpt lat="45.799121" lon="3.078521"><ele>496.5</ele></trkpt>
   <trkpt lat="45.798966" lon="3.078494"><ele>494</ele></trkpt>
   <trkpt lat="45.79889" lon="3.078511"><ele>492.25</ele></trkpt>
   <trkpt lat="45.798841" lon="3.078609"><ele>490</ele></trkpt>
   <trkpt lat="45.7988" lon="3.078666"><ele>488.75</ele></trkpt>
   <trkpt lat="45.798748" lon="3.078709"><ele>487.75</ele></trkpt>
   <trkpt lat="45.79859" lon="3.078751"><ele>485.5</ele></trkpt>
   <trkpt lat="45.79849" lon="3.078791"><ele>483.5</ele></trkpt>
   <trkpt lat="45.798413" lon="3.078761"><ele>482</ele></trkpt>
   <trkpt lat="45.798319" lon="3.078325"><ele>477.5</ele></trkpt>
   <trkpt lat="45.798255" lon="3.07818"><ele>475.75</ele></trkpt>
   <trkpt lat="45.798191" lon="3.078312"><ele>475.25</ele></trkpt>
   <trkpt lat="45.798031" lon="3.07854"><ele>473</ele></trkpt>
   <trkpt lat="45.797891" lon="3.078727"><ele>470.75</ele></trkpt>
   <trkpt lat="45.797856" lon="3.078785"><ele>470</ele></trkpt>
   <trkpt lat="45.797834" lon="3.078857"><ele>469.5</ele></trkpt>
   <trkpt lat="45.797809" lon="3.079033"><ele>467.25</ele></trkpt>
   <trkpt lat="45.797802" lon="3.079162"><ele>465.5</ele></trkpt>
   <trkpt lat="45.797808" lon="3.079421"><ele>463.75</ele></trkpt>
   <trkpt lat="45.797797" lon="3.079499"><ele>463</ele></trkpt>
   <trkpt lat="45.797398" lon="3.079293"><ele>459</ele></trkpt>
   <trkpt lat="45.797279" lon="3.079216"><ele>458</ele></trkpt>
   <trkpt lat="45.797206" lon="3.079149"><ele>457.75</ele></trkpt>
   <trkpt lat="45.797136" lon="3.079074"><ele>457.5</ele></trkpt>
   <trkpt lat="45.797054" lon="3.078943"><ele>456</ele></trkpt>
   <trkpt lat="45.796973" lon="3.078721"><ele>452.75</ele></trkpt>
   <trkpt lat="45.796948" lon="3.078609"><ele>451</ele></trkpt>
   <trkpt lat="45.796934" lon="3.078496"><ele>449.75</ele></trkpt>
   <trkpt lat="45.79693" lon="3.078352"><ele>448.75</ele></trkpt>
   <trkpt lat="45.79693" lon="3.078319"><ele>448.5</ele></trkpt>
   <trkpt lat="45.796931" lon="3.078267"><ele>448</ele></trkpt>
   <trkpt lat="45.797" lon="3.077934"><ele>448</ele></trkpt>
   <trkpt lat="45.797074" lon="3.077698"><ele>448.75</ele></trkpt>
   <trkpt lat="45.797096" lon="3.077599"><ele>449</ele></trkpt>
   <trkpt lat="45.797111" lon="3.077481"><ele>449.25</ele></trkpt>
   <trkpt lat="45.797118" lon="3.077296"><ele>450</ele></trkpt>
   <trkpt lat="45.797103" lon="3.076995"><ele>450.5</ele></trkpt>
   <trkpt lat="45.797089" lon="3.076787"><ele>451.25</ele></trkpt>
   <trkpt lat="45.797059" lon="3.076715"><ele>451.25</ele></trkpt>
   <trkpt lat="45.797017" lon="3.076649"><ele>450.5</ele></trkpt>
   <trkpt lat="45.796931" lon="3.076537"><ele>449</ele></trkpt>
   <trkpt lat="45.796878" lon="3.076495"><ele>448</ele></trkpt>
   <trkpt lat="45.796828" lon="3.076479"><ele>447</ele></trkpt>
   <trkpt lat="45.796782" lon="3.076483"><ele>446</ele></trkpt>
   <trkpt lat="45.79674" lon="3.07652"><ele>445</ele></trkpt>
   <trkpt lat="45.796538" lon="3.077006"><ele>438.25</ele></trkpt>
   <trkpt lat="45.796507" lon="3.07704"><ele>437.75</ele></trkpt>
   <trkpt lat="45.796472" lon="3.077063"><ele>437</ele></trkpt>
   <trkpt lat="45.796431" lon="3.077072"><ele>436.25</ele></trkpt>
   <trkpt lat="45.796181" lon="3.077079"><ele>431.75</ele></trkpt>
   <trkpt lat="45.796057" lon="3.077093"><ele>429.5</ele></trkpt>
   <trkpt lat="45.795847" lon="3.077153"><ele>426.25</ele></trkpt>
   <trkpt lat="45.795759" lon="3.07719"><ele>425.25</ele></trkpt>
   <trkpt lat="45.795678" lon="3.07724"><ele>424.25</ele></trkpt>
   <trkpt lat="45.79559" lon="3.077348"><ele>422.75</ele></trkpt>
   <trkpt lat="45.795482" lon="3.077647"><ele>420</ele></trkpt>
   <trkpt lat="45.795392" lon="3.077794"><ele>418.5</ele></trkpt>
   <trkpt lat="45.79526" lon="3.07789"><ele>417</ele></trkpt>
   <trkpt lat="45.795146" lon="3.077925"><ele>415.75</ele></trkpt>
   <trkpt lat="45.795115" lon="3.077921"><ele>415.75</ele></trkpt>
   <trkpt lat="45.795079" lon="3.077921"><ele>415.5</ele></trkpt>
   <trkpt lat="45.795048" lon="3.077921"><ele>415.25</ele></trkpt>
   <trkpt lat="45.795022" lon="3.077921"><ele>415</ele></trkpt>
   <trkpt lat="45.794867" lon="3.077918"><ele>413.5</ele></trkpt>
   <trkpt lat="45.794762" lon="3.077936"><ele>412.25</ele></trkpt>
   <trkpt lat="45.794584" lon="3.077948"><ele>410.75</ele></trkpt>
   <trkpt lat="45.794345" lon="3.077958"><ele>409.25</ele></trkpt>
   <trkpt lat="45.794281" lon="3.077984"><ele>408.75</ele></trkpt>
   <trkpt lat="45.79423" lon="3.078043"><ele>408.25</ele></trkpt>
   <trkpt lat="45.794155" lon="3.078182"><ele>407.25</ele></trkpt>
   <trkpt lat="45.794109" lon="3.078253"><ele>406.75</ele></trkpt>
   <trkpt lat="45.794076" lon="3.078275"><ele>406.5</ele></trkpt>
   <trkpt lat="45.793595" lon="3.078307"><ele>403</ele></trkpt>
   <trkpt lat="45.793553" lon="3.078309"><ele>402.75</ele></trkpt>
   <trkpt lat="45.793532" lon="3.078311"><ele>402.75</ele></trkpt>
   <trkpt lat="45.793498" lon="3.078314"><ele>402.5</ele></trkpt>
   <trkpt lat="45.793464" lon="3.078318"><ele>402.5</ele></trkpt>
   <trkpt lat="45.793441" lon="3.078319"><ele>402.25</ele></trkpt>
   <trkpt lat="45.793405" lon="3.078321"><ele>402.25</ele></trkpt>
   <trkpt lat="45.793139" lon="3.078327"><ele>401.25</ele></trkpt>
   <trkpt lat="45.792571" lon="3.078345"><ele>399</ele></trkpt>
   <trkpt lat="45.79252" lon="3.078347"><ele>399</ele></trkpt>
   <trkpt lat="45.792517" lon="3.078393"><ele>398.75</ele></trkpt>
   <trkpt lat="45.792499" lon="3.078747"><ele>397.5</ele></trkpt>
   <trkpt lat="45.792485" lon="3.079002"><ele>397</ele></trkpt>
   <trkpt lat="45.792483" lon="3.079046"><ele>397</ele></trkpt>
   <trkpt lat="45.792481" lon="3.079078"><ele>397</ele></trkpt>
   <trkpt lat="45.792478" lon="3.079135"><ele>397</ele></trkpt>
   <trkpt lat="45.79252" lon="3.079166"><ele>397</ele></trkpt>
   <trkpt lat="45.79256" lon="3.079207"><ele>396.75</ele></trkpt>
   <trkpt lat="45.792773" lon="3.079478"><ele>395.75</ele></trkpt>
   <trkpt lat="45.792759" lon="3.07951"><ele>395.75</ele></trkpt>
   <trkpt lat="45.792755" lon="3.079525"><ele>395.75</ele></trkpt>
   <trkpt lat="45.792743" lon="3.07959"><ele>395.5</ele></trkpt>
   <trkpt lat="45.792735" lon="3.079627"><ele>395.25</ele></trkpt>
   <trkpt lat="45.792716" lon="3.079777"><ele>395</ele></trkpt>
   <trkpt lat="45.792694" lon="3.07995"><ele>395</ele></trkpt>
   <trkpt lat="45.792616" lon="3.080482"><ele>393.5</ele></trkpt>
   <trkpt lat="45.792556" lon="3.080892"><ele>392.5</ele></trkpt>
   <trkpt lat="45.792514" lon="3.081175"><ele>391.75</ele></trkpt>
   <trkpt lat="45.792503" lon="3.08125"><ele>391.5</ele></trkpt>
   <trkpt lat="45.792469" lon="3.08149"><ele>391</ele></trkpt>
   <trkpt lat="45.792472" lon="3.081883"><ele>390</ele></trkpt>
   <trkpt lat="45.792474" lon="3.082419"><ele>389</ele></trkpt>
   <trkpt lat="45.792474" lon="3.082504"><ele>388.75</ele></trkpt>
   <trkpt lat="45.79239" lon="3.082527"><ele>388.75</ele></trkpt>
   <trkpt lat="45.792408" lon="3.082599"><ele>388.5</ele></trkpt>
   <trkpt lat="45.792513" lon="3.082908"><ele>387.5</ele></trkpt>
   <trkpt lat="45.792518" lon="3.083091"><ele>387</ele></trkpt>
   <trkpt lat="45.792489" lon="3.083175"><ele>387</ele></trkpt>
   <trkpt lat="45.792364" lon="3.083303"><ele>387</ele></trkpt>
   <trkpt lat="45.792207" lon="3.084099"><ele>384</ele></trkpt>
   <trkpt lat="45.792192" lon="3.084166"><ele>383.75</ele></trkpt>
   <trkpt lat="45.791446" lon="3.084039"><ele>382</ele></trkpt>
   <trkpt lat="45.791312" lon="3.084027"><ele>381.5</ele></trkpt>
   <trkpt lat="45.790665" lon="3.083992"><ele>380</ele></trkpt>
   <trkpt lat="45.790625" lon="3.083998"><ele>380</ele></trkpt>
   <trkpt lat="45.790545" lon="3.084015"><ele>379.75</ele></trkpt>
   <trkpt lat="45.790451" lon="3.084034"><ele>379.5</ele></trkpt>
   <trkpt lat="45.790364" lon="3.084065"><ele>379.25</ele></trkpt>
   <trkpt lat="45.790101" lon="3.084175"><ele>378.25</ele></trkpt>
   <trkpt lat="45.790018" lon="3.084198"><ele>378</ele></trkpt>
   <trkpt lat="45.789815" lon="3.084218"><ele>378</ele></trkpt>
   <trkpt lat="45.789546" lon="3.084237"><ele>377.25</ele></trkpt>
   <trkpt lat="45.789445" lon="3.084244"><ele>377</ele></trkpt>
   <trkpt lat="45.788744" lon="3.084284"><ele>376.25</ele></trkpt>
   <trkpt lat="45.78821" lon="3.084369"><ele>375</ele></trkpt>
   <trkpt lat="45.787929" lon="3.084417"><ele>374.5</ele></trkpt>
   <trkpt lat="45.787911" lon="3.08442"><ele>374.5</ele></trkpt>
   <trkpt lat="45.787842" lon="3.084431"><ele>374.25</ele></trkpt>
   <trkpt lat="45.787771" lon="3.084443"><ele>374</ele></trkpt>
   <trkpt lat="45.78775" lon="3.084446"><ele>374</ele></trkpt>
   <trkpt lat="45.787543" lon="3.084483"><ele>374</ele></trkpt>
   <trkpt lat="45.787288" lon="3.084528"><ele>373</ele></trkpt>
   <trkpt lat="45.787267" lon="3.084532"><ele>373</ele></trkpt>
   <trkpt lat="45.787156" lon="3.084556"><ele>373</ele></trkpt>
   <trkpt lat="45.787048" lon="3.08457"><ele>373</ele></trkpt>
   <trkpt lat="45.787025" lon="3.084573"><ele>373</ele></trkpt>
   <trkpt lat="45.786857" lon="3.084591"><ele>372.5</ele></trkpt>
   <trkpt lat="45.786682" lon="3.084619"><ele>372</ele></trkpt>
   <trkpt lat="45.786702" lon="3.084703"><ele>372</ele></trkpt>
   <trkpt lat="45.786698" lon="3.084771"><ele>372</ele></trkpt>
   <trkpt lat="45.786689" lon="3.08485"><ele>372</ele></trkpt>
   <trkpt lat="45.786579" lon="3.086565"><ele>369</ele></trkpt>
   <trkpt lat="45.786574" lon="3.08665"><ele>369</ele></trkpt>
   <trkpt lat="45.786568" lon="3.086735"><ele>368.75</ele></trkpt>
   <trkpt lat="45.786489" lon="3.08797"><ele>367</ele></trkpt>
   <trkpt lat="45.78648" lon="3.088082"><ele>367</ele></trkpt>
   <trkpt lat="45.786366" lon="3.089509"><ele>364.75</ele></trkpt>
   <trkpt lat="45.786673" lon="3.089555"><ele>365.5</ele></trkpt>
   <trkpt lat="45.786692" lon="3.089558"><ele>365.5</ele></trkpt>
   <trkpt lat="45.786694" lon="3.089657"><ele>365</ele></trkpt>
   <trkpt lat="45.786714" lon="3.089679"><ele>365</ele></trkpt>
   <trkpt lat="45.786749" lon="3.089718"><ele>365</ele></trkpt>
   <trkpt lat="45.786748" lon="3.089797"><ele>364.75</ele></trkpt>
   <trkpt lat="45.786719" lon="3.090193"><ele>364</ele></trkpt>
   <trkpt lat="45.786679" lon="3.090564"><ele>364</ele></trkpt>
   <trkpt lat="45.786638" lon="3.090774"><ele>363</ele></trkpt>
   <trkpt lat="45.786561" lon="3.091074"><ele>363</ele></trkpt>
   <trkpt lat="45.78646" lon="3.091413"><ele>362</ele></trkpt>
   <trkpt lat="45.786393" lon="3.091598"><ele>362</ele></trkpt>
   <trkpt lat="45.786314" lon="3.09178"><ele>362</ele></trkpt>
   <trkpt lat="45.786154" lon="3.092082"><ele>361.5</ele></trkpt>
   <trkpt lat="45.786004" lon="3.092306"><ele>360.75</ele></trkpt>
   <trkpt lat="45.785858" lon="3.092473"><ele>360</ele></trkpt>
   <trkpt lat="45.785797" lon="3.092549"><ele>360</ele></trkpt>
   <trkpt lat="45.785728" lon="3.092626"><ele>360</ele></trkpt>
   <trkpt lat="45.785644" lon="3.092712"><ele>360</ele></trkpt>
   <trkpt lat="45.785458" lon="3.092886"><ele>359.75</ele></trkpt>
   <trkpt lat="45.785284" lon="3.093023"><ele>359</ele></trkpt>
   <trkpt lat="45.784172" lon="3.093839"><ele>358</ele></trkpt>
   <trkpt lat="45.783508" lon="3.094333"><ele>359</ele></trkpt>
   <trkpt lat="45.783449" lon="3.094374"><ele>359</ele></trkpt>
   <trkpt lat="45.78342" lon="3.094389"><ele>358.75</ele></trkpt>
   <trkpt lat="45.783325" lon="3.094413"><ele>359</ele></trkpt>
   <trkpt lat="45.783205" lon="3.09443"><ele>359.25</ele></trkpt>
   <trkpt lat="45.783026" lon="3.094485"><ele>359.75</ele></trkpt>
   <trkpt lat="45.782931" lon="3.094523"><ele>359.75</ele></trkpt>
   <trkpt lat="45.782688" lon="3.094689"><ele>359.5</ele></trkpt>
   <trkpt lat="45.782587" lon="3.094777"><ele>359.75</ele></trkpt>
   <trkpt lat="45.782539" lon="3.094829"><ele>360</ele></trkpt>
   <trkpt lat="45.782431" lon="3.094972"><ele>361</ele></trkpt>
   <trkpt lat="45.782393" lon="3.095041"><ele>361.25</ele></trkpt>
   <trkpt lat="45.782348" lon="3.095102"><ele>361.5</ele></trkpt>
   <trkpt lat="45.782334" lon="3.095122"><ele>361.5</ele></trkpt>
   <trkpt lat="45.782281" lon="3.095097"><ele>361.75</ele></trkpt>
   <trkpt lat="45.782225" lon="3.095097"><ele>361.75</ele></trkpt>
   <trkpt lat="45.782172" lon="3.095123"><ele>362</ele></trkpt>
   <trkpt lat="45.782128" lon="3.095172"><ele>362</ele></trkpt>
   <trkpt lat="45.7821" lon="3.095228"><ele>362</ele></trkpt>
   <trkpt lat="45.782084" lon="3.095297"><ele>361.75</ele></trkpt>
   <trkpt lat="45.782082" lon="3.095369"><ele>361.75</ele></trkpt>
   <trkpt lat="45.782069" lon="3.095374"><ele>361.75</ele></trkpt>
   <trkpt lat="45.782042" lon="3.095383"><ele>361.75</ele></trkpt>
   <trkpt lat="45.781301" lon="3.095516"><ele>363.25</ele></trkpt>
   <trkpt lat="45.781034" lon="3.095562"><ele>364.25</ele></trkpt>
   <trkpt lat="45.780636" lon="3.095631"><ele>365.5</ele></trkpt>
   <trkpt lat="45.77981" lon="3.095774"><ele>367</ele></trkpt>
   <trkpt lat="45.779736" lon="3.095787"><ele>367</ele></trkpt>
   <trkpt lat="45.779654" lon="3.095799"><ele>367</ele></trkpt>
   <trkpt lat="45.779233" lon="3.095865"><ele>366.75</ele></trkpt>
   <trkpt lat="45.779208" lon="3.095869"><ele>366.75</ele></trkpt>
   <trkpt lat="45.779163" lon="3.095876"><ele>367</ele></trkpt>
   <trkpt lat="45.779154" lon="3.095941"><ele>367</ele></trkpt>
   <trkpt lat="45.779142" lon="3.096065"><ele>367</ele></trkpt>
   <trkpt lat="45.779042" lon="3.097184"><ele>364</ele></trkpt>
   <trkpt lat="45.778992" lon="3.097711"><ele>362</ele></trkpt>
   <trkpt lat="45.778883" lon="3.09869"><ele>359.75</ele></trkpt>
   <trkpt lat="45.778858" lon="3.099009"><ele>359.5</ele></trkpt>
   <trkpt lat="45.778842" lon="3.099055"><ele>359.25</ele></trkpt>
   <trkpt lat="45.778763" lon="3.099147"><ele>359</ele></trkpt>
   <trkpt lat="45.778716" lon="3.0992"><ele>358.75</ele></trkpt>
   <trkpt lat="45.778742" lon="3.099255"><ele>358.75</ele></trkpt>
   <trkpt lat="45.778942" lon="3.09968"><ele>358</ele></trkpt>
   <trkpt lat="45.778955" lon="3.099709"><ele>358</ele></trkpt>
   <trkpt lat="45.778966" lon="3.099789"><ele>358</ele></trkpt>
   <trkpt lat="45.778982" lon="3.099831"><ele>358</ele></trkpt>
   <trkpt lat="45.779061" lon="3.099985"><ele>358</ele></trkpt>
   <trkpt lat="45.779131" lon="3.100059"><ele>358</ele></trkpt>
   <trkpt lat="45.779222" lon="3.100228"><ele>358</ele></trkpt>
   <trkpt lat="45.779386" lon="3.100561"><ele>358</ele></trkpt>
   <trkpt lat="45.779472" lon="3.100704"><ele>358</ele></trkpt>
   <trkpt lat="45.779453" lon="3.100797"><ele>358</ele></trkpt>
   <trkpt lat="45.779479" lon="3.100851"><ele>358</ele></trkpt>
   <trkpt lat="45.779453" lon="3.100797"><ele>358</ele></trkpt>
   <trkpt lat="45.779472" lon="3.100704"><ele>358</ele></trkpt>
   <trkpt lat="45.779508" lon="3.10077"><ele>358</ele></trkpt>
   <trkpt lat="45.779563" lon="3.100863"><ele>358</ele></trkpt>
   <trkpt lat="45.77975" lon="3.101228"><ele>358</ele></trkpt>
   <trkpt lat="45.779956" lon="3.101642"><ele>358</ele></trkpt>
   <trkpt lat="45.779906" lon="3.10169"><ele>358</ele></trkpt>
   <trkpt lat="45.779877" lon="3.101634"><ele>358</ele></trkpt>
  </trkseg>
 </trk>
</gpx>