<?xml version="1.0" encoding="UTF-8"?>
<!-- track-length = 3248 filtered ascend = 48 plain-ascend = 45 cost=4761 energy=0.0kwh time=13m 57s -->
<gpx 
 xmlns="http://www.topografix.com/GPX/1/1" 
 xmlns:xsi="http://www.w3.org/2001/XMLSchema-instance" 
 xsi:schemaLocation="http://www.topografix.com/GPX/1/1 http://www.topografix.com/GPX/1/1/gpx.xsd" 
 version="1.1" 
 creator="BRouter-Web 99.71.0">
 <trk>
  <name>Clermont-Ferrand - Aubière (3.2km)</name>
  <link href="https://brouter.damsy.net/latest/#map=15/45.7654/3.1213/standard&amp;lonlats=3.102628,45.780475;3.112351,45.763027&amp;profile=safety">
   <text>BRouter-Web</text>
  </link>
  <trkseg>
   <trkpt lat="45.780465" lon="3.102636"><ele>356.75</ele></trkpt>
   <trkpt lat="45.779956" lon="3.101642"><ele>358</ele></trkpt>
   <trkpt lat="45.77975" lon="3.101228"><ele>358</ele></trkpt>
   <trkpt lat="45.779563" lon="3.100863"><ele>358</ele></trkpt>
   <trkpt lat="45.779508" lon="3.10077"><ele>358</ele></trkpt>
   <trkpt lat="45.779472" lon="3.100704"><ele>358</ele></trkpt>
   <trkpt lat="45.779386" lon="3.100561"><ele>358</ele></trkpt>
   <trkpt lat="45.779222" lon="3.100228"><ele>358</ele></trkpt>
   <trkpt lat="45.779131" lon="3.100059"><ele>358</ele></trkpt>
   <trkpt lat="45.779061" lon="3.099985"><ele>358</ele></trkpt>
   <trkpt lat="45.778982" lon="3.099831"><ele>358</ele></trkpt>
   <trkpt lat="45.778966" lon="3.099789"><ele>358</ele></trkpt>
   <trkpt lat="45.778955" lon="3.099709"><ele>358</ele></trkpt>
   <trkpt lat="45.778942" lon="3.09968"><ele>358</ele></trkpt>
   <trkpt lat="45.778742" lon="3.099255"><ele>358.75</ele></trkpt>
   <trkpt lat="45.778716" lon="3.0992"><ele>358.75</ele></trkpt>
   <trkpt lat="45.778672" lon="3.099115"><ele>359</ele></trkpt>
   <trkpt lat="45.778586" lon="3.098951"><ele>358.75</ele></trkpt>
   <trkpt lat="45.778235" lon="3.098273"><ele>360.25</ele></trkpt>
   <trkpt lat="45.777761" lon="3.097349"><ele>362.5</ele></trkpt>
   <trkpt lat="45.777682" lon="3.09719"><ele>363</ele></trkpt>
   <trkpt lat="45.777508" lon="3.096827"><ele>363.25</ele></trkpt>
   <trkpt lat="45.777454" lon="3.096696"><ele>363.75</ele></trkpt>
   <trkpt lat="45.777414" lon="3.096578"><ele>364</ele></trkpt>
   <trkpt lat="45.777388" lon="3.096438"><ele>364.25</ele></trkpt>
   <trkpt lat="45.777393" lon="3.096211"><ele>364.75</ele></trkpt>
   <trkpt lat="45.777394" lon="3.096096"><ele>365</ele></trkpt>
   <trkpt lat="45.777307" lon="3.096087"><ele>365</ele></trkpt>
   <trkpt lat="45.777217" lon="3.09608"><ele>364.75</ele></trkpt>
   <trkpt lat="45.777179" lon="3.096088"><ele>364.75</ele></trkpt>
   <trkpt lat="45.777073" lon="3.096109"><ele>364.25</ele></trkpt>
   <trkpt lat="45.777033" lon="3.096108"><ele>364.25</ele></trkpt>
   <trkpt lat="45.776343" lon="3.095995"><ele>365.25</ele></trkpt>
   <trkpt lat="45.776289" lon="3.095916"><ele>365.25</ele></trkpt>
   <trkpt lat="45.776227" lon="3.095914"><ele>365</ele></trkpt>
   <trkpt lat="45.776123" lon="3.095907"><ele>364.75</ele></trkpt>
   <trkpt lat="45.776052" lon="3.095943"><ele>364.5</ele></trkpt>
   <trkpt lat="45.776002" lon="3.095947"><ele>364.75</ele></trkpt>
   <trkpt lat="45.775696" lon="3.095918"><ele>365</ele></trkpt>
   <trkpt lat="45.775588" lon="3.095899"><ele>365</ele></trkpt>
   <trkpt lat="45.775582" lon="3.095898"><ele>365</ele></trkpt>
   <trkpt lat="45.775492" lon="3.09588"><ele>365</ele></trkpt>
   <trkpt lat="45.77538" lon="3.095807"><ele>365</ele></trkpt>
   <trkpt lat="45.775281" lon="3.095711"><ele>365.25</ele></trkpt>
   <trkpt lat="45.775216" lon="3.095624"><ele>365.75</ele></trkpt>
   <trkpt lat="45.775196" lon="3.095646"><ele>365.75</ele></trkpt>
   <trkpt lat="45.775144" lon="3.095686"><ele>365.75</ele></trkpt>
   <trkpt lat="45.775029" lon="3.095727"><ele>365.75</ele></trkpt>
   <trkpt lat="45.774888" lon="3.095675"><ele>366.25</ele></trkpt>
   <trkpt lat="45.774881" lon="3.095721"><ele>366.25</ele></trkpt>
   <trkpt lat="45.774864" lon="3.095843"><ele>366.25</ele></trkpt>
   <trkpt lat="45.774864" lon="3.095872"><ele>366.25</ele></trkpt>
   <trkpt lat="45.774878" lon="3.095919"><ele>366.25</ele></trkpt>
   <trkpt lat="45.774872" lon="3.095927"><ele>366.25</ele></trkpt>
   <trkpt lat="45.774861" lon="3.095941"><ele>366.5</ele></trkpt>
   <trkpt lat="45.774783" lon="3.096044"><ele>366.75</ele></trkpt>
   <trkpt lat="45.774492" lon="3.096441"><ele>366.75</ele></trkpt>
   <trkpt lat="45.774431" lon="3.096521"><ele>365</ele></trkpt>
   <trkpt lat="45.774245" lon="3.096789"><ele>365.5</ele></trkpt>
   <trkpt lat="45.774116" lon="3.096977"><ele>367</ele></trkpt>
   <trkpt lat="45.773894" lon="3.097292"><ele>367.5</ele></trkpt>
   <trkpt lat="45.773876" lon="3.097317"><ele>367.5</ele></trkpt>
   <trkpt lat="45.773859" lon="3.097343"><ele>367.5</ele></trkpt>
   <trkpt lat="45.773759" lon="3.097529"><ele>367.25</ele></trkpt>
   <trkpt lat="45.773712" lon="3.097621"><ele>367.5</ele></trkpt>
   <trkpt lat="45.773697" lon="3.097645"><ele>367.5</ele></trkpt>
   <trkpt lat="45.773679" lon="3.097673"><ele>367.75</ele></trkpt>
   <trkpt lat="45.773517" lon="3.097929"><ele>367.75</ele></trkpt>
   <trkpt lat="45.773377" lon="3.098101"><ele>367.5</ele></trkpt>
   <trkpt lat="45.773338" lon="3.098163"><ele>367.5</ele></trkpt>
   <trkpt lat="45.773238" lon="3.098323"><ele>368</ele></trkpt>
   <trkpt lat="45.773215" lon="3.098357"><ele>368</ele></trkpt>
   <trkpt lat="45.773043" lon="3.098621"><ele>369</ele></trkpt>
   <trkpt lat="45.772983" lon="3.0987"><ele>368.75</ele></trkpt>
   <trkpt lat="45.772751" lon="3.099049"><ele>368.75</ele></trkpt>
   <trkpt lat="45.772628" lon="3.09926"><ele>369.25</ele></trkpt>
   <trkpt lat="45.772277" lon="3.099885"><ele>367.75</ele></trkpt>
   <trkpt lat="45.772223" lon="3.099984"><ele>367</ele></trkpt>
   <trkpt lat="45.772188" lon="3.100037"><ele>367</ele></trkpt>
   <trkpt lat="45.772169" lon="3.100069"><ele>367.25</ele></trkpt>
   <trkpt lat="45.771987" lon="3.100315"><ele>367.25</ele></trkpt>
   <trkpt lat="45.771888" lon="3.100439"><ele>367</ele></trkpt>
   <trkpt lat="45.771834" lon="3.100511"><ele>367</ele></trkpt>
   <trkpt lat="45.771812" lon="3.100535"><ele>367</ele></trkpt>
   <trkpt lat="45.771674" lon="3.100514"><ele>368</ele></trkpt>
   <trkpt lat="45.771614" lon="3.100527"><ele>368.5</ele></trkpt>
   <trkpt lat="45.771562" lon="3.100518"><ele>369.25</ele></trkpt>
   <trkpt lat="45.771528" lon="3.100485"><ele>369.75</ele></trkpt>
   <trkpt lat="45.771502" lon="3.10044"><ele>370</ele></trkpt>
   <trkpt lat="45.771486" lon="3.100371"><ele>370.25</ele></trkpt>
   <trkpt lat="45.771472" lon="3.100125"><ele>372</ele></trkpt>
   <trkpt lat="45.771458" lon="3.100036"><ele>372.75</ele></trkpt>
   <trkpt lat="45.771448" lon="3.09997"><ele>373.25</ele></trkpt>
   <trkpt lat="45.771426" lon="3.099889"><ele>374</ele></trkpt>
   <trkpt lat="45.771356" lon="3.099766"><ele>374.75</ele></trkpt>
   <trkpt lat="45.770693" lon="3.100871"><ele>372.5</ele></trkpt>
   <trkpt lat="45.770651" lon="3.100942"><ele>372.5</ele></trkpt>
   <trkpt lat="45.770607" lon="3.101016"><ele>372.75</ele></trkpt>
   <trkpt lat="45.770552" lon="3.101107"><ele>373</ele></trkpt>
   <trkpt lat="45.770538" lon="3.101131"><ele>372.75</ele></trkpt>
   <trkpt lat="45.770498" lon="3.101197"><ele>372.75</ele></trkpt>
   <trkpt lat="45.769863" lon="3.102246"><ele>377.75</ele></trkpt>
   <trkpt lat="45.769718" lon="3.102487"><ele>379</ele></trkpt>
   <trkpt lat="45.769624" lon="3.102642"><ele>379.75</ele></trkpt>
   <trkpt lat="45.769303" lon="3.103173"><ele>382.5</ele></trkpt>
   <trkpt lat="45.76883" lon="3.103953"><ele>386.5</ele></trkpt>
   <trkpt lat="45.768465" lon="3.104556"><ele>389.5</ele></trkpt>
   <trkpt lat="45.768396" lon="3.104667"><ele>389.75</ele></trkpt>
   <trkpt lat="45.768347" lon="3.104744"><ele>389.75</ele></trkpt>
   <trkpt lat="45.768148" lon="3.105058"><ele>390.5</ele></trkpt>
   <trkpt lat="45.767966" lon="3.105327"><ele>390.25</ele></trkpt>
   <trkpt lat="45.767925" lon="3.105388"><ele>390.25</ele></trkpt>
   <trkpt lat="45.767552" lon="3.105952"><ele>391</ele></trkpt>
   <trkpt lat="45.767437" lon="3.10612"><ele>390.75</ele></trkpt>
   <trkpt lat="45.767341" lon="3.10626"><ele>390.25</ele></trkpt>
   <trkpt lat="45.76709" lon="3.10662"><ele>390</ele></trkpt>
   <trkpt lat="45.766944" lon="3.106854"><ele>390</ele></trkpt>
   <trkpt lat="45.766852" lon="3.10699"><ele>389.75</ele></trkpt>
   <trkpt lat="45.766794" lon="3.10707"><ele>389.5</ele></trkpt>
   <trkpt lat="45.766724" lon="3.107159"><ele>389.5</ele></trkpt>
   <trkpt lat="45.766661" lon="3.107238"><ele>389.75</ele></trkpt>
   <trkpt lat="45.766493" lon="3.107484"><ele>389</ele></trkpt>
   <trkpt lat="45.76646" lon="3.107533"><ele>388.75</ele></trkpt>
   <trkpt lat="45.766268" lon="3.107812"><ele>388.25</ele></trkpt>
   <trkpt lat="45.766205" lon="3.107901"><ele>388</ele></trkpt>
   <trkpt lat="45.766091" lon="3.108066"><ele>387.75</ele></trkpt>
   <trkpt lat="45.766014" lon="3.108031"><ele>388</ele></trkpt>
   <trkpt lat="45.766008" lon="3.108028"><ele>388</ele></trkpt>
   <trkpt lat="45.765638" lon="3.107841"><ele>388</ele></trkpt>
   <trkpt lat="45.765413" lon="3.10773"><ele>388</ele></trkpt>
   <trkpt lat="45.765176" lon="3.107623"><ele>388.5</ele></trkpt>
   <trkpt lat="45.76513" lon="3.107635"><ele>388.75</ele></trkpt>
   <trkpt lat="45.764847" lon="3.107719"><ele>389.75</ele></trkpt>
   <trkpt lat="45.764772" lon="3.107734"><ele>390</ele></trkpt>
   <trkpt lat="45.76398" lon="3.107704"><ele>397</ele></trkpt>
   <trkpt lat="45.763875" lon="3.107699"><ele>398</ele></trkpt>
   <trkpt lat="45.763767" lon="3.107667"><ele>399.25</ele></trkpt>
   <trkpt lat="45.763355" lon="3.107503"><ele>404.5</ele></trkpt>
   <trkpt lat="45.763329" lon="3.107654"><ele>403.75</ele></trkpt>
   <trkpt lat="45.763322" lon="3.10771"><ele>403.5</ele></trkpt>
   <trkpt lat="45.763287" lon="3.107944"><ele>404.25</ele></trkpt>
   <trkpt lat="45.763235" lon="3.108295"><ele>405</ele></trkpt>
   <trkpt lat="45.763224" lon="3.108423"><ele>405</ele></trkpt>
   <trkpt lat="45.763223" lon="3.108551"><ele>405</ele></trkpt>
   <trkpt lat="45.763227" lon="3.108661"><ele>404.75</ele></trkpt>
   <trkpt lat="45.763241" lon="3.108787"><ele>404.5</ele></trkpt>
   <trkpt lat="45.763265" lon="3.108905"><ele>404</ele></trkpt>
   <trkpt lat="45.763321" lon="3.109097"><ele>404</ele></trkpt>
   <trkpt lat="45.763393" lon="3.109266"><ele>403.25</ele></trkpt>
   <trkpt lat="45.764075" lon="3.110451"><ele>400</ele></trkpt>
   <trkpt lat="45.76421" lon="3.110687"><ele>399</ele></trkpt>
   <trkpt lat="45.764229" lon="3.110796"><ele>399.5</ele></trkpt>
   <trkpt lat="45.764232" lon="3.110861"><ele>399.5</ele></trkpt>
   <trkpt lat="45.764226" lon="3.111073"><ele>398.75</ele></trkpt>
   <trkpt lat="45.764209" lon="3.111152"><ele>398.75</ele></trkpt>
   <trkpt lat="45.764193" lon="3.111253"><ele>399.25</ele></trkpt>
   <trkpt lat="45.764186" lon="3.111323"><ele>399.5</ele></trkpt>
   <trkpt lat="45.764175" lon="3.111456"><ele>399.75</ele></trkpt>
   <trkpt lat="45.764114" lon="3.112204"><ele>401</ele></trkpt>
   <trkpt lat="45.764106" lon="3.112307"><ele>401</ele></trkpt>
   <trkpt lat="45.764056" lon="3.11231"><ele>401</ele></trkpt>
   <trkpt lat="45.764013" lon="3.112326"><ele>401</ele></trkpt>
   <trkpt lat="45.76401" lon="3.112277"><ele>401</ele></trkpt>
   <trkpt lat="45.764009" lon="3.112262"><ele>401</ele></trkpt>
   <trkpt lat="45.763935" lon="3.112277"><ele>401</ele></trkpt>
   <trkpt lat="45.763217" lon="3.11231"><ele>401.25</ele></trkpt>
   <trkpt lat="45.763164" lon="3.112312"><ele>401.25</ele></trkpt>
   <trkpt lat="45.763026" lon="3.112317"><ele>401.5</ele></trkpt>
  </trkseg>
 </trk>
</gpx>