<?xml version="1.0" encoding="UTF-8"?>
<!-- track-length = 44258 filtered ascend = 178 plain-ascend = 13 cost=71153 energy=0.2kwh time=2h 13m 21s -->
<gpx 
 xmlns="http://www.topografix.com/GPX/1/1" 
 xmlns:xsi="http://www.w3.org/2001/XMLSchema-instance" 
 xsi:schemaLocation="http://www.topografix.com/GPX/1/1 http://www.topografix.com/GPX/1/1/gpx.xsd" 
 version="1.1" 
 creator="BRouter-Web 99.71.0">
 <trk>
  <name>Clermont-Ferrand (44.3km)</name>
  <link href="https://brouter.damsy.net/latest/?lng=en#map=12/45.7066/3.2446/standard&amp;lonlats=3.103315,45.780784;3.242016,45.787245;3.241373,45.78539;3.244488,45.780808;3.239745,45.778446;3.235043,45.775234;3.237156,45.774785;3.234431,45.774359;3.237332,45.771378;3.235744,45.770117;3.229068,45.756878;3.220151,45.754537;3.220437,45.749403;3.213898,45.729619;3.219759,45.716377;3.210577,45.70264;3.204277,45.69146;3.103346,45.780798&amp;profile=fastbike-lowtraffic">
   <text>BRouter-Web</text>
  </link>
  <trkseg>
   <trkpt lat="45.780801" lon="3.103295"><ele>355.75</ele></trkpt>
   <trkpt lat="45.781189" lon="3.104052"><ele>355</ele></trkpt>
   <trkpt lat="45.781214" lon="3.104102"><ele>355</ele></trkpt>
   <trkpt lat="45.781235" lon="3.104143"><ele>355</ele></trkpt>
   <trkpt lat="45.781286" lon="3.104323"><ele>354.75</ele></trkpt>
   <trkpt lat="45.781355" lon="3.104552"><ele>354.25</ele></trkpt>
   <trkpt lat="45.781363" lon="3.104578"><ele>354</ele></trkpt>
   <trkpt lat="45.78147" lon="3.104772"><ele>354</ele></trkpt>
   <trkpt lat="45.781558" lon="3.104916"><ele>354</ele></trkpt>
   <trkpt lat="45.78185" lon="3.105483"><ele>353.5</ele></trkpt>
   <trkpt lat="45.782117" lon="3.105977"><ele>353</ele></trkpt>
   <trkpt lat="45.782267" lon="3.106301"><ele>353</ele></trkpt>
   <trkpt lat="45.782674" lon="3.107099"><ele>352</ele></trkpt>
   <trkpt lat="45.782915" lon="3.107565"><ele>351.75</ele></trkpt>
   <trkpt lat="45.783166" lon="3.108064"><ele>350.75</ele></trkpt>
   <trkpt lat="45.783303" lon="3.108303"><ele>350</ele></trkpt>
   <trkpt lat="45.783485" lon="3.108669"><ele>350</ele></trkpt>
   <trkpt lat="45.783579" lon="3.10888"><ele>350</ele></trkpt>
   <trkpt lat="45.783788" lon="3.109286"><ele>350</ele></trkpt>
   <trkpt lat="45.783843" lon="3.10938"><ele>350</ele></trkpt>
   <trkpt lat="45.783896" lon="3.109447"><ele>350</ele></trkpt>
   <trkpt lat="45.783942" lon="3.109487"><ele>350</ele></trkpt>
   <trkpt lat="45.783983" lon="3.109507"><ele>350</ele></trkpt>
   <trkpt lat="45.784245" lon="3.109619"><ele>349.75</ele></trkpt>
   <trkpt lat="45.784291" lon="3.109648"><ele>349.5</ele></trkpt>
   <trkpt lat="45.784326" lon="3.10967"><ele>349.5</ele></trkpt>
   <trkpt lat="45.784362" lon="3.10971"><ele>349.25</ele></trkpt>
   <trkpt lat="45.784436" lon="3.109847"><ele>349</ele></trkpt>
   <trkpt lat="45.784573" lon="3.11011"><ele>349.25</ele></trkpt>
   <trkpt lat="45.784685" lon="3.110339"><ele>349.5</ele></trkpt>
   <trkpt lat="45.785006" lon="3.11098"><ele>349.75</ele></trkpt>
   <trkpt lat="45.785065" lon="3.111099"><ele>350</ele></trkpt>
   <trkpt lat="45.785135" lon="3.11124"><ele>349.5</ele></trkpt>
   <trkpt lat="45.7852" lon="3.11137"><ele>349</ele></trkpt>
   <trkpt lat="45.785246" lon="3.111463"><ele>349</ele></trkpt>
   <trkpt lat="45.785272" lon="3.111516"><ele>349.25</ele></trkpt>
   <trkpt lat="45.785306" lon="3.111582"><ele>349.5</ele></trkpt>
   <trkpt lat="45.785725" lon="3.112407"><ele>349.5</ele></trkpt>
   <trkpt lat="45.785974" lon="3.112904"><ele>349</ele></trkpt>
   <trkpt lat="45.786235" lon="3.11341"><ele>348.5</ele></trkpt>
   <trkpt lat="45.786424" lon="3.113787"><ele>348.25</ele></trkpt>
   <trkpt lat="45.786604" lon="3.114146"><ele>346.5</ele></trkpt>
   <trkpt lat="45.786633" lon="3.114204"><ele>346.25</ele></trkpt>
   <trkpt lat="45.786645" lon="3.114232"><ele>346</ele></trkpt>
   <trkpt lat="45.78669" lon="3.114327"><ele>345.75</ele></trkpt>
   <trkpt lat="45.7867" lon="3.11435"><ele>345.75</ele></trkpt>
   <trkpt lat="45.786705" lon="3.11436"><ele>345.75</ele></trkpt>
   <trkpt lat="45.78675" lon="3.114501"><ele>345.5</ele></trkpt>
   <trkpt lat="45.786782" lon="3.114671"><ele>345</ele></trkpt>
   <trkpt lat="45.786792" lon="3.114788"><ele>344.75</ele></trkpt>
   <trkpt lat="45.786791" lon="3.115007"><ele>344</ele></trkpt>
   <trkpt lat="45.786753" lon="3.11533"><ele>344</ele></trkpt>
   <trkpt lat="45.786737" lon="3.115556"><ele>344</ele></trkpt>
   <trkpt lat="45.786734" lon="3.115711"><ele>344</ele></trkpt>
   <trkpt lat="45.786754" lon="3.115917"><ele>344</ele></trkpt>
   <trkpt lat="45.78683" lon="3.116198"><ele>344.25</ele></trkpt>
   <trkpt lat="45.786933" lon="3.116435"><ele>343.25</ele></trkpt>
   <trkpt lat="45.787119" lon="3.116788"><ele>344</ele></trkpt>
   <trkpt lat="45.787335" lon="3.117179"><ele>343.5</ele></trkpt>
   <trkpt lat="45.787537" lon="3.117523"><ele>343</ele></trkpt>
   <trkpt lat="45.787731" lon="3.117824"><ele>342.75</ele></trkpt>
   <trkpt lat="45.788039" lon="3.118303"><ele>342.25</ele></trkpt>
   <trkpt lat="45.788126" lon="3.118452"><ele>341.25</ele></trkpt>
   <trkpt lat="45.788139" lon="3.118474"><ele>341.25</ele></trkpt>
   <trkpt lat="45.788085" lon="3.118547"><ele>341</ele></trkpt>
   <trkpt lat="45.78803" lon="3.118619"><ele>341.75</ele></trkpt>
   <trkpt lat="45.787846" lon="3.118905"><ele>345.25</ele></trkpt>
   <trkpt lat="45.787743" lon="3.119052"><ele>343</ele></trkpt>
   <trkpt lat="45.787641" lon="3.119199"><ele>341.5</ele></trkpt>
   <trkpt lat="45.787585" lon="3.11926"><ele>341.75</ele></trkpt>
   <trkpt lat="45.787473" lon="3.119346"><ele>341.25</ele></trkpt>
   <trkpt lat="45.787437" lon="3.119386"><ele>341</ele></trkpt>
   <trkpt lat="45.787403" lon="3.119417"><ele>341</ele></trkpt>
   <trkpt lat="45.787437" lon="3.119497"><ele>341</ele></trkpt>
   <trkpt lat="45.787485" lon="3.11962"><ele>341</ele></trkpt>
   <trkpt lat="45.787518" lon="3.119752"><ele>341.25</ele></trkpt>
   <trkpt lat="45.787569" lon="3.119916"><ele>342</ele></trkpt>
   <trkpt lat="45.787603" lon="3.120056"><ele>342.25</ele></trkpt>
   <trkpt lat="45.787638" lon="3.120271"><ele>342.25</ele></trkpt>
   <trkpt lat="45.787638" lon="3.120306"><ele>342.5</ele></trkpt>
   <trkpt lat="45.787638" lon="3.120557"><ele>343.25</ele></trkpt>
   <trkpt lat="45.787637" lon="3.121182"><ele>343.75</ele></trkpt>
   <trkpt lat="45.787637" lon="3.121214"><ele>343.75</ele></trkpt>
   <trkpt lat="45.787622" lon="3.121361"><ele>343.25</ele></trkpt>
   <trkpt lat="45.787628" lon="3.121551"><ele>343</ele></trkpt>
   <trkpt lat="45.787662" lon="3.121806"><ele>342.75</ele></trkpt>
   <trkpt lat="45.7877" lon="3.12195"><ele>342.5</ele></trkpt>
   <trkpt lat="45.787746" lon="3.12209"><ele>342.25</ele></trkpt>
   <trkpt lat="45.78771" lon="3.122191"><ele>342</ele></trkpt>
   <trkpt lat="45.787772" lon="3.122553"><ele>341</ele></trkpt>
   <trkpt lat="45.787846" lon="3.12299"><ele>341</ele></trkpt>
   <trkpt lat="45.78794" lon="3.123378"><ele>340.25</ele></trkpt>
   <trkpt lat="45.788004" lon="3.123823"><ele>339.25</ele></trkpt>
   <trkpt lat="45.788079" lon="3.124196"><ele>337.75</ele></trkpt>
   <trkpt lat="45.7881" lon="3.124301"><ele>337.5</ele></trkpt>
   <trkpt lat="45.788111" lon="3.124337"><ele>337.5</ele></trkpt>
   <trkpt lat="45.788138" lon="3.124428"><ele>337.25</ele></trkpt>
   <trkpt lat="45.788192" lon="3.124589"><ele>337.25</ele></trkpt>
   <trkpt lat="45.788142" lon="3.124782"><ele>337</ele></trkpt>
   <trkpt lat="45.788069" lon="3.125065"><ele>336.5</ele></trkpt>
   <trkpt lat="45.787928" lon="3.125207"><ele>336.25</ele></trkpt>
   <trkpt lat="45.787778" lon="3.125282"><ele>335.75</ele></trkpt>
   <trkpt lat="45.787239" lon="3.125426"><ele>334.25</ele></trkpt>
   <trkpt lat="45.787111" lon="3.125415"><ele>334</ele></trkpt>
   <trkpt lat="45.787117" lon="3.125512"><ele>334</ele></trkpt>
   <trkpt lat="45.787111" lon="3.125585"><ele>334</ele></trkpt>
   <trkpt lat="45.787095" lon="3.125805"><ele>334</ele></trkpt>
   <trkpt lat="45.787068" lon="3.12615"><ele>333.25</ele></trkpt>
   <trkpt lat="45.786902" lon="3.128143"><ele>333</ele></trkpt>
   <trkpt lat="45.78687" lon="3.12826"><ele>333</ele></trkpt>
   <trkpt lat="45.786837" lon="3.128377"><ele>333</ele></trkpt>
   <trkpt lat="45.786959" lon="3.128681"><ele>333</ele></trkpt>
   <trkpt lat="45.787023" lon="3.12884"><ele>333</ele></trkpt>
   <trkpt lat="45.787613" lon="3.130195"><ele>333</ele></trkpt>
   <trkpt lat="45.787672" lon="3.130341"><ele>333</ele></trkpt>
   <trkpt lat="45.787842" lon="3.13076"><ele>333</ele></trkpt>
   <trkpt lat="45.787952" lon="3.1311"><ele>333</ele></trkpt>
   <trkpt lat="45.788039" lon="3.131426"><ele>333</ele></trkpt>
   <trkpt lat="45.788092" lon="3.131704"><ele>333</ele></trkpt>
   <trkpt lat="45.788099" lon="3.13174"><ele>332.75</ele></trkpt>
   <trkpt lat="45.788465" lon="3.133691"><ele>333</ele></trkpt>
   <trkpt lat="45.78848" lon="3.133758"><ele>333</ele></trkpt>
   <trkpt lat="45.788518" lon="3.133937"><ele>333</ele></trkpt>
   <trkpt lat="45.788522" lon="3.133997"><ele>333</ele></trkpt>
   <trkpt lat="45.788519" lon="3.134047"><ele>333</ele></trkpt>
   <trkpt lat="45.788488" lon="3.134176"><ele>332.75</ele></trkpt>
   <trkpt lat="45.788472" lon="3.134314"><ele>332.5</ele></trkpt>
   <trkpt lat="45.788577" lon="3.134467"><ele>332.75</ele></trkpt>
   <trkpt lat="45.7887" lon="3.134682"><ele>333</ele></trkpt>
   <trkpt lat="45.7888" lon="3.134911"><ele>333</ele></trkpt>
   <trkpt lat="45.788843" lon="3.135039"><ele>333</ele></trkpt>
   <trkpt lat="45.788891" lon="3.13513"><ele>332.75</ele></trkpt>
   <trkpt lat="45.788915" lon="3.135326"><ele>333</ele></trkpt>
   <trkpt lat="45.788894" lon="3.135591"><ele>333</ele></trkpt>
   <trkpt lat="45.78872" lon="3.136196"><ele>333</ele></trkpt>
   <trkpt lat="45.788613" lon="3.136595"><ele>333</ele></trkpt>
   <trkpt lat="45.788473" lon="3.13729"><ele>332.25</ele></trkpt>
   <trkpt lat="45.788414" lon="3.137569"><ele>332.25</ele></trkpt>
   <trkpt lat="45.788385" lon="3.137747"><ele>332</ele></trkpt>
   <trkpt lat="45.788316" lon="3.138104"><ele>332</ele></trkpt>
   <trkpt lat="45.788297" lon="3.138207"><ele>332</ele></trkpt>
   <trkpt lat="45.788225" lon="3.138558"><ele>332</ele></trkpt>
   <trkpt lat="45.788217" lon="3.138588"><ele>332</ele></trkpt>
   <trkpt lat="45.788177" lon="3.138815"><ele>332</ele></trkpt>
   <trkpt lat="45.788134" lon="3.138948"><ele>332</ele></trkpt>
   <trkpt lat="45.788098" lon="3.139061"><ele>332</ele></trkpt>
   <trkpt lat="45.788086" lon="3.139141"><ele>332</ele></trkpt>
   <trkpt lat="45.788081" lon="3.139198"><ele>332</ele></trkpt>
   <trkpt lat="45.788036" lon="3.139224"><ele>332</ele></trkpt>
   <trkpt lat="45.787987" lon="3.139282"><ele>332</ele></trkpt>
   <trkpt lat="45.787968" lon="3.13932"><ele>332</ele></trkpt>
   <trkpt lat="45.787947" lon="3.139406"><ele>332</ele></trkpt>
   <trkpt lat="45.787945" lon="3.139476"><ele>332</ele></trkpt>
   <trkpt lat="45.787955" lon="3.139535"><ele>332</ele></trkpt>
   <trkpt lat="45.787973" lon="3.139589"><ele>332</ele></trkpt>
   <trkpt lat="45.788" lon="3.139635"><ele>332</ele></trkpt>
   <trkpt lat="45.788034" lon="3.139671"><ele>332</ele></trkpt>
   <trkpt lat="45.788072" lon="3.139695"><ele>332</ele></trkpt>
   <trkpt lat="45.788114" lon="3.139705"><ele>332</ele></trkpt>
   <trkpt lat="45.788595" lon="3.14017"><ele>331.75</ele></trkpt>
   <trkpt lat="45.788715" lon="3.140317"><ele>332</ele></trkpt>
   <trkpt lat="45.789202" lon="3.140853"><ele>332</ele></trkpt>
   <trkpt lat="45.789531" lon="3.141332"><ele>332</ele></trkpt>
   <trkpt lat="45.789833" lon="3.141819"><ele>331.5</ele></trkpt>
   <trkpt lat="45.790491" lon="3.142984"><ele>331</ele></trkpt>
   <trkpt lat="45.790754" lon="3.143524"><ele>331</ele></trkpt>
   <trkpt lat="45.790935" lon="3.143894"><ele>330.25</ele></trkpt>
   <trkpt lat="45.791138" lon="3.144275"><ele>331</ele></trkpt>
   <trkpt lat="45.791659" lon="3.145212"><ele>331.25</ele></trkpt>
   <trkpt lat="45.791858" lon="3.145485"><ele>331.5</ele></trkpt>
   <trkpt lat="45.792439" lon="3.146043"><ele>332.25</ele></trkpt>
   <trkpt lat="45.792472" lon="3.146091"><ele>331.5</ele></trkpt>
   <trkpt lat="45.792507" lon="3.146159"><ele>331</ele></trkpt>
   <trkpt lat="45.792532" lon="3.146245"><ele>331</ele></trkpt>
   <trkpt lat="45.792559" lon="3.146392"><ele>331</ele></trkpt>
   <trkpt lat="45.792522" lon="3.146916"><ele>331</ele></trkpt>
   <trkpt lat="45.792511" lon="3.147129"><ele>330.75</ele></trkpt>
   <trkpt lat="45.792421" lon="3.148996"><ele>329.75</ele></trkpt>
   <trkpt lat="45.792322" lon="3.151026"><ele>329</ele></trkpt>
   <trkpt lat="45.792254" lon="3.152071"><ele>329</ele></trkpt>
   <trkpt lat="45.792209" lon="3.152975"><ele>329</ele></trkpt>
   <trkpt lat="45.792199" lon="3.153205"><ele>329</ele></trkpt>
   <trkpt lat="45.792188" lon="3.15342"><ele>329</ele></trkpt>
   <trkpt lat="45.79215" lon="3.154504"><ele>329.5</ele></trkpt>
   <trkpt lat="45.792099" lon="3.155582"><ele>329</ele></trkpt>
   <trkpt lat="45.792088" lon="3.155791"><ele>329</ele></trkpt>
   <trkpt lat="45.791991" lon="3.157986"><ele>329</ele></trkpt>
   <trkpt lat="45.791987" lon="3.158085"><ele>329</ele></trkpt>
   <trkpt lat="45.791964" lon="3.158618"><ele>329</ele></trkpt>
   <trkpt lat="45.791945" lon="3.159019"><ele>328.75</ele></trkpt>
   <trkpt lat="45.79191" lon="3.159511"><ele>329</ele></trkpt>
   <trkpt lat="45.791847" lon="3.160011"><ele>329</ele></trkpt>
   <trkpt lat="45.791795" lon="3.160694"><ele>328.25</ele></trkpt>
   <trkpt lat="45.791766" lon="3.160982"><ele>328</ele></trkpt>
   <trkpt lat="45.791741" lon="3.161416"><ele>328.25</ele></trkpt>
   <trkpt lat="45.791721" lon="3.161906"><ele>328</ele></trkpt>
   <trkpt lat="45.791638" lon="3.163306"><ele>327.75</ele></trkpt>
   <trkpt lat="45.791589" lon="3.163839"><ele>327.5</ele></trkpt>
   <trkpt lat="45.79156" lon="3.164394"><ele>327.25</ele></trkpt>
   <trkpt lat="45.791561" lon="3.164822"><ele>327.5</ele></trkpt>
   <trkpt lat="45.791568" lon="3.165068"><ele>327.5</ele></trkpt>
   <trkpt lat="45.791579" lon="3.165273"><ele>327.5</ele></trkpt>
   <trkpt lat="45.791595" lon="3.16551"><ele>327</ele></trkpt>
   <trkpt lat="45.79161" lon="3.165674"><ele>326.75</ele></trkpt>
   <trkpt lat="45.791671" lon="3.166843"><ele>326.75</ele></trkpt>
   <trkpt lat="45.791233" lon="3.176402"><ele>323.25</ele></trkpt>
   <trkpt lat="45.791081" lon="3.179731"><ele>322.75</ele></trkpt>
   <trkpt lat="45.790752" lon="3.185977"><ele>322.5</ele></trkpt>
   <trkpt lat="45.790441" lon="3.192223"><ele>322</ele></trkpt>
   <trkpt lat="45.790063" lon="3.200129"><ele>321.25</ele></trkpt>
   <trkpt lat="45.790022" lon="3.200875"><ele>321.25</ele></trkpt>
   <trkpt lat="45.789991" lon="3.201315"><ele>322</ele></trkpt>
   <trkpt lat="45.78998" lon="3.201394"><ele>322</ele></trkpt>
   <trkpt lat="45.790074" lon="3.201552"><ele>322</ele></trkpt>
   <trkpt lat="45.790077" lon="3.201717"><ele>322</ele></trkpt>
   <trkpt lat="45.79002" lon="3.203116"><ele>321</ele></trkpt>
   <trkpt lat="45.789993" lon="3.203433"><ele>321.25</ele></trkpt>
   <trkpt lat="45.789926" lon="3.205176"><ele>322.25</ele></trkpt>
   <trkpt lat="45.789878" lon="3.2056"><ele>322</ele></trkpt>
   <trkpt lat="45.789864" lon="3.206034"><ele>321.75</ele></trkpt>
   <trkpt lat="45.789871" lon="3.206548"><ele>322</ele></trkpt>
   <trkpt lat="45.78978" lon="3.208109"><ele>321</ele></trkpt>
   <trkpt lat="45.789687" lon="3.209924"><ele>324.25</ele></trkpt>
   <trkpt lat="45.789547" lon="3.209957"><ele>323.5</ele></trkpt>
   <trkpt lat="45.789386" lon="3.20997"><ele>322.75</ele></trkpt>
   <trkpt lat="45.788908" lon="3.210033"><ele>322</ele></trkpt>
   <trkpt lat="45.787696" lon="3.210483"><ele>323.5</ele></trkpt>
   <trkpt lat="45.787344" lon="3.210539"><ele>323.5</ele></trkpt>
   <trkpt lat="45.786785" lon="3.210533"><ele>324</ele></trkpt>
   <trkpt lat="45.786237" lon="3.21048"><ele>324.75</ele></trkpt>
   <trkpt lat="45.785512" lon="3.210414"><ele>325</ele></trkpt>
   <trkpt lat="45.785333" lon="3.210419"><ele>325</ele></trkpt>
   <trkpt lat="45.785235" lon="3.210517"><ele>325</ele></trkpt>
   <trkpt lat="45.78518" lon="3.210711"><ele>325.25</ele></trkpt>
   <trkpt lat="45.785185" lon="3.211017"><ele>325.25</ele></trkpt>
   <trkpt lat="45.785183" lon="3.211443"><ele>325.5</ele></trkpt>
   <trkpt lat="45.785145" lon="3.211909"><ele>325.75</ele></trkpt>
   <trkpt lat="45.785124" lon="3.21225"><ele>326</ele></trkpt>
   <trkpt lat="45.78513" lon="3.212541"><ele>325.75</ele></trkpt>
   <trkpt lat="45.785176" lon="3.21287"><ele>325.25</ele></trkpt>
   <trkpt lat="45.785198" lon="3.213129"><ele>325.25</ele></trkpt>
   <trkpt lat="45.785175" lon="3.213286"><ele>325.5</ele></trkpt>
   <trkpt lat="45.78504" lon="3.213407"><ele>326.75</ele></trkpt>
   <trkpt lat="45.784931" lon="3.213413"><ele>327.25</ele></trkpt>
   <trkpt lat="45.784853" lon="3.213358"><ele>327.5</ele></trkpt>
   <trkpt lat="45.784771" lon="3.213208"><ele>327.5</ele></trkpt>
   <trkpt lat="45.784652" lon="3.21309"><ele>328</ele></trkpt>
   <trkpt lat="45.784514" lon="3.213027"><ele>327.75</ele></trkpt>
   <trkpt lat="45.784401" lon="3.213022"><ele>327.75</ele></trkpt>
   <trkpt lat="45.784289" lon="3.213055"><ele>328.5</ele></trkpt>
   <trkpt lat="45.784183" lon="3.213129"><ele>329</ele></trkpt>
   <trkpt lat="45.784094" lon="3.213237"><ele>329</ele></trkpt>
   <trkpt lat="45.784025" lon="3.213373"><ele>329</ele></trkpt>
   <trkpt lat="45.783997" lon="3.213461"><ele>329.25</ele></trkpt>
   <trkpt lat="45.783978" lon="3.213555"><ele>329.5</ele></trkpt>
   <trkpt lat="45.783971" lon="3.21379"><ele>330</ele></trkpt>
   <trkpt lat="45.78402" lon="3.214016"><ele>329.5</ele></trkpt>
   <trkpt lat="45.78412" lon="3.214202"><ele>330</ele></trkpt>
   <trkpt lat="45.784222" lon="3.214305"><ele>330.25</ele></trkpt>
   <trkpt lat="45.784389" lon="3.214385"><ele>329.25</ele></trkpt>
   <trkpt lat="45.784463" lon="3.214382"><ele>329</ele></trkpt>
   <trkpt lat="45.784533" lon="3.214477"><ele>328.5</ele></trkpt>
   <trkpt lat="45.784572" lon="3.21457"><ele>328.25</ele></trkpt>
   <trkpt lat="45.784661" lon="3.214849"><ele>328.5</ele></trkpt>
   <trkpt lat="45.784699" lon="3.215164"><ele>328.25</ele></trkpt>
   <trkpt lat="45.784717" lon="3.215446"><ele>327.75</ele></trkpt>
   <trkpt lat="45.784773" lon="3.216062"><ele>328.5</ele></trkpt>
   <trkpt lat="45.78484" lon="3.216498"><ele>328.75</ele></trkpt>
   <trkpt lat="45.784882" lon="3.216719"><ele>328.75</ele></trkpt>
   <trkpt lat="45.784893" lon="3.216811"><ele>329</ele></trkpt>
   <trkpt lat="45.784884" lon="3.216994"><ele>329.5</ele></trkpt>
   <trkpt lat="45.784868" lon="3.217089"><ele>329.75</ele></trkpt>
   <trkpt lat="45.784827" lon="3.217159"><ele>330.25</ele></trkpt>
   <trkpt lat="45.784777" lon="3.217279"><ele>330.75</ele></trkpt>
   <trkpt lat="45.784692" lon="3.217421"><ele>331</ele></trkpt>
   <trkpt lat="45.784612" lon="3.217511"><ele>331</ele></trkpt>
   <trkpt lat="45.78456" lon="3.217528"><ele>331</ele></trkpt>
   <trkpt lat="45.784514" lon="3.217567"><ele>331</ele></trkpt>
   <trkpt lat="45.784479" lon="3.217624"><ele>331.25</ele></trkpt>
   <trkpt lat="45.784457" lon="3.217695"><ele>331.5</ele></trkpt>
   <trkpt lat="45.784452" lon="3.217771"><ele>331.75</ele></trkpt>
   <trkpt lat="45.784464" lon="3.217846"><ele>332</ele></trkpt>
   <trkpt lat="45.784492" lon="3.217913"><ele>332</ele></trkpt>
   <trkpt lat="45.784532" lon="3.217964"><ele>332</ele></trkpt>
   <trkpt lat="45.784582" lon="3.217994"><ele>332</ele></trkpt>
   <trkpt lat="45.784635" lon="3.218001"><ele>332</ele></trkpt>
   <trkpt lat="45.784642" lon="3.218"><ele>332</ele></trkpt>
   <trkpt lat="45.784762" lon="3.218084"><ele>331.75</ele></trkpt>
   <trkpt lat="45.784916" lon="3.218298"><ele>332</ele></trkpt>
   <trkpt lat="45.785781" lon="3.22012"><ele>334</ele></trkpt>
   <trkpt lat="45.786326" lon="3.221247"><ele>335</ele></trkpt>
   <trkpt lat="45.786579" lon="3.221757"><ele>335.25</ele></trkpt>
   <trkpt lat="45.786689" lon="3.221951"><ele>335</ele></trkpt>
   <trkpt lat="45.78725" lon="3.223056"><ele>334.5</ele></trkpt>
   <trkpt lat="45.787663" lon="3.223882"><ele>335.25</ele></trkpt>
   <trkpt lat="45.78787" lon="3.224297"><ele>335</ele></trkpt>
   <trkpt lat="45.78783" lon="3.224348"><ele>335.25</ele></trkpt>
   <trkpt lat="45.787804" lon="3.224415"><ele>335.75</ele></trkpt>
   <trkpt lat="45.787794" lon="3.224491"><ele>336</ele></trkpt>
   <trkpt lat="45.787802" lon="3.224567"><ele>336.25</ele></trkpt>
   <trkpt lat="45.787827" lon="3.224636"><ele>336.25</ele></trkpt>
   <trkpt lat="45.787865" lon="3.224689"><ele>336.25</ele></trkpt>
   <trkpt lat="45.787914" lon="3.224722"><ele>336</ele></trkpt>
   <trkpt lat="45.787967" lon="3.224731"><ele>335.5</ele></trkpt>
   <trkpt lat="45.78802" lon="3.224714"><ele>335.25</ele></trkpt>
   <trkpt lat="45.788066" lon="3.224675"><ele>334.75</ele></trkpt>
   <trkpt lat="45.7881" lon="3.224616"><ele>334.75</ele></trkpt>
   <trkpt lat="45.78812" lon="3.224545"><ele>334.5</ele></trkpt>
   <trkpt lat="45.78818" lon="3.224625"><ele>334.25</ele></trkpt>
   <trkpt lat="45.788524" lon="3.224857"><ele>333</ele></trkpt>
   <trkpt lat="45.788881" lon="3.225264"><ele>333</ele></trkpt>
   <trkpt lat="45.788925" lon="3.225351"><ele>333</ele></trkpt>
   <trkpt lat="45.788936" lon="3.225459"><ele>333.25</ele></trkpt>
   <trkpt lat="45.788886" lon="3.226028"><ele>335</ele></trkpt>
   <trkpt lat="45.78883" lon="3.227062"><ele>335.75</ele></trkpt>
   <trkpt lat="45.788757" lon="3.228055"><ele>338.75</ele></trkpt>
   <trkpt lat="45.788655" lon="3.229226"><ele>344.25</ele></trkpt>
   <trkpt lat="45.788558" lon="3.230062"><ele>348.25</ele></trkpt>
   <trkpt lat="45.788518" lon="3.230497"><ele>347.25</ele></trkpt>
   <trkpt lat="45.7885" lon="3.230887"><ele>347</ele></trkpt>
   <trkpt lat="45.788508" lon="3.231502"><ele>343.75</ele></trkpt>
   <trkpt lat="45.788531" lon="3.232083"><ele>341</ele></trkpt>
   <trkpt lat="45.788572" lon="3.233652"><ele>332.5</ele></trkpt>
   <trkpt lat="45.78858" lon="3.233961"><ele>330.5</ele></trkpt>
   <trkpt lat="45.788568" lon="3.234457"><ele>329.75</ele></trkpt>
   <trkpt lat="45.788481" lon="3.235964"><ele>327.25</ele></trkpt>
   <trkpt lat="45.788462" lon="3.236544"><ele>326</ele></trkpt>
   <trkpt lat="45.788424" lon="3.237256"><ele>325.25</ele></trkpt>
   <trkpt lat="45.788417" lon="3.237692"><ele>325.25</ele></trkpt>
   <trkpt lat="45.788369" lon="3.238518"><ele>326</ele></trkpt>
   <trkpt lat="45.788328" lon="3.238509"><ele>325.75</ele></trkpt>
   <trkpt lat="45.788325" lon="3.238552"><ele>325.75</ele></trkpt>
   <trkpt lat="45.788319" lon="3.238622"><ele>325.75</ele></trkpt>
   <trkpt lat="45.788201" lon="3.242048"><ele>322.5</ele></trkpt>
   <trkpt lat="45.788178" lon="3.242124"><ele>322.25</ele></trkpt>
   <trkpt lat="45.788141" lon="3.242197"><ele>322</ele></trkpt>
   <trkpt lat="45.788063" lon="3.242229"><ele>321.5</ele></trkpt>
   <trkpt lat="45.78754" lon="3.242098"><ele>318</ele></trkpt>
   <trkpt lat="45.787246" lon="3.241999"><ele>320</ele></trkpt>
   <trkpt lat="45.786589" lon="3.241778"><ele>320</ele></trkpt>
   <trkpt lat="45.786274" lon="3.241651"><ele>322</ele></trkpt>
   <trkpt lat="45.786104" lon="3.241561"><ele>321.5</ele></trkpt>
   <trkpt lat="45.785835" lon="3.241372"><ele>323</ele></trkpt>
   <trkpt lat="45.78566" lon="3.241326"><ele>323</ele></trkpt>
   <trkpt lat="45.785579" lon="3.241328"><ele>323</ele></trkpt>
   <trkpt lat="45.785389" lon="3.241367"><ele>324</ele></trkpt>
   <trkpt lat="45.785118" lon="3.241424"><ele>324</ele></trkpt>
   <trkpt lat="45.784885" lon="3.241483"><ele>324.25</ele></trkpt>
   <trkpt lat="45.784791" lon="3.241522"><ele>324.25</ele></trkpt>
   <trkpt lat="45.783867" lon="3.242076"><ele>324.5</ele></trkpt>
   <trkpt lat="45.783318" lon="3.242316"><ele>323.25</ele></trkpt>
   <trkpt lat="45.783217" lon="3.242388"><ele>322.75</ele></trkpt>
   <trkpt lat="45.783109" lon="3.242482"><ele>322.5</ele></trkpt>
   <trkpt lat="45.782632" lon="3.242926"><ele>318.75</ele></trkpt>
   <trkpt lat="45.782467" lon="3.243049"><ele>318</ele></trkpt>
   <trkpt lat="45.782292" lon="3.243142"><ele>316.75</ele></trkpt>
   <trkpt lat="45.781666" lon="3.243363"><ele>316.75</ele></trkpt>
   <trkpt lat="45.781303" lon="3.24341"><ele>317.5</ele></trkpt>
   <trkpt lat="45.7811" lon="3.243436"><ele>317.5</ele></trkpt>
   <trkpt lat="45.781057" lon="3.243476"><ele>317.5</ele></trkpt>
   <trkpt lat="45.781035" lon="3.243522"><ele>317.5</ele></trkpt>
   <trkpt lat="45.781027" lon="3.243573"><ele>317.25</ele></trkpt>
   <trkpt lat="45.781007" lon="3.244076"><ele>315.25</ele></trkpt>
   <trkpt lat="45.780986" lon="3.244317"><ele>314.25</ele></trkpt>
   <trkpt lat="45.780972" lon="3.244429"><ele>314</ele></trkpt>
   <trkpt lat="45.780944" lon="3.244497"><ele>314</ele></trkpt>
   <trkpt lat="45.780912" lon="3.244522"><ele>314.25</ele></trkpt>
   <trkpt lat="45.780882" lon="3.244524"><ele>314.25</ele></trkpt>
   <trkpt lat="45.780804" lon="3.244506"><ele>314.5</ele></trkpt>
   <trkpt lat="45.780645" lon="3.244471"><ele>314.5</ele></trkpt>
   <trkpt lat="45.780407" lon="3.244429"><ele>315.5</ele></trkpt>
   <trkpt lat="45.780227" lon="3.244439"><ele>316</ele></trkpt>
   <trkpt lat="45.77997" lon="3.244507"><ele>315.75</ele></trkpt>
   <trkpt lat="45.779438" lon="3.244634"><ele>316</ele></trkpt>
   <trkpt lat="45.779277" lon="3.244661"><ele>316</ele></trkpt>
   <trkpt lat="45.779107" lon="3.244674"><ele>315.75</ele></trkpt>
   <trkpt lat="45.779026" lon="3.24467"><ele>315.5</ele></trkpt>
   <trkpt lat="45.778909" lon="3.244642"><ele>315.25</ele></trkpt>
   <trkpt lat="45.778611" lon="3.244503"><ele>315.5</ele></trkpt>
   <trkpt lat="45.77831" lon="3.244296"><ele>315.25</ele></trkpt>
   <trkpt lat="45.778192" lon="3.244179"><ele>315.25</ele></trkpt>
   <trkpt lat="45.777859" lon="3.24376"><ele>315.25</ele></trkpt>
   <trkpt lat="45.777742" lon="3.24359"><ele>316.25</ele></trkpt>
   <trkpt lat="45.777682" lon="3.243357"><ele>315.75</ele></trkpt>
   <trkpt lat="45.777555" lon="3.2427"><ele>317.25</ele></trkpt>
   <trkpt lat="45.777526" lon="3.242443"><ele>318.25</ele></trkpt>
   <trkpt lat="45.777529" lon="3.24226"><ele>319</ele></trkpt>
   <trkpt lat="45.777553" lon="3.242094"><ele>317.75</ele></trkpt>
   <trkpt lat="45.777751" lon="3.241381"><ele>317</ele></trkpt>
   <trkpt lat="45.777929" lon="3.240967"><ele>315</ele></trkpt>
   <trkpt lat="45.778257" lon="3.240348"><ele>315.25</ele></trkpt>
   <trkpt lat="45.7784" lon="3.240023"><ele>316</ele></trkpt>
   <trkpt lat="45.778437" lon="3.239863"><ele>315</ele></trkpt>
   <trkpt lat="45.778453" lon="3.239747"><ele>314.25</ele></trkpt>
   <trkpt lat="45.778497" lon="3.23944"><ele>314.25</ele></trkpt>
   <trkpt lat="45.778511" lon="3.239271"><ele>314.75</ele></trkpt>
   <trkpt lat="45.778548" lon="3.239105"><ele>314.75</ele></trkpt>
   <trkpt lat="45.778602" lon="3.239023"><ele>314.75</ele></trkpt>
   <trkpt lat="45.778676" lon="3.238957"><ele>314.75</ele></trkpt>
   <trkpt lat="45.778745" lon="3.238879"><ele>314.75</ele></trkpt>
   <trkpt lat="45.778785" lon="3.238791"><ele>314.75</ele></trkpt>
   <trkpt lat="45.778881" lon="3.238403"><ele>315</ele></trkpt>
   <trkpt lat="45.778906" lon="3.238219"><ele>315</ele></trkpt>
   <trkpt lat="45.77889" lon="3.238046"><ele>315</ele></trkpt>
   <trkpt lat="45.778858" lon="3.237898"><ele>315</ele></trkpt>
   <trkpt lat="45.778807" lon="3.237763"><ele>314.75</ele></trkpt>
   <trkpt lat="45.778703" lon="3.237505"><ele>314.5</ele></trkpt>
   <trkpt lat="45.77853" lon="3.23717"><ele>315</ele></trkpt>
   <trkpt lat="45.778145" lon="3.236763"><ele>315.25</ele></trkpt>
   <trkpt lat="45.778009" lon="3.236674"><ele>315.75</ele></trkpt>
   <trkpt lat="45.777853" lon="3.236623"><ele>316.75</ele></trkpt>
   <trkpt lat="45.777728" lon="3.236612"><ele>316.75</ele></trkpt>
   <trkpt lat="45.777512" lon="3.236565"><ele>316.75</ele></trkpt>
   <trkpt lat="45.777246" lon="3.236382"><ele>316.5</ele></trkpt>
   <trkpt lat="45.776962" lon="3.235977"><ele>316.25</ele></trkpt>
   <trkpt lat="45.776625" lon="3.23566"><ele>316.5</ele></trkpt>
   <trkpt lat="45.77635" lon="3.235482"><ele>317.5</ele></trkpt>
   <trkpt lat="45.776143" lon="3.235439"><ele>316.75</ele></trkpt>
   <trkpt lat="45.775838" lon="3.235349"><ele>316.75</ele></trkpt>
   <trkpt lat="45.775603" lon="3.235213"><ele>317</ele></trkpt>
   <trkpt lat="45.775335" lon="3.235041"><ele>317.5</ele></trkpt>
   <trkpt lat="45.775236" lon="3.235044"><ele>318.25</ele></trkpt>
   <trkpt lat="45.775186" lon="3.235083"><ele>318.75</ele></trkpt>
   <trkpt lat="45.775143" lon="3.23514"><ele>319</ele></trkpt>
   <trkpt lat="45.775077" lon="3.235342"><ele>318.25</ele></trkpt>
   <trkpt lat="45.774971" lon="3.235895"><ele>315.25</ele></trkpt>
   <trkpt lat="45.774871" lon="3.236531"><ele>317.25</ele></trkpt>
   <trkpt lat="45.774811" lon="3.237026"><ele>316</ele></trkpt>
   <trkpt lat="45.774768" lon="3.237143"><ele>314.25</ele></trkpt>
   <trkpt lat="45.774766" lon="3.237149"><ele>314.25</ele></trkpt>
   <trkpt lat="45.774727" lon="3.237179"><ele>313.75</ele></trkpt>
   <trkpt lat="45.774678" lon="3.237181"><ele>313.5</ele></trkpt>
   <trkpt lat="45.774532" lon="3.237118"><ele>313.5</ele></trkpt>
   <trkpt lat="45.774494" lon="3.237067"><ele>313.5</ele></trkpt>
   <trkpt lat="45.774469" lon="3.237012"><ele>313.25</ele></trkpt>
   <trkpt lat="45.774463" lon="3.236946"><ele>313.25</ele></trkpt>
   <trkpt lat="45.7746" lon="3.236013"><ele>317</ele></trkpt>
   <trkpt lat="45.774696" lon="3.235252"><ele>315.75</ele></trkpt>
   <trkpt lat="45.774712" lon="3.234999"><ele>316.75</ele></trkpt>
   <trkpt lat="45.77469" lon="3.234872"><ele>317.25</ele></trkpt>
   <trkpt lat="45.774636" lon="3.234726"><ele>317.25</ele></trkpt>
   <trkpt lat="45.774524" lon="3.234591"><ele>317.25</ele></trkpt>
   <trkpt lat="45.774347" lon="3.234463"><ele>316.25</ele></trkpt>
   <trkpt lat="45.774233" lon="3.234382"><ele>316.25</ele></trkpt>
   <trkpt lat="45.774081" lon="3.234307"><ele>315.75</ele></trkpt>
   <trkpt lat="45.773808" lon="3.235175"><ele>315.25</ele></trkpt>
   <trkpt lat="45.773523" lon="3.236015"><ele>315.75</ele></trkpt>
   <trkpt lat="45.773504" lon="3.236074"><ele>315</ele></trkpt>
   <trkpt lat="45.773488" lon="3.236128"><ele>315</ele></trkpt>
   <trkpt lat="45.773216" lon="3.236942"><ele>315</ele></trkpt>
   <trkpt lat="45.772893" lon="3.237895"><ele>315.25</ele></trkpt>
   <trkpt lat="45.772881" lon="3.237934"><ele>315.25</ele></trkpt>
   <trkpt lat="45.772872" lon="3.237963"><ele>316</ele></trkpt>
   <trkpt lat="45.772619" lon="3.238673"><ele>318</ele></trkpt>
   <trkpt lat="45.772582" lon="3.238759"><ele>318.25</ele></trkpt>
   <trkpt lat="45.772475" lon="3.238758"><ele>318.5</ele></trkpt>
   <trkpt lat="45.772149" lon="3.238657"><ele>318.25</ele></trkpt>
   <trkpt lat="45.772039" lon="3.238636"><ele>318</ele></trkpt>
   <trkpt lat="45.772084" lon="3.238348"><ele>317</ele></trkpt>
   <trkpt lat="45.772122" lon="3.238068"><ele>316.25</ele></trkpt>
   <trkpt lat="45.772184" lon="3.237635"><ele>313.5</ele></trkpt>
   <trkpt lat="45.771859" lon="3.237624"><ele>314</ele></trkpt>
   <trkpt lat="45.771804" lon="3.237547"><ele>314</ele></trkpt>
   <trkpt lat="45.771682" lon="3.237506"><ele>314.75</ele></trkpt>
   <trkpt lat="45.771465" lon="3.237438"><ele>314.75</ele></trkpt>
   <trkpt lat="45.771428" lon="3.237416"><ele>314.75</ele></trkpt>
   <trkpt lat="45.771374" lon="3.237344"><ele>315</ele></trkpt>
   <trkpt lat="45.77137" lon="3.237337"><ele>314.5</ele></trkpt>
   <trkpt lat="45.77128" lon="3.237127"><ele>314.5</ele></trkpt>
   <trkpt lat="45.77126" lon="3.237029"><ele>314.25</ele></trkpt>
   <trkpt lat="45.771216" lon="3.236922"><ele>313.75</ele></trkpt>
   <trkpt lat="45.771086" lon="3.236698"><ele>314</ele></trkpt>
   <trkpt lat="45.771056" lon="3.236598"><ele>314</ele></trkpt>
   <trkpt lat="45.771038" lon="3.236471"><ele>314</ele></trkpt>
   <trkpt lat="45.77102" lon="3.236169"><ele>314</ele></trkpt>
   <trkpt lat="45.771063" lon="3.23508"><ele>313</ele></trkpt>
   <trkpt lat="45.771017" lon="3.234958"><ele>313.25</ele></trkpt>
   <trkpt lat="45.770942" lon="3.234888"><ele>313.5</ele></trkpt>
   <trkpt lat="45.770881" lon="3.234886"><ele>313.75</ele></trkpt>
   <trkpt lat="45.770844" lon="3.234899"><ele>313.75</ele></trkpt>
   <trkpt lat="45.770808" lon="3.234927"><ele>314</ele></trkpt>
   <trkpt lat="45.770752" lon="3.23499"><ele>314</ele></trkpt>
   <trkpt lat="45.770698" lon="3.23503"><ele>314</ele></trkpt>
   <trkpt lat="45.770573" lon="3.235066"><ele>314</ele></trkpt>
   <trkpt lat="45.770449" lon="3.235108"><ele>313.75</ele></trkpt>
   <trkpt lat="45.770404" lon="3.235147"><ele>313.5</ele></trkpt>
   <trkpt lat="45.770374" lon="3.235188"><ele>313.75</ele></trkpt>
   <trkpt lat="45.770097" lon="3.235723"><ele>313.75</ele></trkpt>
   <trkpt lat="45.770006" lon="3.2359"><ele>313.75</ele></trkpt>
   <trkpt lat="45.769843" lon="3.236198"><ele>313.5</ele></trkpt>
   <trkpt lat="45.769788" lon="3.236294"><ele>313.75</ele></trkpt>
   <trkpt lat="45.769724" lon="3.236372"><ele>313.75</ele></trkpt>
   <trkpt lat="45.769386" lon="3.23659"><ele>314</ele></trkpt>
   <trkpt lat="45.769288" lon="3.236613"><ele>314</ele></trkpt>
   <trkpt lat="45.769228" lon="3.236599"><ele>314</ele></trkpt>
   <trkpt lat="45.768801" lon="3.236413"><ele>314</ele></trkpt>
   <trkpt lat="45.768409" lon="3.236144"><ele>314</ele></trkpt>
   <trkpt lat="45.767866" lon="3.235845"><ele>314</ele></trkpt>
   <trkpt lat="45.767496" lon="3.235613"><ele>314</ele></trkpt>
   <trkpt lat="45.767087" lon="3.235453"><ele>314</ele></trkpt>
   <trkpt lat="45.766485" lon="3.235135"><ele>315</ele></trkpt>
   <trkpt lat="45.766329" lon="3.235066"><ele>315</ele></trkpt>
   <trkpt lat="45.766239" lon="3.235014"><ele>315</ele></trkpt>
   <trkpt lat="45.766157" lon="3.234938"><ele>315</ele></trkpt>
   <trkpt lat="45.766065" lon="3.234873"><ele>315</ele></trkpt>
   <trkpt lat="45.765497" lon="3.234555"><ele>315</ele></trkpt>
   <trkpt lat="45.765275" lon="3.234414"><ele>315</ele></trkpt>
   <trkpt lat="45.765222" lon="3.234389"><ele>315</ele></trkpt>
   <trkpt lat="45.765156" lon="3.234394"><ele>315</ele></trkpt>
   <trkpt lat="45.764534" lon="3.234549"><ele>315.5</ele></trkpt>
   <trkpt lat="45.7642" lon="3.234619"><ele>316</ele></trkpt>
   <trkpt lat="45.764086" lon="3.234635"><ele>316</ele></trkpt>
   <trkpt lat="45.763978" lon="3.234619"><ele>316</ele></trkpt>
   <trkpt lat="45.763883" lon="3.234576"><ele>316</ele></trkpt>
   <trkpt lat="45.76374" lon="3.234427"><ele>316</ele></trkpt>
   <trkpt lat="45.763407" lon="3.233746"><ele>315.75</ele></trkpt>
   <trkpt lat="45.763111" lon="3.233818"><ele>316</ele></trkpt>
   <trkpt lat="45.762816" lon="3.233842"><ele>316</ele></trkpt>
   <trkpt lat="45.762587" lon="3.233835"><ele>316.5</ele></trkpt>
   <trkpt lat="45.76238" lon="3.233767"><ele>317.5</ele></trkpt>
   <trkpt lat="45.761925" lon="3.233544"><ele>318.25</ele></trkpt>
   <trkpt lat="45.761345" lon="3.233289"><ele>320.75</ele></trkpt>
   <trkpt lat="45.760915" lon="3.233028"><ele>320.75</ele></trkpt>
   <trkpt lat="45.760519" lon="3.232757"><ele>321</ele></trkpt>
   <trkpt lat="45.759915" lon="3.232267"><ele>322.75</ele></trkpt>
   <trkpt lat="45.75968" lon="3.232051"><ele>323.75</ele></trkpt>
   <trkpt lat="45.758744" lon="3.231287"><ele>323.75</ele></trkpt>
   <trkpt lat="45.758499" lon="3.231065"><ele>323.75</ele></trkpt>
   <trkpt lat="45.757434" lon="3.229949"><ele>323</ele></trkpt>
   <trkpt lat="45.757217" lon="3.229739"><ele>323</ele></trkpt>
   <trkpt lat="45.757156" lon="3.229679"><ele>322.75</ele></trkpt>
   <trkpt lat="45.75714" lon="3.229654"><ele>322.5</ele></trkpt>
   <trkpt lat="45.756945" lon="3.229299"><ele>321.25</ele></trkpt>
   <trkpt lat="45.756847" lon="3.229096"><ele>320.25</ele></trkpt>
   <trkpt lat="45.756829" lon="3.229058"><ele>320.25</ele></trkpt>
   <trkpt lat="45.756732" lon="3.228833"><ele>319</ele></trkpt>
   <trkpt lat="45.756618" lon="3.22844"><ele>317.25</ele></trkpt>
   <trkpt lat="45.75654" lon="3.228078"><ele>316.25</ele></trkpt>
   <trkpt lat="45.756531" lon="3.227952"><ele>316.25</ele></trkpt>
   <trkpt lat="45.756629" lon="3.227606"><ele>316.5</ele></trkpt>
   <trkpt lat="45.756654" lon="3.227497"><ele>317</ele></trkpt>
   <trkpt lat="45.756657" lon="3.227381"><ele>317</ele></trkpt>
   <trkpt lat="45.756634" lon="3.227275"><ele>317</ele></trkpt>
   <trkpt lat="45.75649" lon="3.226781"><ele>317</ele></trkpt>
   <trkpt lat="45.756416" lon="3.226488"><ele>316.75</ele></trkpt>
   <trkpt lat="45.75635" lon="3.226291"><ele>316.5</ele></trkpt>
   <trkpt lat="45.75612" lon="3.225186"><ele>316.75</ele></trkpt>
   <trkpt lat="45.755756" lon="3.223423"><ele>317</ele></trkpt>
   <trkpt lat="45.755735" lon="3.223329"><ele>317.25</ele></trkpt>
   <trkpt lat="45.755734" lon="3.223326"><ele>317.25</ele></trkpt>
   <trkpt lat="45.755136" lon="3.220694"><ele>318</ele></trkpt>
   <trkpt lat="45.755086" lon="3.220627"><ele>318</ele></trkpt>
   <trkpt lat="45.754861" lon="3.220504"><ele>318</ele></trkpt>
   <trkpt lat="45.754736" lon="3.220387"><ele>318</ele></trkpt>
   <trkpt lat="45.754527" lon="3.220168"><ele>318</ele></trkpt>
   <trkpt lat="45.754522" lon="3.220163"><ele>318</ele></trkpt>
   <trkpt lat="45.754436" lon="3.220088"><ele>318</ele></trkpt>
   <trkpt lat="45.754359" lon="3.220041"><ele>318</ele></trkpt>
   <trkpt lat="45.754269" lon="3.220041"><ele>318</ele></trkpt>
   <trkpt lat="45.754201" lon="3.220071"><ele>318</ele></trkpt>
   <trkpt lat="45.754139" lon="3.220118"><ele>317.75</ele></trkpt>
   <trkpt lat="45.753965" lon="3.220281"><ele>318.5</ele></trkpt>
   <trkpt lat="45.753703" lon="3.220491"><ele>318.25</ele></trkpt>
   <trkpt lat="45.753582" lon="3.220577"><ele>318.5</ele></trkpt>
   <trkpt lat="45.753457" lon="3.220651"><ele>317.75</ele></trkpt>
   <trkpt lat="45.753191" lon="3.220791"><ele>317.5</ele></trkpt>
   <trkpt lat="45.752539" lon="3.221079"><ele>317.75</ele></trkpt>
   <trkpt lat="45.752427" lon="3.22111"><ele>317.75</ele></trkpt>
   <trkpt lat="45.752318" lon="3.221101"><ele>317.75</ele></trkpt>
   <trkpt lat="45.752023" lon="3.221054"><ele>317.75</ele></trkpt>
   <trkpt lat="45.751702" lon="3.220993"><ele>317.5</ele></trkpt>
   <trkpt lat="45.751014" lon="3.220834"><ele>318.75</ele></trkpt>
   <trkpt lat="45.750342" lon="3.220664"><ele>318.5</ele></trkpt>
   <trkpt lat="45.749521" lon="3.22051"><ele>319</ele></trkpt>
   <trkpt lat="45.749401" lon="3.220439"><ele>319</ele></trkpt>
   <trkpt lat="45.7494" lon="3.220438"><ele>319</ele></trkpt>
   <trkpt lat="45.749383" lon="3.220365"><ele>319</ele></trkpt>
   <trkpt lat="45.749401" lon="3.220274"><ele>319</ele></trkpt>
   <trkpt lat="45.749515" lon="3.220055"><ele>318.75</ele></trkpt>
   <trkpt lat="45.749929" lon="3.219039"><ele>318.5</ele></trkpt>
   <trkpt lat="45.750096" lon="3.218629"><ele>318.5</ele></trkpt>
   <trkpt lat="45.750152" lon="3.218472"><ele>318.5</ele></trkpt>
   <trkpt lat="45.750121" lon="3.218461"><ele>318.75</ele></trkpt>
   <trkpt lat="45.750077" lon="3.218447"><ele>318.75</ele></trkpt>
   <trkpt lat="45.749886" lon="3.218471"><ele>318.75</ele></trkpt>
   <trkpt lat="45.749759" lon="3.2185"><ele>318.25</ele></trkpt>
   <trkpt lat="45.749027" lon="3.217984"><ele>317.75</ele></trkpt>
   <trkpt lat="45.748834" lon="3.217808"><ele>317.75</ele></trkpt>
   <trkpt lat="45.74865" lon="3.217614"><ele>317.5</ele></trkpt>
   <trkpt lat="45.748281" lon="3.217224"><ele>318</ele></trkpt>
   <trkpt lat="45.747906" lon="3.216872"><ele>317.75</ele></trkpt>
   <trkpt lat="45.747806" lon="3.216789"><ele>317.75</ele></trkpt>
   <trkpt lat="45.747711" lon="3.216734"><ele>318</ele></trkpt>
   <trkpt lat="45.747587" lon="3.216677"><ele>318</ele></trkpt>
   <trkpt lat="45.747223" lon="3.216554"><ele>318</ele></trkpt>
   <trkpt lat="45.747089" lon="3.216514"><ele>318.25</ele></trkpt>
   <trkpt lat="45.746938" lon="3.216487"><ele>318.5</ele></trkpt>
   <trkpt lat="45.746807" lon="3.21648"><ele>318.25</ele></trkpt>
   <trkpt lat="45.74666" lon="3.216488"><ele>317.75</ele></trkpt>
   <trkpt lat="45.746221" lon="3.216471"><ele>318.5</ele></trkpt>
   <trkpt lat="45.746144" lon="3.216345"><ele>319.25</ele></trkpt>
   <trkpt lat="45.74606" lon="3.216253"><ele>319.25</ele></trkpt>
   <trkpt lat="45.745887" lon="3.216207"><ele>319.5</ele></trkpt>
   <trkpt lat="45.745575" lon="3.216214"><ele>319.75</ele></trkpt>
   <trkpt lat="45.745333" lon="3.216248"><ele>320</ele></trkpt>
   <trkpt lat="45.745134" lon="3.216302"><ele>319.5</ele></trkpt>
   <trkpt lat="45.745009" lon="3.216355"><ele>319</ele></trkpt>
   <trkpt lat="45.744549" lon="3.216616"><ele>320</ele></trkpt>
   <trkpt lat="45.7444" lon="3.216659"><ele>320</ele></trkpt>
   <trkpt lat="45.744305" lon="3.216734"><ele>320</ele></trkpt>
   <trkpt lat="45.744227" lon="3.216687"><ele>320</ele></trkpt>
   <trkpt lat="45.744017" lon="3.21664"><ele>320</ele></trkpt>
   <trkpt lat="45.743756" lon="3.216634"><ele>320</ele></trkpt>
   <trkpt lat="45.743483" lon="3.216648"><ele>320</ele></trkpt>
   <trkpt lat="45.742941" lon="3.216657"><ele>320</ele></trkpt>
   <trkpt lat="45.742786" lon="3.216681"><ele>319.75</ele></trkpt>
   <trkpt lat="45.742668" lon="3.216696"><ele>320</ele></trkpt>
   <trkpt lat="45.74237" lon="3.216783"><ele>320</ele></trkpt>
   <trkpt lat="45.742275" lon="3.216794"><ele>319.75</ele></trkpt>
   <trkpt lat="45.742176" lon="3.216741"><ele>320</ele></trkpt>
   <trkpt lat="45.742094" lon="3.216677"><ele>320.25</ele></trkpt>
   <trkpt lat="45.741893" lon="3.216465"><ele>321</ele></trkpt>
   <trkpt lat="45.741752" lon="3.216355"><ele>320.75</ele></trkpt>
   <trkpt lat="45.741636" lon="3.21628"><ele>320.5</ele></trkpt>
   <trkpt lat="45.7415" lon="3.216236"><ele>320.75</ele></trkpt>
   <trkpt lat="45.741435" lon="3.21625"><ele>320.75</ele></trkpt>
   <trkpt lat="45.741171" lon="3.216384"><ele>321</ele></trkpt>
   <trkpt lat="45.741001" lon="3.216485"><ele>321.25</ele></trkpt>
   <trkpt lat="45.740789" lon="3.216595"><ele>321.25</ele></trkpt>
   <trkpt lat="45.740625" lon="3.216647"><ele>321</ele></trkpt>
   <trkpt lat="45.740519" lon="3.216671"><ele>321</ele></trkpt>
   <trkpt lat="45.740419" lon="3.216674"><ele>321</ele></trkpt>
   <trkpt lat="45.740265" lon="3.216653"><ele>321</ele></trkpt>
   <trkpt lat="45.740026" lon="3.216641"><ele>321.25</ele></trkpt>
   <trkpt lat="45.739566" lon="3.216657"><ele>323.5</ele></trkpt>
   <trkpt lat="45.73952" lon="3.216662"><ele>323.5</ele></trkpt>
   <trkpt lat="45.73944" lon="3.216253"><ele>324.25</ele></trkpt>
   <trkpt lat="45.739376" lon="3.215514"><ele>326</ele></trkpt>
   <trkpt lat="45.739379" lon="3.215421"><ele>326</ele></trkpt>
   <trkpt lat="45.739381" lon="3.215371"><ele>326</ele></trkpt>
   <trkpt lat="45.739405" lon="3.215274"><ele>326</ele></trkpt>
   <trkpt lat="45.73944" lon="3.215136"><ele>326.5</ele></trkpt>
   <trkpt lat="45.73933" lon="3.215131"><ele>326.5</ele></trkpt>
   <trkpt lat="45.739302" lon="3.215116"><ele>326.75</ele></trkpt>
   <trkpt lat="45.739239" lon="3.215052"><ele>326.75</ele></trkpt>
   <trkpt lat="45.739142" lon="3.214976"><ele>327</ele></trkpt>
   <trkpt lat="45.73907" lon="3.214959"><ele>327</ele></trkpt>
   <trkpt lat="45.738671" lon="3.214923"><ele>327.25</ele></trkpt>
   <trkpt lat="45.738133" lon="3.214855"><ele>327.5</ele></trkpt>
   <trkpt lat="45.737473" lon="3.214746"><ele>327.75</ele></trkpt>
   <trkpt lat="45.736534" lon="3.214575"><ele>328.25</ele></trkpt>
   <trkpt lat="45.73648" lon="3.21457"><ele>328.25</ele></trkpt>
   <trkpt lat="45.736412" lon="3.214584"><ele>328.25</ele></trkpt>
   <trkpt lat="45.736334" lon="3.214576"><ele>328.25</ele></trkpt>
   <trkpt lat="45.736276" lon="3.214569"><ele>328.25</ele></trkpt>
   <trkpt lat="45.736208" lon="3.214512"><ele>328.5</ele></trkpt>
   <trkpt lat="45.735856" lon="3.214384"><ele>329</ele></trkpt>
   <trkpt lat="45.735594" lon="3.214279"><ele>329.75</ele></trkpt>
   <trkpt lat="45.735579" lon="3.214308"><ele>329.75</ele></trkpt>
   <trkpt lat="45.735484" lon="3.214493"><ele>329.5</ele></trkpt>
   <trkpt lat="45.735364" lon="3.214566"><ele>329.25</ele></trkpt>
   <trkpt lat="45.735203" lon="3.214602"><ele>329.25</ele></trkpt>
   <trkpt lat="45.734986" lon="3.214627"><ele>329.25</ele></trkpt>
   <trkpt lat="45.734262" lon="3.214575"><ele>330</ele></trkpt>
   <trkpt lat="45.734062" lon="3.214535"><ele>329.75</ele></trkpt>
   <trkpt lat="45.733896" lon="3.214491"><ele>329.5</ele></trkpt>
   <trkpt lat="45.733718" lon="3.21439"><ele>330</ele></trkpt>
   <trkpt lat="45.733425" lon="3.214188"><ele>330</ele></trkpt>
   <trkpt lat="45.733062" lon="3.213912"><ele>330.75</ele></trkpt>
   <trkpt lat="45.732593" lon="3.213555"><ele>331</ele></trkpt>
   <trkpt lat="45.732305" lon="3.213312"><ele>331.25</ele></trkpt>
   <trkpt lat="45.732044" lon="3.212994"><ele>332</ele></trkpt>
   <trkpt lat="45.731625" lon="3.212591"><ele>331.75</ele></trkpt>
   <trkpt lat="45.731159" lon="3.212268"><ele>332.75</ele></trkpt>
   <trkpt lat="45.730659" lon="3.211946"><ele>331.5</ele></trkpt>
   <trkpt lat="45.730511" lon="3.211851"><ele>330.75</ele></trkpt>
   <trkpt lat="45.730439" lon="3.211862"><ele>330.75</ele></trkpt>
   <trkpt lat="45.73033" lon="3.211953"><ele>330</ele></trkpt>
   <trkpt lat="45.730222" lon="3.212075"><ele>329.75</ele></trkpt>
   <trkpt lat="45.730119" lon="3.212226"><ele>327.5</ele></trkpt>
   <trkpt lat="45.730092" lon="3.212276"><ele>326.25</ele></trkpt>
   <trkpt lat="45.729486" lon="3.213551"><ele>324.25</ele></trkpt>
   <trkpt lat="45.729477" lon="3.213577"><ele>325</ele></trkpt>
   <trkpt lat="45.729477" lon="3.213608"><ele>325.75</ele></trkpt>
   <trkpt lat="45.729499" lon="3.213662"><ele>325.25</ele></trkpt>
   <trkpt lat="45.729497" lon="3.21371"><ele>325.25</ele></trkpt>
   <trkpt lat="45.729456" lon="3.213817"><ele>326</ele></trkpt>
   <trkpt lat="45.729429" lon="3.213795"><ele>326.25</ele></trkpt>
   <trkpt lat="45.729277" lon="3.214128"><ele>325.75</ele></trkpt>
   <trkpt lat="45.729312" lon="3.214154"><ele>325.25</ele></trkpt>
   <trkpt lat="45.729348" lon="3.214153"><ele>325</ele></trkpt>
   <trkpt lat="45.729381" lon="3.214124"><ele>324.75</ele></trkpt>
   <trkpt lat="45.729414" lon="3.214071"><ele>324.75</ele></trkpt>
   <trkpt lat="45.729455" lon="3.213977"><ele>325</ele></trkpt>
   <trkpt lat="45.729545" lon="3.213936"><ele>324.25</ele></trkpt>
   <trkpt lat="45.729615" lon="3.213943"><ele>322.75</ele></trkpt>
   <trkpt lat="45.729545" lon="3.213936"><ele>324.25</ele></trkpt>
   <trkpt lat="45.729455" lon="3.213977"><ele>325</ele></trkpt>
   <trkpt lat="45.729414" lon="3.214071"><ele>324.75</ele></trkpt>
   <trkpt lat="45.729381" lon="3.214124"><ele>324.75</ele></trkpt>
   <trkpt lat="45.729348" lon="3.214153"><ele>325</ele></trkpt>
   <trkpt lat="45.729312" lon="3.214154"><ele>325.25</ele></trkpt>
   <trkpt lat="45.729277" lon="3.214128"><ele>325.75</ele></trkpt>
   <trkpt lat="45.729429" lon="3.213795"><ele>326.25</ele></trkpt>
   <trkpt lat="45.729442" lon="3.213731"><ele>326.5</ele></trkpt>
   <trkpt lat="45.729433" lon="3.213686"><ele>326.75</ele></trkpt>
   <trkpt lat="45.7294" lon="3.213621"><ele>327.25</ele></trkpt>
   <trkpt lat="45.729293" lon="3.21385"><ele>326.75</ele></trkpt>
   <trkpt lat="45.728955" lon="3.214573"><ele>325.75</ele></trkpt>
   <trkpt lat="45.728806" lon="3.214914"><ele>324.75</ele></trkpt>
   <trkpt lat="45.728703" lon="3.215228"><ele>323.75</ele></trkpt>
   <trkpt lat="45.728626" lon="3.215533"><ele>323.75</ele></trkpt>
   <trkpt lat="45.728607" lon="3.215663"><ele>323.5</ele></trkpt>
   <trkpt lat="45.728582" lon="3.215884"><ele>323</ele></trkpt>
   <trkpt lat="45.728566" lon="3.21638"><ele>323</ele></trkpt>
   <trkpt lat="45.728589" lon="3.216653"><ele>323</ele></trkpt>
   <trkpt lat="45.728628" lon="3.217005"><ele>323.5</ele></trkpt>
   <trkpt lat="45.728757" lon="3.218093"><ele>323</ele></trkpt>
   <trkpt lat="45.728789" lon="3.218403"><ele>323</ele></trkpt>
   <trkpt lat="45.72895" lon="3.219783"><ele>323</ele></trkpt>
   <trkpt lat="45.729094" lon="3.221016"><ele>322.5</ele></trkpt>
   <trkpt lat="45.729135" lon="3.221391"><ele>322.75</ele></trkpt>
   <trkpt lat="45.729171" lon="3.221724"><ele>322.75</ele></trkpt>
   <trkpt lat="45.729142" lon="3.222164"><ele>323</ele></trkpt>
   <trkpt lat="45.729154" lon="3.222464"><ele>322</ele></trkpt>
   <trkpt lat="45.729173" lon="3.222683"><ele>321.75</ele></trkpt>
   <trkpt lat="45.729168" lon="3.222737"><ele>321.75</ele></trkpt>
   <trkpt lat="45.729117" lon="3.222845"><ele>322.25</ele></trkpt>
   <trkpt lat="45.729061" lon="3.222936"><ele>322.5</ele></trkpt>
   <trkpt lat="45.728971" lon="3.22294"><ele>322.75</ele></trkpt>
   <trkpt lat="45.72884" lon="3.222901"><ele>323</ele></trkpt>
   <trkpt lat="45.728782" lon="3.222897"><ele>323</ele></trkpt>
   <trkpt lat="45.728694" lon="3.222912"><ele>323</ele></trkpt>
   <trkpt lat="45.728371" lon="3.222911"><ele>323</ele></trkpt>
   <trkpt lat="45.728343" lon="3.223964"><ele>322.75</ele></trkpt>
   <trkpt lat="45.728332" lon="3.224255"><ele>322.75</ele></trkpt>
   <trkpt lat="45.728326" lon="3.224571"><ele>322.75</ele></trkpt>
   <trkpt lat="45.728289" lon="3.227029"><ele>322.25</ele></trkpt>
   <trkpt lat="45.728288" lon="3.227125"><ele>322.5</ele></trkpt>
   <trkpt lat="45.728287" lon="3.227173"><ele>322.5</ele></trkpt>
   <trkpt lat="45.728163" lon="3.227071"><ele>322.5</ele></trkpt>
   <trkpt lat="45.727261" lon="3.226329"><ele>322.5</ele></trkpt>
   <trkpt lat="45.7263" lon="3.225525"><ele>325.5</ele></trkpt>
   <trkpt lat="45.726212" lon="3.225466"><ele>326.25</ele></trkpt>
   <trkpt lat="45.72597" lon="3.225304"><ele>328.75</ele></trkpt>
   <trkpt lat="45.725851" lon="3.225241"><ele>329.75</ele></trkpt>
   <trkpt lat="45.725742" lon="3.225194"><ele>330.25</ele></trkpt>
   <trkpt lat="45.725592" lon="3.225156"><ele>331</ele></trkpt>
   <trkpt lat="45.725101" lon="3.225069"><ele>332.75</ele></trkpt>
   <trkpt lat="45.72502" lon="3.225055"><ele>332.75</ele></trkpt>
   <trkpt lat="45.723601" lon="3.224785"><ele>334.5</ele></trkpt>
   <trkpt lat="45.723148" lon="3.224693"><ele>333</ele></trkpt>
   <trkpt lat="45.72287" lon="3.224646"><ele>333.75</ele></trkpt>
   <trkpt lat="45.722771" lon="3.224619"><ele>334.25</ele></trkpt>
   <trkpt lat="45.722459" lon="3.224532"><ele>335.25</ele></trkpt>
   <trkpt lat="45.721163" lon="3.224009"><ele>334.25</ele></trkpt>
   <trkpt lat="45.721076" lon="3.223974"><ele>334.25</ele></trkpt>
   <trkpt lat="45.719137" lon="3.223122"><ele>335</ele></trkpt>
   <trkpt lat="45.718153" lon="3.222698"><ele>335</ele></trkpt>
   <trkpt lat="45.717197" lon="3.222316"><ele>334.25</ele></trkpt>
   <trkpt lat="45.716935" lon="3.222211"><ele>333.5</ele></trkpt>
   <trkpt lat="45.716308" lon="3.22196"><ele>333.5</ele></trkpt>
   <trkpt lat="45.716039" lon="3.221852"><ele>334</ele></trkpt>
   <trkpt lat="45.715961" lon="3.221507"><ele>331</ele></trkpt>
   <trkpt lat="45.715875" lon="3.221375"><ele>331.25</ele></trkpt>
   <trkpt lat="45.715813" lon="3.221256"><ele>330.75</ele></trkpt>
   <trkpt lat="45.715789" lon="3.221111"><ele>329.5</ele></trkpt>
   <trkpt lat="45.715792" lon="3.221095"><ele>329.5</ele></trkpt>
   <trkpt lat="45.715776" lon="3.221001"><ele>329.25</ele></trkpt>
   <trkpt lat="45.715779" lon="3.220944"><ele>329</ele></trkpt>
   <trkpt lat="45.715812" lon="3.220839"><ele>328.75</ele></trkpt>
   <trkpt lat="45.715874" lon="3.220696"><ele>327.75</ele></trkpt>
   <trkpt lat="45.716195" lon="3.22008"><ele>324.5</ele></trkpt>
   <trkpt lat="45.716287" lon="3.219924"><ele>324.25</ele></trkpt>
   <trkpt lat="45.716388" lon="3.219774"><ele>324.75</ele></trkpt>
   <trkpt lat="45.716287" lon="3.219924"><ele>324.25</ele></trkpt>
   <trkpt lat="45.716195" lon="3.22008"><ele>324.5</ele></trkpt>
   <trkpt lat="45.715874" lon="3.220696"><ele>327.75</ele></trkpt>
   <trkpt lat="45.715812" lon="3.220839"><ele>328.75</ele></trkpt>
   <trkpt lat="45.715779" lon="3.220944"><ele>329</ele></trkpt>
   <trkpt lat="45.715776" lon="3.221001"><ele>329.25</ele></trkpt>
   <trkpt lat="45.715792" lon="3.221095"><ele>329.5</ele></trkpt>
   <trkpt lat="45.715789" lon="3.221111"><ele>329.5</ele></trkpt>
   <trkpt lat="45.715813" lon="3.221256"><ele>330.75</ele></trkpt>
   <trkpt lat="45.715875" lon="3.221375"><ele>331.25</ele></trkpt>
   <trkpt lat="45.715961" lon="3.221507"><ele>331</ele></trkpt>
   <trkpt lat="45.716039" lon="3.221852"><ele>334</ele></trkpt>
   <trkpt lat="45.715291" lon="3.221572"><ele>333.75</ele></trkpt>
   <trkpt lat="45.714341" lon="3.221132"><ele>335.25</ele></trkpt>
   <trkpt lat="45.713916" lon="3.220989"><ele>335</ele></trkpt>
   <trkpt lat="45.713324" lon="3.220793"><ele>333.5</ele></trkpt>
   <trkpt lat="45.712245" lon="3.220578"><ele>331</ele></trkpt>
   <trkpt lat="45.711993" lon="3.22051"><ele>330.5</ele></trkpt>
   <trkpt lat="45.710049" lon="3.219985"><ele>334.25</ele></trkpt>
   <trkpt lat="45.709351" lon="3.219795"><ele>337</ele></trkpt>
   <trkpt lat="45.709356" lon="3.219743"><ele>336.5</ele></trkpt>
   <trkpt lat="45.709337" lon="3.219652"><ele>335.25</ele></trkpt>
   <trkpt lat="45.709182" lon="3.219495"><ele>335</ele></trkpt>
   <trkpt lat="45.709008" lon="3.219302"><ele>333</ele></trkpt>
   <trkpt lat="45.708892" lon="3.219141"><ele>331.5</ele></trkpt>
   <trkpt lat="45.708798" lon="3.218964"><ele>330.25</ele></trkpt>
   <trkpt lat="45.70873" lon="3.218703"><ele>328.75</ele></trkpt>
   <trkpt lat="45.708732" lon="3.218153"><ele>325.75</ele></trkpt>
   <trkpt lat="45.708722" lon="3.217987"><ele>325.5</ele></trkpt>
   <trkpt lat="45.708688" lon="3.217824"><ele>325.75</ele></trkpt>
   <trkpt lat="45.708491" lon="3.21742"><ele>327</ele></trkpt>
   <trkpt lat="45.708364" lon="3.217248"><ele>326</ele></trkpt>
   <trkpt lat="45.708338" lon="3.217224"><ele>326</ele></trkpt>
   <trkpt lat="45.708378" lon="3.217091"><ele>325.5</ele></trkpt>
   <trkpt lat="45.708293" lon="3.217041"><ele>326</ele></trkpt>
   <trkpt lat="45.707968" lon="3.216897"><ele>327</ele></trkpt>
   <trkpt lat="45.707532" lon="3.21624"><ele>326.75</ele></trkpt>
   <trkpt lat="45.707378" lon="3.215972"><ele>327</ele></trkpt>
   <trkpt lat="45.707226" lon="3.215684"><ele>326.25</ele></trkpt>
   <trkpt lat="45.706928" lon="3.21519"><ele>327</ele></trkpt>
   <trkpt lat="45.706587" lon="3.214784"><ele>326.75</ele></trkpt>
   <trkpt lat="45.706172" lon="3.214285"><ele>327</ele></trkpt>
   <trkpt lat="45.705878" lon="3.213976"><ele>325.5</ele></trkpt>
   <trkpt lat="45.705735" lon="3.213886"><ele>325.25</ele></trkpt>
   <trkpt lat="45.704797" lon="3.212948"><ele>327.5</ele></trkpt>
   <trkpt lat="45.70449" lon="3.212585"><ele>327</ele></trkpt>
   <trkpt lat="45.70391" lon="3.211793"><ele>326.75</ele></trkpt>
   <trkpt lat="45.703437" lon="3.211333"><ele>327.25</ele></trkpt>
   <trkpt lat="45.702865" lon="3.210843"><ele>327</ele></trkpt>
   <trkpt lat="45.702686" lon="3.210653"><ele>326.5</ele></trkpt>
   <trkpt lat="45.702659" lon="3.210608"><ele>326.5</ele></trkpt>
   <trkpt lat="45.702643" lon="3.210574"><ele>326.5</ele></trkpt>
   <trkpt lat="45.702571" lon="3.210421"><ele>326.5</ele></trkpt>
   <trkpt lat="45.702481" lon="3.210304"><ele>327</ele></trkpt>
   <trkpt lat="45.702359" lon="3.210281"><ele>327.5</ele></trkpt>
   <trkpt lat="45.702267" lon="3.210297"><ele>327.75</ele></trkpt>
   <trkpt lat="45.702185" lon="3.210368"><ele>328</ele></trkpt>
   <trkpt lat="45.702071" lon="3.210527"><ele>328</ele></trkpt>
   <trkpt lat="45.70199" lon="3.210607"><ele>328</ele></trkpt>
   <trkpt lat="45.701236" lon="3.211085"><ele>327.5</ele></trkpt>
   <trkpt lat="45.701106" lon="3.211163"><ele>327.75</ele></trkpt>
   <trkpt lat="45.700984" lon="3.211211"><ele>327.75</ele></trkpt>
   <trkpt lat="45.700859" lon="3.211214"><ele>327.75</ele></trkpt>
   <trkpt lat="45.700257" lon="3.210777"><ele>328.75</ele></trkpt>
   <trkpt lat="45.700332" lon="3.210313"><ele>328</ele></trkpt>
   <trkpt lat="45.700328" lon="3.210161"><ele>328</ele></trkpt>
   <trkpt lat="45.700303" lon="3.210075"><ele>327.75</ele></trkpt>
   <trkpt lat="45.700221" lon="3.209947"><ele>328</ele></trkpt>
   <trkpt lat="45.699268" lon="3.209109"><ele>327.75</ele></trkpt>
   <trkpt lat="45.699108" lon="3.208984"><ele>328.25</ele></trkpt>
   <trkpt lat="45.69866" lon="3.208743"><ele>328.25</ele></trkpt>
   <trkpt lat="45.698337" lon="3.208609"><ele>328.75</ele></trkpt>
   <trkpt lat="45.697831" lon="3.208383"><ele>329</ele></trkpt>
   <trkpt lat="45.697634" lon="3.208263"><ele>328.75</ele></trkpt>
   <trkpt lat="45.697418" lon="3.208111"><ele>328.75</ele></trkpt>
   <trkpt lat="45.697059" lon="3.207811"><ele>328.5</ele></trkpt>
   <trkpt lat="45.696844" lon="3.207613"><ele>328.75</ele></trkpt>
   <trkpt lat="45.696629" lon="3.207366"><ele>329.5</ele></trkpt>
   <trkpt lat="45.696505" lon="3.207238"><ele>329.5</ele></trkpt>
   <trkpt lat="45.696147" lon="3.206982"><ele>329.75</ele></trkpt>
   <trkpt lat="45.695715" lon="3.206705"><ele>329.25</ele></trkpt>
   <trkpt lat="45.695541" lon="3.206638"><ele>329.75</ele></trkpt>
   <trkpt lat="45.695021" lon="3.206354"><ele>329.75</ele></trkpt>
   <trkpt lat="45.694386" lon="3.205974"><ele>329.5</ele></trkpt>
   <trkpt lat="45.69379" lon="3.205564"><ele>330</ele></trkpt>
   <trkpt lat="45.69319" lon="3.205197"><ele>330</ele></trkpt>
   <trkpt lat="45.692912" lon="3.205065"><ele>330.5</ele></trkpt>
   <trkpt lat="45.692288" lon="3.204829"><ele>330</ele></trkpt>
   <trkpt lat="45.69194" lon="3.204678"><ele>330.5</ele></trkpt>
   <trkpt lat="45.69166" lon="3.204505"><ele>331</ele></trkpt>
   <trkpt lat="45.69145" lon="3.204369"><ele>330.5</ele></trkpt>
   <trkpt lat="45.69143" lon="3.204353"><ele>331.25</ele></trkpt>
   <trkpt lat="45.690885" lon="3.203937"><ele>331.25</ele></trkpt>
   <trkpt lat="45.690722" lon="3.20383"><ele>331.25</ele></trkpt>
   <trkpt lat="45.69059" lon="3.203754"><ele>331</ele></trkpt>
   <trkpt lat="45.690209" lon="3.203673"><ele>331.25</ele></trkpt>
   <trkpt lat="45.689835" lon="3.203574"><ele>333</ele></trkpt>
   <trkpt lat="45.689761" lon="3.204764"><ele>332.75</ele></trkpt>
   <trkpt lat="45.689746" lon="3.204835"><ele>332.75</ele></trkpt>
   <trkpt lat="45.689698" lon="3.204917"><ele>332.75</ele></trkpt>
   <trkpt lat="45.689707" lon="3.204701"><ele>332.75</ele></trkpt>
   <trkpt lat="45.68972" lon="3.204392"><ele>333</ele></trkpt>
   <trkpt lat="45.689722" lon="3.204341"><ele>333.25</ele></trkpt>
   <trkpt lat="45.689766" lon="3.203352"><ele>330</ele></trkpt>
   <trkpt lat="45.689837" lon="3.201628"><ele>331.25</ele></trkpt>
   <trkpt lat="45.689845" lon="3.201446"><ele>331.5</ele></trkpt>
   <trkpt lat="45.689856" lon="3.201204"><ele>332</ele></trkpt>
   <trkpt lat="45.689831" lon="3.20088"><ele>333.25</ele></trkpt>
   <trkpt lat="45.689855" lon="3.200727"><ele>333.5</ele></trkpt>
   <trkpt lat="45.689897" lon="3.200682"><ele>333.25</ele></trkpt>
   <trkpt lat="45.68993" lon="3.200625"><ele>333.25</ele></trkpt>
   <trkpt lat="45.689959" lon="3.20054"><ele>333</ele></trkpt>
   <trkpt lat="45.689971" lon="3.200446"><ele>333</ele></trkpt>
   <trkpt lat="45.689964" lon="3.200351"><ele>333</ele></trkpt>
   <trkpt lat="45.690005" lon="3.200201"><ele>332.75</ele></trkpt>
   <trkpt lat="45.690135" lon="3.199977"><ele>332</ele></trkpt>
   <trkpt lat="45.690258" lon="3.199806"><ele>331.5</ele></trkpt>
   <trkpt lat="45.690379" lon="3.199683"><ele>331.5</ele></trkpt>
   <trkpt lat="45.690551" lon="3.19954"><ele>331</ele></trkpt>
   <trkpt lat="45.691388" lon="3.198967"><ele>330.5</ele></trkpt>
   <trkpt lat="45.691572" lon="3.19887"><ele>331</ele></trkpt>
   <trkpt lat="45.691774" lon="3.198783"><ele>330.75</ele></trkpt>
   <trkpt lat="45.691997" lon="3.198722"><ele>330.5</ele></trkpt>
   <trkpt lat="45.692241" lon="3.198694"><ele>330.5</ele></trkpt>
   <trkpt lat="45.692502" lon="3.198699"><ele>330.5</ele></trkpt>
   <trkpt lat="45.692791" lon="3.198765"><ele>329.75</ele></trkpt>
   <trkpt lat="45.693483" lon="3.199005"><ele>330</ele></trkpt>
   <trkpt lat="45.693682" lon="3.199045"><ele>329.75</ele></trkpt>
   <trkpt lat="45.693814" lon="3.199043"><ele>329.75</ele></trkpt>
   <trkpt lat="45.69396" lon="3.199025"><ele>330</ele></trkpt>
   <trkpt lat="45.694094" lon="3.198987"><ele>330.5</ele></trkpt>
   <trkpt lat="45.694245" lon="3.198916"><ele>330.75</ele></trkpt>
   <trkpt lat="45.694375" lon="3.198833"><ele>331</ele></trkpt>
   <trkpt lat="45.694517" lon="3.198702"><ele>331</ele></trkpt>
   <trkpt lat="45.69468" lon="3.198499"><ele>331</ele></trkpt>
   <trkpt lat="45.695298" lon="3.197579"><ele>330.75</ele></trkpt>
   <trkpt lat="45.695407" lon="3.197443"><ele>330.5</ele></trkpt>
   <trkpt lat="45.695548" lon="3.1973"><ele>330.5</ele></trkpt>
   <trkpt lat="45.695697" lon="3.197173"><ele>330.5</ele></trkpt>
   <trkpt lat="45.695845" lon="3.197061"><ele>330.5</ele></trkpt>
   <trkpt lat="45.695989" lon="3.196984"><ele>330.75</ele></trkpt>
   <trkpt lat="45.696285" lon="3.196867"><ele>331</ele></trkpt>
   <trkpt lat="45.69664" lon="3.196803"><ele>330.5</ele></trkpt>
   <trkpt lat="45.696828" lon="3.196813"><ele>331</ele></trkpt>
   <trkpt lat="45.696941" lon="3.196876"><ele>331</ele></trkpt>
   <trkpt lat="45.696998" lon="3.196915"><ele>331</ele></trkpt>
   <trkpt lat="45.69706" lon="3.196929"><ele>331</ele></trkpt>
   <trkpt lat="45.697122" lon="3.196917"><ele>331</ele></trkpt>
   <trkpt lat="45.697179" lon="3.196879"><ele>331</ele></trkpt>
   <trkpt lat="45.697226" lon="3.196819"><ele>330.75</ele></trkpt>
   <trkpt lat="45.697259" lon="3.196742"><ele>330.75</ele></trkpt>
   <trkpt lat="45.697347" lon="3.196591"><ele>330.5</ele></trkpt>
   <trkpt lat="45.697401" lon="3.196524"><ele>330.5</ele></trkpt>
   <trkpt lat="45.697485" lon="3.196459"><ele>330.75</ele></trkpt>
   <trkpt lat="45.697889" lon="3.196211"><ele>330.75</ele></trkpt>
   <trkpt lat="45.698029" lon="3.196161"><ele>330.75</ele></trkpt>
   <trkpt lat="45.698145" lon="3.196132"><ele>330.75</ele></trkpt>
   <trkpt lat="45.698354" lon="3.196108"><ele>331</ele></trkpt>
   <trkpt lat="45.698508" lon="3.196112"><ele>330.75</ele></trkpt>
   <trkpt lat="45.698739" lon="3.196152"><ele>330.75</ele></trkpt>
   <trkpt lat="45.698971" lon="3.196239"><ele>330.5</ele></trkpt>
   <trkpt lat="45.699086" lon="3.196299"><ele>330.75</ele></trkpt>
   <trkpt lat="45.699469" lon="3.196558"><ele>330.25</ele></trkpt>
   <trkpt lat="45.701328" lon="3.197896"><ele>329.75</ele></trkpt>
   <trkpt lat="45.702071" lon="3.198422"><ele>331.5</ele></trkpt>
   <trkpt lat="45.702372" lon="3.1986"><ele>333.75</ele></trkpt>
   <trkpt lat="45.702648" lon="3.198721"><ele>333.75</ele></trkpt>
   <trkpt lat="45.702819" lon="3.198773"><ele>334.5</ele></trkpt>
   <trkpt lat="45.703019" lon="3.198814"><ele>336</ele></trkpt>
   <trkpt lat="45.703263" lon="3.198844"><ele>337.75</ele></trkpt>
   <trkpt lat="45.704038" lon="3.19889"><ele>340.25</ele></trkpt>
   <trkpt lat="45.704449" lon="3.198915"><ele>341.5</ele></trkpt>
   <trkpt lat="45.70477" lon="3.198932"><ele>342</ele></trkpt>
   <trkpt lat="45.704868" lon="3.198936"><ele>342.25</ele></trkpt>
   <trkpt lat="45.705958" lon="3.198994"><ele>345</ele></trkpt>
   <trkpt lat="45.70765" lon="3.199105"><ele>350.75</ele></trkpt>
   <trkpt lat="45.708847" lon="3.199152"><ele>352</ele></trkpt>
   <trkpt lat="45.709191" lon="3.19927"><ele>351.5</ele></trkpt>
   <trkpt lat="45.709668" lon="3.199277"><ele>350</ele></trkpt>
   <trkpt lat="45.709831" lon="3.199241"><ele>349.75</ele></trkpt>
   <trkpt lat="45.709993" lon="3.199174"><ele>349.75</ele></trkpt>
   <trkpt lat="45.71018" lon="3.199012"><ele>350</ele></trkpt>
   <trkpt lat="45.710495" lon="3.198543"><ele>350.25</ele></trkpt>
   <trkpt lat="45.710574" lon="3.198315"><ele>350.75</ele></trkpt>
   <trkpt lat="45.710739" lon="3.198106"><ele>351</ele></trkpt>
   <trkpt lat="45.710913" lon="3.197842"><ele>351</ele></trkpt>
   <trkpt lat="45.711445" lon="3.196962"><ele>353.75</ele></trkpt>
   <trkpt lat="45.711615" lon="3.196712"><ele>354.5</ele></trkpt>
   <trkpt lat="45.711788" lon="3.196515"><ele>355.75</ele></trkpt>
   <trkpt lat="45.711962" lon="3.196358"><ele>356</ele></trkpt>
   <trkpt lat="45.712138" lon="3.19623"><ele>356.75</ele></trkpt>
   <trkpt lat="45.712609" lon="3.196086"><ele>358.25</ele></trkpt>
   <trkpt lat="45.712728" lon="3.1961"><ele>358.75</ele></trkpt>
   <trkpt lat="45.712802" lon="3.196192"><ele>358.5</ele></trkpt>
   <trkpt lat="45.712892" lon="3.196247"><ele>358.5</ele></trkpt>
   <trkpt lat="45.712969" lon="3.196259"><ele>358.25</ele></trkpt>
   <trkpt lat="45.713045" lon="3.196244"><ele>358.5</ele></trkpt>
   <trkpt lat="45.713117" lon="3.196201"><ele>358.25</ele></trkpt>
   <trkpt lat="45.713178" lon="3.196135"><ele>358.25</ele></trkpt>
   <trkpt lat="45.713226" lon="3.196048"><ele>358.75</ele></trkpt>
   <trkpt lat="45.713262" lon="3.195926"><ele>359.5</ele></trkpt>
   <trkpt lat="45.713271" lon="3.195793"><ele>360</ele></trkpt>
   <trkpt lat="45.713251" lon="3.195663"><ele>360.25</ele></trkpt>
   <trkpt lat="45.713205" lon="3.195547"><ele>360.25</ele></trkpt>
   <trkpt lat="45.713205" lon="3.195351"><ele>359.5</ele></trkpt>
   <trkpt lat="45.713221" lon="3.195225"><ele>359.5</ele></trkpt>
   <trkpt lat="45.713412" lon="3.194651"><ele>360.5</ele></trkpt>
   <trkpt lat="45.713525" lon="3.194766"><ele>359.5</ele></trkpt>
   <trkpt lat="45.713428" lon="3.195115"><ele>359</ele></trkpt>
   <trkpt lat="45.713436" lon="3.195198"><ele>358.75</ele></trkpt>
   <trkpt lat="45.713488" lon="3.195428"><ele>358.5</ele></trkpt>
   <trkpt lat="45.713537" lon="3.195698"><ele>358</ele></trkpt>
   <trkpt lat="45.713588" lon="3.196042"><ele>357</ele></trkpt>
   <trkpt lat="45.713638" lon="3.196142"><ele>356.75</ele></trkpt>
   <trkpt lat="45.71393" lon="3.196482"><ele>356</ele></trkpt>
   <trkpt lat="45.713996" lon="3.196556"><ele>356</ele></trkpt>
   <trkpt lat="45.71407" lon="3.196618"><ele>356</ele></trkpt>
   <trkpt lat="45.714161" lon="3.196712"><ele>355.75</ele></trkpt>
   <trkpt lat="45.714499" lon="3.19699"><ele>355</ele></trkpt>
   <trkpt lat="45.714899" lon="3.197272"><ele>355.25</ele></trkpt>
   <trkpt lat="45.715301" lon="3.197541"><ele>354.5</ele></trkpt>
   <trkpt lat="45.715335" lon="3.197536"><ele>354.5</ele></trkpt>
   <trkpt lat="45.715395" lon="3.197497"><ele>355</ele></trkpt>
   <trkpt lat="45.715446" lon="3.197443"><ele>355</ele></trkpt>
   <trkpt lat="45.715529" lon="3.1974"><ele>355.25</ele></trkpt>
   <trkpt lat="45.715807" lon="3.197414"><ele>354.25</ele></trkpt>
   <trkpt lat="45.715906" lon="3.19739"><ele>354</ele></trkpt>
   <trkpt lat="45.716092" lon="3.197303"><ele>354.25</ele></trkpt>
   <trkpt lat="45.716242" lon="3.197226"><ele>354.25</ele></trkpt>
   <trkpt lat="45.71632" lon="3.197164"><ele>354</ele></trkpt>
   <trkpt lat="45.716407" lon="3.197064"><ele>353.75</ele></trkpt>
   <trkpt lat="45.716509" lon="3.196965"><ele>353.5</ele></trkpt>
   <trkpt lat="45.716836" lon="3.196705"><ele>354</ele></trkpt>
   <trkpt lat="45.716911" lon="3.196639"><ele>354</ele></trkpt>
   <trkpt lat="45.716923" lon="3.196621"><ele>354</ele></trkpt>
   <trkpt lat="45.716984" lon="3.195925"><ele>355</ele></trkpt>
   <trkpt lat="45.717018" lon="3.195908"><ele>355</ele></trkpt>
   <trkpt lat="45.717099" lon="3.195763"><ele>355</ele></trkpt>
   <trkpt lat="45.717122" lon="3.195782"><ele>355</ele></trkpt>
   <trkpt lat="45.717149" lon="3.195789"><ele>355</ele></trkpt>
   <trkpt lat="45.717176" lon="3.195783"><ele>355</ele></trkpt>
   <trkpt lat="45.7172" lon="3.195763"><ele>355</ele></trkpt>
   <trkpt lat="45.717217" lon="3.195734"><ele>355</ele></trkpt>
   <trkpt lat="45.717227" lon="3.195697"><ele>355</ele></trkpt>
   <trkpt lat="45.717228" lon="3.195658"><ele>355</ele></trkpt>
   <trkpt lat="45.717317" lon="3.195647"><ele>355</ele></trkpt>
   <trkpt lat="45.717433" lon="3.19556"><ele>355</ele></trkpt>
   <trkpt lat="45.717725" lon="3.19532"><ele>355</ele></trkpt>
   <trkpt lat="45.71836" lon="3.194803"><ele>354.75</ele></trkpt>
   <trkpt lat="45.718778" lon="3.194466"><ele>354.25</ele></trkpt>
   <trkpt lat="45.719104" lon="3.194212"><ele>354</ele></trkpt>
   <trkpt lat="45.719443" lon="3.193998"><ele>354.25</ele></trkpt>
   <trkpt lat="45.720073" lon="3.193664"><ele>351.75</ele></trkpt>
   <trkpt lat="45.720268" lon="3.193566"><ele>350.75</ele></trkpt>
   <trkpt lat="45.720692" lon="3.193362"><ele>349.5</ele></trkpt>
   <trkpt lat="45.720882" lon="3.193308"><ele>348.5</ele></trkpt>
   <trkpt lat="45.720936" lon="3.193302"><ele>348.5</ele></trkpt>
   <trkpt lat="45.721072" lon="3.193287"><ele>348</ele></trkpt>
   <trkpt lat="45.721576" lon="3.193309"><ele>345.25</ele></trkpt>
   <trkpt lat="45.721656" lon="3.193312"><ele>345</ele></trkpt>
   <trkpt lat="45.721834" lon="3.193322"><ele>343.75</ele></trkpt>
   <trkpt lat="45.721947" lon="3.193326"><ele>342.75</ele></trkpt>
   <trkpt lat="45.722026" lon="3.193345"><ele>342.75</ele></trkpt>
   <trkpt lat="45.72219" lon="3.193406"><ele>342.5</ele></trkpt>
   <trkpt lat="45.722246" lon="3.193435"><ele>342.75</ele></trkpt>
   <trkpt lat="45.72235" lon="3.193516"><ele>343</ele></trkpt>
   <trkpt lat="45.722498" lon="3.193618"><ele>341</ele></trkpt>
   <trkpt lat="45.722559" lon="3.193616"><ele>341</ele></trkpt>
   <trkpt lat="45.72262" lon="3.193591"><ele>341</ele></trkpt>
   <trkpt lat="45.723224" lon="3.193195"><ele>340.25</ele></trkpt>
   <trkpt lat="45.723286" lon="3.193129"><ele>340.5</ele></trkpt>
   <trkpt lat="45.723327" lon="3.193099"><ele>340.75</ele></trkpt>
   <trkpt lat="45.723398" lon="3.193013"><ele>340.75</ele></trkpt>
   <trkpt lat="45.724134" lon="3.192089"><ele>344.5</ele></trkpt>
   <trkpt lat="45.724174" lon="3.192021"><ele>345.5</ele></trkpt>
   <trkpt lat="45.724226" lon="3.19196"><ele>346.25</ele></trkpt>
   <trkpt lat="45.72427" lon="3.19195"><ele>346.5</ele></trkpt>
   <trkpt lat="45.724307" lon="3.191943"><ele>347</ele></trkpt>
   <trkpt lat="45.72432" lon="3.19197"><ele>346.75</ele></trkpt>
   <trkpt lat="45.724339" lon="3.191988"><ele>347</ele></trkpt>
   <trkpt lat="45.724362" lon="3.191994"><ele>347</ele></trkpt>
   <trkpt lat="45.724384" lon="3.191987"><ele>347.25</ele></trkpt>
   <trkpt lat="45.724403" lon="3.191968"><ele>347.5</ele></trkpt>
   <trkpt lat="45.724415" lon="3.191941"><ele>347.75</ele></trkpt>
   <trkpt lat="45.724419" lon="3.191908"><ele>347.75</ele></trkpt>
   <trkpt lat="45.724415" lon="3.191876"><ele>348</ele></trkpt>
   <trkpt lat="45.724401" lon="3.19185"><ele>348</ele></trkpt>
   <trkpt lat="45.724423" lon="3.19182"><ele>348.25</ele></trkpt>
   <trkpt lat="45.724481" lon="3.191735"><ele>349</ele></trkpt>
   <trkpt lat="45.724573" lon="3.191606"><ele>350</ele></trkpt>
   <trkpt lat="45.724664" lon="3.191476"><ele>350.5</ele></trkpt>
   <trkpt lat="45.724873" lon="3.191178"><ele>352.75</ele></trkpt>
   <trkpt lat="45.72494" lon="3.191089"><ele>353.5</ele></trkpt>
   <trkpt lat="45.725109" lon="3.190861"><ele>354.25</ele></trkpt>
   <trkpt lat="45.725871" lon="3.189993"><ele>357.25</ele></trkpt>
   <trkpt lat="45.726006" lon="3.189839"><ele>357.75</ele></trkpt>
   <trkpt lat="45.726073" lon="3.189764"><ele>357.75</ele></trkpt>
   <trkpt lat="45.726143" lon="3.189687"><ele>358.25</ele></trkpt>
   <trkpt lat="45.726245" lon="3.189577"><ele>358.75</ele></trkpt>
   <trkpt lat="45.72641" lon="3.189386"><ele>359</ele></trkpt>
   <trkpt lat="45.726514" lon="3.189282"><ele>359.25</ele></trkpt>
   <trkpt lat="45.726555" lon="3.189231"><ele>359.5</ele></trkpt>
   <trkpt lat="45.726573" lon="3.189167"><ele>359.5</ele></trkpt>
   <trkpt lat="45.726618" lon="3.189153"><ele>359.75</ele></trkpt>
   <trkpt lat="45.726658" lon="3.18912"><ele>359.75</ele></trkpt>
   <trkpt lat="45.726689" lon="3.189071"><ele>359.75</ele></trkpt>
   <trkpt lat="45.726706" lon="3.18901"><ele>360</ele></trkpt>
   <trkpt lat="45.726708" lon="3.188927"><ele>360</ele></trkpt>
   <trkpt lat="45.726764" lon="3.188863"><ele>359.75</ele></trkpt>
   <trkpt lat="45.726885" lon="3.188806"><ele>359.5</ele></trkpt>
   <trkpt lat="45.726976" lon="3.188777"><ele>359.5</ele></trkpt>
   <trkpt lat="45.727242" lon="3.18856"><ele>358.75</ele></trkpt>
   <trkpt lat="45.727392" lon="3.188437"><ele>358</ele></trkpt>
   <trkpt lat="45.72746" lon="3.188316"><ele>358</ele></trkpt>
   <trkpt lat="45.727638" lon="3.188213"><ele>357.5</ele></trkpt>
   <trkpt lat="45.727757" lon="3.188134"><ele>357</ele></trkpt>
   <trkpt lat="45.727914" lon="3.188"><ele>357</ele></trkpt>
   <trkpt lat="45.728025" lon="3.187891"><ele>357</ele></trkpt>
   <trkpt lat="45.728175" lon="3.187738"><ele>356.25</ele></trkpt>
   <trkpt lat="45.728299" lon="3.1876"><ele>356</ele></trkpt>
   <trkpt lat="45.728557" lon="3.187267"><ele>355.75</ele></trkpt>
   <trkpt lat="45.728879" lon="3.186866"><ele>355</ele></trkpt>
   <trkpt lat="45.728931" lon="3.1868"><ele>354.75</ele></trkpt>
   <trkpt lat="45.729666" lon="3.1858"><ele>353.75</ele></trkpt>
   <trkpt lat="45.730072" lon="3.185174"><ele>353.5</ele></trkpt>
   <trkpt lat="45.730508" lon="3.184537"><ele>354</ele></trkpt>
   <trkpt lat="45.730601" lon="3.184405"><ele>353.75</ele></trkpt>
   <trkpt lat="45.730693" lon="3.184255"><ele>353.5</ele></trkpt>
   <trkpt lat="45.731366" lon="3.183247"><ele>353.5</ele></trkpt>
   <trkpt lat="45.731488" lon="3.183074"><ele>353</ele></trkpt>
   <trkpt lat="45.731564" lon="3.183097"><ele>353</ele></trkpt>
   <trkpt lat="45.731631" lon="3.183158"><ele>353</ele></trkpt>
   <trkpt lat="45.7317" lon="3.183168"><ele>352.75</ele></trkpt>
   <trkpt lat="45.731783" lon="3.183198"><ele>353</ele></trkpt>
   <trkpt lat="45.732573" lon="3.183473"><ele>353</ele></trkpt>
   <trkpt lat="45.732878" lon="3.183579"><ele>353.75</ele></trkpt>
   <trkpt lat="45.733273" lon="3.183716"><ele>354</ele></trkpt>
   <trkpt lat="45.733535" lon="3.183807"><ele>354</ele></trkpt>
   <trkpt lat="45.733803" lon="3.183891"><ele>354.5</ele></trkpt>
   <trkpt lat="45.733931" lon="3.18394"><ele>355</ele></trkpt>
   <trkpt lat="45.733952" lon="3.183985"><ele>355</ele></trkpt>
   <trkpt lat="45.733973" lon="3.184009"><ele>354.75</ele></trkpt>
   <trkpt lat="45.733998" lon="3.184023"><ele>355</ele></trkpt>
   <trkpt lat="45.734039" lon="3.184023"><ele>355</ele></trkpt>
   <trkpt lat="45.734063" lon="3.18401"><ele>355</ele></trkpt>
   <trkpt lat="45.734083" lon="3.183988"><ele>355</ele></trkpt>
   <trkpt lat="45.734107" lon="3.183925"><ele>355</ele></trkpt>
   <trkpt lat="45.734109" lon="3.183889"><ele>355</ele></trkpt>
   <trkpt lat="45.734107" lon="3.183869"><ele>354.75</ele></trkpt>
   <trkpt lat="45.734131" lon="3.183687"><ele>354.75</ele></trkpt>
   <trkpt lat="45.734152" lon="3.183574"><ele>354.75</ele></trkpt>
   <trkpt lat="45.734733" lon="3.182237"><ele>355</ele></trkpt>
   <trkpt lat="45.734888" lon="3.181908"><ele>354.75</ele></trkpt>
   <trkpt lat="45.735045" lon="3.181595"><ele>355.25</ele></trkpt>
   <trkpt lat="45.735236" lon="3.181236"><ele>355.25</ele></trkpt>
   <trkpt lat="45.735403" lon="3.180952"><ele>355.75</ele></trkpt>
   <trkpt lat="45.735861" lon="3.180203"><ele>356</ele></trkpt>
   <trkpt lat="45.736307" lon="3.179487"><ele>356</ele></trkpt>
   <trkpt lat="45.736662" lon="3.178959"><ele>355.75</ele></trkpt>
   <trkpt lat="45.737455" lon="3.177829"><ele>356.5</ele></trkpt>
   <trkpt lat="45.737778" lon="3.177352"><ele>357</ele></trkpt>
   <trkpt lat="45.737868" lon="3.177306"><ele>357</ele></trkpt>
   <trkpt lat="45.737902" lon="3.177266"><ele>357</ele></trkpt>
   <trkpt lat="45.737945" lon="3.177287"><ele>357</ele></trkpt>
   <trkpt lat="45.737961" lon="3.177285"><ele>357</ele></trkpt>
   <trkpt lat="45.737991" lon="3.177265"><ele>357</ele></trkpt>
   <trkpt lat="45.738012" lon="3.177227"><ele>357</ele></trkpt>
   <trkpt lat="45.738019" lon="3.177185"><ele>356.75</ele></trkpt>
   <trkpt lat="45.738068" lon="3.177145"><ele>357</ele></trkpt>
   <trkpt lat="45.738109" lon="3.177082"><ele>357</ele></trkpt>
   <trkpt lat="45.738179" lon="3.176958"><ele>357</ele></trkpt>
   <trkpt lat="45.738393" lon="3.176742"><ele>357</ele></trkpt>
   <trkpt lat="45.740527" lon="3.175045"><ele>362.75</ele></trkpt>
   <trkpt lat="45.740772" lon="3.174861"><ele>363.75</ele></trkpt>
   <trkpt lat="45.740823" lon="3.174838"><ele>363.75</ele></trkpt>
   <trkpt lat="45.740893" lon="3.174849"><ele>364</ele></trkpt>
   <trkpt lat="45.740974" lon="3.174882"><ele>364.5</ele></trkpt>
   <trkpt lat="45.741012" lon="3.174906"><ele>364.5</ele></trkpt>
   <trkpt lat="45.741058" lon="3.174917"><ele>364.75</ele></trkpt>
   <trkpt lat="45.741102" lon="3.174916"><ele>364.75</ele></trkpt>
   <trkpt lat="45.741156" lon="3.174883"><ele>365</ele></trkpt>
   <trkpt lat="45.741199" lon="3.174835"><ele>365.25</ele></trkpt>
   <trkpt lat="45.741229" lon="3.174771"><ele>365.25</ele></trkpt>
   <trkpt lat="45.741243" lon="3.174709"><ele>365.25</ele></trkpt>
   <trkpt lat="45.741246" lon="3.174645"><ele>365.25</ele></trkpt>
   <trkpt lat="45.741274" lon="3.174529"><ele>365</ele></trkpt>
   <trkpt lat="45.74131" lon="3.174445"><ele>365</ele></trkpt>
   <trkpt lat="45.741358" lon="3.174377"><ele>364.75</ele></trkpt>
   <trkpt lat="45.741827" lon="3.174013"><ele>366.25</ele></trkpt>
   <trkpt lat="45.742293" lon="3.173617"><ele>367.25</ele></trkpt>
   <trkpt lat="45.743796" lon="3.172349"><ele>368.5</ele></trkpt>
   <trkpt lat="45.744512" lon="3.171753"><ele>368</ele></trkpt>
   <trkpt lat="45.744751" lon="3.171554"><ele>368</ele></trkpt>
   <trkpt lat="45.745057" lon="3.171307"><ele>367.75</ele></trkpt>
   <trkpt lat="45.745944" lon="3.170588"><ele>369.25</ele></trkpt>
   <trkpt lat="45.74643" lon="3.170178"><ele>369.75</ele></trkpt>
   <trkpt lat="45.747102" lon="3.169548"><ele>371.75</ele></trkpt>
   <trkpt lat="45.74732" lon="3.16945"><ele>373.25</ele></trkpt>
   <trkpt lat="45.747526" lon="3.16939"><ele>373.75</ele></trkpt>
   <trkpt lat="45.747631" lon="3.169412"><ele>374.25</ele></trkpt>
   <trkpt lat="45.747642" lon="3.169364"><ele>374</ele></trkpt>
   <trkpt lat="45.747656" lon="3.169293"><ele>374</ele></trkpt>
   <trkpt lat="45.747662" lon="3.169255"><ele>373.75</ele></trkpt>
   <trkpt lat="45.747681" lon="3.169202"><ele>373.75</ele></trkpt>
   <trkpt lat="45.747693" lon="3.169169"><ele>373.5</ele></trkpt>
   <trkpt lat="45.747968" lon="3.169033"><ele>374</ele></trkpt>
   <trkpt lat="45.748021" lon="3.168977"><ele>374</ele></trkpt>
   <trkpt lat="45.748056" lon="3.16891"><ele>374</ele></trkpt>
   <trkpt lat="45.748089" lon="3.168887"><ele>374</ele></trkpt>
   <trkpt lat="45.748138" lon="3.168887"><ele>374.25</ele></trkpt>
   <trkpt lat="45.748158" lon="3.1689"><ele>374.25</ele></trkpt>
   <trkpt lat="45.748185" lon="3.168916"><ele>374.5</ele></trkpt>
   <trkpt lat="45.748199" lon="3.168925"><ele>374.5</ele></trkpt>
   <trkpt lat="45.748227" lon="3.168941"><ele>374.5</ele></trkpt>
   <trkpt lat="45.748252" lon="3.168962"><ele>374.75</ele></trkpt>
   <trkpt lat="45.748292" lon="3.168991"><ele>374.75</ele></trkpt>
   <trkpt lat="45.748309" lon="3.168949"><ele>374.75</ele></trkpt>
   <trkpt lat="45.748458" lon="3.168437"><ele>374.25</ele></trkpt>
   <trkpt lat="45.748738" lon="3.167605"><ele>373.25</ele></trkpt>
   <trkpt lat="45.749427" lon="3.165668"><ele>369.25</ele></trkpt>
   <trkpt lat="45.749591" lon="3.165247"><ele>368.25</ele></trkpt>
   <trkpt lat="45.749795" lon="3.164798"><ele>367.25</ele></trkpt>
   <trkpt lat="45.749894" lon="3.16461"><ele>366.5</ele></trkpt>
   <trkpt lat="45.749948" lon="3.164491"><ele>366</ele></trkpt>
   <trkpt lat="45.750195" lon="3.163956"><ele>365</ele></trkpt>
   <trkpt lat="45.750458" lon="3.163417"><ele>363.75</ele></trkpt>
   <trkpt lat="45.750592" lon="3.163152"><ele>363.25</ele></trkpt>
   <trkpt lat="45.75071" lon="3.162928"><ele>363.25</ele></trkpt>
   <trkpt lat="45.750838" lon="3.162642"><ele>362.5</ele></trkpt>
   <trkpt lat="45.751144" lon="3.162059"><ele>360.75</ele></trkpt>
   <trkpt lat="45.751412" lon="3.161581"><ele>359.5</ele></trkpt>
   <trkpt lat="45.751708" lon="3.16102"><ele>358.5</ele></trkpt>
   <trkpt lat="45.752737" lon="3.159182"><ele>355</ele></trkpt>
   <trkpt lat="45.753122" lon="3.158568"><ele>354</ele></trkpt>
   <trkpt lat="45.753289" lon="3.158323"><ele>353.75</ele></trkpt>
   <trkpt lat="45.753594" lon="3.157963"><ele>353</ele></trkpt>
   <trkpt lat="45.753724" lon="3.15783"><ele>353</ele></trkpt>
   <trkpt lat="45.753853" lon="3.157724"><ele>352.75</ele></trkpt>
   <trkpt lat="45.753939" lon="3.157679"><ele>352.5</ele></trkpt>
   <trkpt lat="45.754145" lon="3.15763"><ele>351.75</ele></trkpt>
   <trkpt lat="45.754259" lon="3.157627"><ele>351.75</ele></trkpt>
   <trkpt lat="45.75449" lon="3.157641"><ele>351.5</ele></trkpt>
   <trkpt lat="45.754586" lon="3.157635"><ele>351.25</ele></trkpt>
   <trkpt lat="45.75481" lon="3.157559"><ele>351</ele></trkpt>
   <trkpt lat="45.75496" lon="3.157439"><ele>351.25</ele></trkpt>
   <trkpt lat="45.755041" lon="3.157356"><ele>351</ele></trkpt>
   <trkpt lat="45.755104" lon="3.157293"><ele>351</ele></trkpt>
   <trkpt lat="45.755205" lon="3.15713"><ele>351</ele></trkpt>
   <trkpt lat="45.755248" lon="3.157047"><ele>350.5</ele></trkpt>
   <trkpt lat="45.75529" lon="3.156953"><ele>350</ele></trkpt>
   <trkpt lat="45.75545" lon="3.156491"><ele>350.5</ele></trkpt>
   <trkpt lat="45.755498" lon="3.156298"><ele>350.5</ele></trkpt>
   <trkpt lat="45.755541" lon="3.156162"><ele>350</ele></trkpt>
   <trkpt lat="45.755627" lon="3.155988"><ele>350</ele></trkpt>
   <trkpt lat="45.755691" lon="3.155898"><ele>350</ele></trkpt>
   <trkpt lat="45.755765" lon="3.155581"><ele>350</ele></trkpt>
   <trkpt lat="45.755787" lon="3.155462"><ele>350</ele></trkpt>
   <trkpt lat="45.755786" lon="3.15543"><ele>350</ele></trkpt>
   <trkpt lat="45.755762" lon="3.155377"><ele>350</ele></trkpt>
   <trkpt lat="45.755734" lon="3.155328"><ele>350</ele></trkpt>
   <trkpt lat="45.755725" lon="3.155308"><ele>350</ele></trkpt>
   <trkpt lat="45.756015" lon="3.154555"><ele>349.25</ele></trkpt>
   <trkpt lat="45.756233" lon="3.153939"><ele>349</ele></trkpt>
   <trkpt lat="45.756267" lon="3.153713"><ele>348.5</ele></trkpt>
   <trkpt lat="45.756283" lon="3.153475"><ele>348</ele></trkpt>
   <trkpt lat="45.75629" lon="3.153307"><ele>348</ele></trkpt>
   <trkpt lat="45.756361" lon="3.153217"><ele>348</ele></trkpt>
   <trkpt lat="45.756492" lon="3.153054"><ele>348</ele></trkpt>
   <trkpt lat="45.756985" lon="3.152373"><ele>348</ele></trkpt>
   <trkpt lat="45.757182" lon="3.152063"><ele>348.25</ele></trkpt>
   <trkpt lat="45.757606" lon="3.151336"><ele>348</ele></trkpt>
   <trkpt lat="45.758143" lon="3.150346"><ele>348</ele></trkpt>
   <trkpt lat="45.759393" lon="3.148086"><ele>346.75</ele></trkpt>
   <trkpt lat="45.759421" lon="3.148019"><ele>347</ele></trkpt>
   <trkpt lat="45.760204" lon="3.146683"><ele>347.25</ele></trkpt>
   <trkpt lat="45.760777" lon="3.145658"><ele>349</ele></trkpt>
   <trkpt lat="45.760903" lon="3.145481"><ele>349</ele></trkpt>
   <trkpt lat="45.761032" lon="3.145356"><ele>350.5</ele></trkpt>
   <trkpt lat="45.761202" lon="3.145209"><ele>350.75</ele></trkpt>
   <trkpt lat="45.761313" lon="3.145134"><ele>350.25</ele></trkpt>
   <trkpt lat="45.76137" lon="3.145077"><ele>350.5</ele></trkpt>
   <trkpt lat="45.761448" lon="3.144987"><ele>350.75</ele></trkpt>
   <trkpt lat="45.761539" lon="3.144847"><ele>350.25</ele></trkpt>
   <trkpt lat="45.761923" lon="3.144039"><ele>348.75</ele></trkpt>
   <trkpt lat="45.762272" lon="3.143108"><ele>348</ele></trkpt>
   <trkpt lat="45.762338" lon="3.142994"><ele>348.25</ele></trkpt>
   <trkpt lat="45.762352" lon="3.142894"><ele>348</ele></trkpt>
   <trkpt lat="45.762406" lon="3.142764"><ele>348</ele></trkpt>
   <trkpt lat="45.762518" lon="3.142561"><ele>347.25</ele></trkpt>
   <trkpt lat="45.762768" lon="3.14215"><ele>347</ele></trkpt>
   <trkpt lat="45.763161" lon="3.141459"><ele>346.5</ele></trkpt>
   <trkpt lat="45.763582" lon="3.140873"><ele>346.75</ele></trkpt>
   <trkpt lat="45.763613" lon="3.140725"><ele>346.75</ele></trkpt>
   <trkpt lat="45.763667" lon="3.140539"><ele>347</ele></trkpt>
   <trkpt lat="45.763814" lon="3.140258"><ele>346.75</ele></trkpt>
   <trkpt lat="45.764332" lon="3.139299"><ele>346.25</ele></trkpt>
   <trkpt lat="45.764471" lon="3.139043"><ele>346.5</ele></trkpt>
   <trkpt lat="45.764529" lon="3.138919"><ele>347.75</ele></trkpt>
   <trkpt lat="45.765066" lon="3.137916"><ele>346.5</ele></trkpt>
   <trkpt lat="45.766086" lon="3.136073"><ele>346</ele></trkpt>
   <trkpt lat="45.766368" lon="3.135547"><ele>345.75</ele></trkpt>
   <trkpt lat="45.766496" lon="3.135325"><ele>344.75</ele></trkpt>
   <trkpt lat="45.766714" lon="3.135041"><ele>346</ele></trkpt>
   <trkpt lat="45.766874" lon="3.134763"><ele>345.25</ele></trkpt>
   <trkpt lat="45.767102" lon="3.134371"><ele>344.75</ele></trkpt>
   <trkpt lat="45.767484" lon="3.133706"><ele>345.25</ele></trkpt>
   <trkpt lat="45.768119" lon="3.132494"><ele>346.5</ele></trkpt>
   <trkpt lat="45.768254" lon="3.132224"><ele>346.25</ele></trkpt>
   <trkpt lat="45.768316" lon="3.132109"><ele>346.75</ele></trkpt>
   <trkpt lat="45.76838" lon="3.132007"><ele>347.25</ele></trkpt>
   <trkpt lat="45.768448" lon="3.131921"><ele>347.5</ele></trkpt>
   <trkpt lat="45.768592" lon="3.131783"><ele>347.5</ele></trkpt>
   <trkpt lat="45.768578" lon="3.131675"><ele>347.75</ele></trkpt>
   <trkpt lat="45.768991" lon="3.130912"><ele>349.5</ele></trkpt>
   <trkpt lat="45.769385" lon="3.130276"><ele>352.5</ele></trkpt>
   <trkpt lat="45.769438" lon="3.130173"><ele>351.75</ele></trkpt>
   <trkpt lat="45.769523" lon="3.12991"><ele>351.5</ele></trkpt>
   <trkpt lat="45.769591" lon="3.129763"><ele>353.25</ele></trkpt>
   <trkpt lat="45.769709" lon="3.129548"><ele>352.25</ele></trkpt>
   <trkpt lat="45.76998" lon="3.129208"><ele>353.75</ele></trkpt>
   <trkpt lat="45.770236" lon="3.128754"><ele>353.5</ele></trkpt>
   <trkpt lat="45.770286" lon="3.128712"><ele>354</ele></trkpt>
   <trkpt lat="45.770332" lon="3.128726"><ele>354</ele></trkpt>
   <trkpt lat="45.770549" lon="3.12892"><ele>354</ele></trkpt>
   <trkpt lat="45.771139" lon="3.127707"><ele>355</ele></trkpt>
   <trkpt lat="45.771235" lon="3.127503"><ele>355</ele></trkpt>
   <trkpt lat="45.771385" lon="3.127106"><ele>354.75</ele></trkpt>
   <trkpt lat="45.771503" lon="3.126725"><ele>355</ele></trkpt>
   <trkpt lat="45.771543" lon="3.126557"><ele>354.75</ele></trkpt>
   <trkpt lat="45.77157" lon="3.126412"><ele>354.5</ele></trkpt>
   <trkpt lat="45.771607" lon="3.126113"><ele>354.25</ele></trkpt>
   <trkpt lat="45.77163" lon="3.125792"><ele>354</ele></trkpt>
   <trkpt lat="45.771827" lon="3.125187"><ele>353.75</ele></trkpt>
   <trkpt lat="45.772021" lon="3.12454"><ele>354.25</ele></trkpt>
   <trkpt lat="45.772074" lon="3.124326"><ele>354.5</ele></trkpt>
   <trkpt lat="45.772315" lon="3.12333"><ele>355</ele></trkpt>
   <trkpt lat="45.772381" lon="3.122996"><ele>357</ele></trkpt>
   <trkpt lat="45.772469" lon="3.122504"><ele>357.25</ele></trkpt>
   <trkpt lat="45.772539" lon="3.122022"><ele>355.25</ele></trkpt>
   <trkpt lat="45.772585" lon="3.121673"><ele>355.75</ele></trkpt>
   <trkpt lat="45.772616" lon="3.121327"><ele>357.25</ele></trkpt>
   <trkpt lat="45.772647" lon="3.120924"><ele>358.5</ele></trkpt>
   <trkpt lat="45.772681" lon="3.120321"><ele>359.5</ele></trkpt>
   <trkpt lat="45.772689" lon="3.120171"><ele>359.75</ele></trkpt>
   <trkpt lat="45.772691" lon="3.119103"><ele>359.25</ele></trkpt>
   <trkpt lat="45.772678" lon="3.118702"><ele>358</ele></trkpt>
   <trkpt lat="45.772693" lon="3.118558"><ele>357.5</ele></trkpt>
   <trkpt lat="45.772713" lon="3.118437"><ele>357</ele></trkpt>
   <trkpt lat="45.772744" lon="3.118336"><ele>356.75</ele></trkpt>
   <trkpt lat="45.772759" lon="3.118329"><ele>356.75</ele></trkpt>
   <trkpt lat="45.772784" lon="3.118317"><ele>356.75</ele></trkpt>
   <trkpt lat="45.772824" lon="3.118314"><ele>356.75</ele></trkpt>
   <trkpt lat="45.772913" lon="3.117668"><ele>354.5</ele></trkpt>
   <trkpt lat="45.772931" lon="3.117541"><ele>354.25</ele></trkpt>
   <trkpt lat="45.773022" lon="3.116864"><ele>354</ele></trkpt>
   <trkpt lat="45.773086" lon="3.114621"><ele>347.5</ele></trkpt>
   <trkpt lat="45.773085" lon="3.114489"><ele>347</ele></trkpt>
   <trkpt lat="45.773056" lon="3.113919"><ele>345</ele></trkpt>
   <trkpt lat="45.773034" lon="3.113521"><ele>344.75</ele></trkpt>
   <trkpt lat="45.773019" lon="3.11336"><ele>344.25</ele></trkpt>
   <trkpt lat="45.773008" lon="3.113221"><ele>343.75</ele></trkpt>
   <trkpt lat="45.772987" lon="3.113033"><ele>343.25</ele></trkpt>
   <trkpt lat="45.772951" lon="3.1128"><ele>343.25</ele></trkpt>
   <trkpt lat="45.772931" lon="3.112701"><ele>343</ele></trkpt>
   <trkpt lat="45.772793" lon="3.1119"><ele>342.75</ele></trkpt>
   <trkpt lat="45.772781" lon="3.111799"><ele>342.75</ele></trkpt>
   <trkpt lat="45.772772" lon="3.111692"><ele>343</ele></trkpt>
   <trkpt lat="45.772761" lon="3.11113"><ele>343</ele></trkpt>
   <trkpt lat="45.772747" lon="3.110438"><ele>342.5</ele></trkpt>
   <trkpt lat="45.772745" lon="3.110385"><ele>342.75</ele></trkpt>
   <trkpt lat="45.772732" lon="3.110253"><ele>343</ele></trkpt>
   <trkpt lat="45.772709" lon="3.110128"><ele>342.75</ele></trkpt>
   <trkpt lat="45.772698" lon="3.11008"><ele>342.75</ele></trkpt>
   <trkpt lat="45.772531" lon="3.109363"><ele>343.75</ele></trkpt>
   <trkpt lat="45.772512" lon="3.109249"><ele>343.75</ele></trkpt>
   <trkpt lat="45.772507" lon="3.109141"><ele>343.75</ele></trkpt>
   <trkpt lat="45.772561" lon="3.109139"><ele>343.5</ele></trkpt>
   <trkpt lat="45.772621" lon="3.109138"><ele>343.5</ele></trkpt>
   <trkpt lat="45.773259" lon="3.109214"><ele>341.75</ele></trkpt>
   <trkpt lat="45.773912" lon="3.109293"><ele>340.25</ele></trkpt>
   <trkpt lat="45.774138" lon="3.109332"><ele>340</ele></trkpt>
   <trkpt lat="45.774323" lon="3.109364"><ele>339.75</ele></trkpt>
   <trkpt lat="45.774635" lon="3.109396"><ele>339.75</ele></trkpt>
   <trkpt lat="45.774894" lon="3.109423"><ele>340.5</ele></trkpt>
   <trkpt lat="45.774937" lon="3.109399"><ele>340.75</ele></trkpt>
   <trkpt lat="45.774971" lon="3.109381"><ele>340.75</ele></trkpt>
   <trkpt lat="45.774989" lon="3.109354"><ele>340.75</ele></trkpt>
   <trkpt lat="45.775174" lon="3.109074"><ele>341</ele></trkpt>
   <trkpt lat="45.775354" lon="3.108803"><ele>340.75</ele></trkpt>
   <trkpt lat="45.775408" lon="3.108741"><ele>341</ele></trkpt>
   <trkpt lat="45.775431" lon="3.108714"><ele>341</ele></trkpt>
   <trkpt lat="45.775861" lon="3.108465"><ele>342.5</ele></trkpt>
   <trkpt lat="45.775979" lon="3.108418"><ele>343.5</ele></trkpt>
   <trkpt lat="45.776279" lon="3.108325"><ele>346.25</ele></trkpt>
   <trkpt lat="45.776301" lon="3.10832"><ele>346.25</ele></trkpt>
   <trkpt lat="45.776336" lon="3.108309"><ele>346.75</ele></trkpt>
   <trkpt lat="45.776366" lon="3.108305"><ele>347</ele></trkpt>
   <trkpt lat="45.776384" lon="3.108299"><ele>347.25</ele></trkpt>
   <trkpt lat="45.777461" lon="3.107777"><ele>356</ele></trkpt>
   <trkpt lat="45.777488" lon="3.107901"><ele>356.25</ele></trkpt>
   <trkpt lat="45.778109" lon="3.107854"><ele>357</ele></trkpt>
   <trkpt lat="45.77817" lon="3.107849"><ele>357</ele></trkpt>
   <trkpt lat="45.778223" lon="3.107841"><ele>357</ele></trkpt>
   <trkpt lat="45.77878" lon="3.107745"><ele>356.25</ele></trkpt>
   <trkpt lat="45.779288" lon="3.107658"><ele>354.75</ele></trkpt>
   <trkpt lat="45.779343" lon="3.107648"><ele>354.5</ele></trkpt>
   <trkpt lat="45.779415" lon="3.107636"><ele>354.5</ele></trkpt>
   <trkpt lat="45.779914" lon="3.10755"><ele>353</ele></trkpt>
   <trkpt lat="45.780038" lon="3.107788"><ele>352.75</ele></trkpt>
   <trkpt lat="45.78026" lon="3.108231"><ele>352</ele></trkpt>
   <trkpt lat="45.780291" lon="3.108302"><ele>352</ele></trkpt>
   <trkpt lat="45.780342" lon="3.108413"><ele>352</ele></trkpt>
   <trkpt lat="45.780674" lon="3.109059"><ele>351.5</ele></trkpt>
   <trkpt lat="45.780696" lon="3.109111"><ele>351.25</ele></trkpt>
   <trkpt lat="45.780748" lon="3.109205"><ele>351.25</ele></trkpt>
   <trkpt lat="45.780814" lon="3.109335"><ele>351</ele></trkpt>
   <trkpt lat="45.780828" lon="3.109255"><ele>351</ele></trkpt>
   <trkpt lat="45.780808" lon="3.109093"><ele>351</ele></trkpt>
   <trkpt lat="45.780821" lon="3.108958"><ele>351</ele></trkpt>
   <trkpt lat="45.780856" lon="3.108771"><ele>351.25</ele></trkpt>
   <trkpt lat="45.780931" lon="3.108095"><ele>351.5</ele></trkpt>
   <trkpt lat="45.781006" lon="3.107415"><ele>352.75</ele></trkpt>
   <trkpt lat="45.78111" lon="3.106476"><ele>352</ele></trkpt>
   <trkpt lat="45.781059" lon="3.106376"><ele>353</ele></trkpt>
   <trkpt lat="45.781107" lon="3.10593"><ele>353</ele></trkpt>
   <trkpt lat="45.781191" lon="3.105153"><ele>356</ele></trkpt>
   <trkpt lat="45.781199" lon="3.105024"><ele>356</ele></trkpt>
   <trkpt lat="45.781249" lon="3.104602"><ele>355.25</ele></trkpt>
   <trkpt lat="45.781262" lon="3.104462"><ele>354.75</ele></trkpt>
   <trkpt lat="45.781286" lon="3.104323"><ele>354.75</ele></trkpt>
   <trkpt lat="45.781235" lon="3.104143"><ele>355</ele></trkpt>
   <trkpt lat="45.781214" lon="3.104102"><ele>355</ele></trkpt>
   <trkpt lat="45.781189" lon="3.104052"><ele>355</ele></trkpt>
   <trkpt lat="45.780817" lon="3.103324"><ele>358</ele></trkpt>
  </trkseg>
 </trk>
</gpx>