<?xml version="1.0" encoding="UTF-8"?>
<!-- track-length = 49924 filtered ascend = 126 plain-ascend = 4 cost=65674 energy=0.2kwh time=2h 25m 24s -->
<gpx 
 xmlns="http://www.topografix.com/GPX/1/1" 
 xmlns:xsi="http://www.w3.org/2001/XMLSchema-instance" 
 xsi:schemaLocation="http://www.topografix.com/GPX/1/1 http://www.topografix.com/GPX/1/1/gpx.xsd" 
 version="1.1" 
 creator="BRouter-Web 99.71.0">
 <trk>
  <name>Clermont-Ferrand (49.9km)</name>
  <link href="https://brouter.damsy.net/latest/#map=12/45.7390/3.1644/standard,Waymarked_Trails-Cycling&amp;lonlats=3.102862,45.780614;3.114197,45.786743;3.166923,45.791673;3.242229,45.788015;3.238685,45.778837;3.234874,45.770828;3.234706,45.765891;3.220658,45.750189;3.220543,45.713272;3.212143,45.727364;3.213941,45.7296;3.221156,45.751558;3.232382,45.788516;3.102923,45.78064">
   <text>BRouter-Web</text>
  </link>
  <trkseg>
   <trkpt lat="45.780591" lon="3.102884"><ele>356.25</ele></trkpt>
   <trkpt lat="45.781189" lon="3.104052"><ele>355</ele></trkpt>
   <trkpt lat="45.781214" lon="3.104102"><ele>355</ele></trkpt>
   <trkpt lat="45.781235" lon="3.104143"><ele>355</ele></trkpt>
   <trkpt lat="45.781286" lon="3.104323"><ele>354.75</ele></trkpt>
   <trkpt lat="45.7814" lon="3.104505"><ele>354</ele></trkpt>
   <trkpt lat="45.781447" lon="3.104596"><ele>353.75</ele></trkpt>
   <trkpt lat="45.7819" lon="3.105469"><ele>353.25</ele></trkpt>
   <trkpt lat="45.782143" lon="3.105951"><ele>353</ele></trkpt>
   <trkpt lat="45.782712" lon="3.107059"><ele>352</ele></trkpt>
   <trkpt lat="45.782949" lon="3.107527"><ele>351.75</ele></trkpt>
   <trkpt lat="45.783819" lon="3.10924"><ele>350</ele></trkpt>
   <trkpt lat="45.783878" lon="3.109327"><ele>350</ele></trkpt>
   <trkpt lat="45.783917" lon="3.109354"><ele>349.75</ele></trkpt>
   <trkpt lat="45.783951" lon="3.109362"><ele>350</ele></trkpt>
   <trkpt lat="45.783975" lon="3.10936"><ele>350</ele></trkpt>
   <trkpt lat="45.784027" lon="3.109334"><ele>350</ele></trkpt>
   <trkpt lat="45.784111" lon="3.109257"><ele>350</ele></trkpt>
   <trkpt lat="45.78414" lon="3.109234"><ele>350</ele></trkpt>
   <trkpt lat="45.784181" lon="3.109236"><ele>350</ele></trkpt>
   <trkpt lat="45.784208" lon="3.109253"><ele>350</ele></trkpt>
   <trkpt lat="45.784236" lon="3.109296"><ele>350</ele></trkpt>
   <trkpt lat="45.784487" lon="3.109798"><ele>349</ele></trkpt>
   <trkpt lat="45.784621" lon="3.110062"><ele>349.5</ele></trkpt>
   <trkpt lat="45.784733" lon="3.110289"><ele>349.75</ele></trkpt>
   <trkpt lat="45.785058" lon="3.110929"><ele>349.75</ele></trkpt>
   <trkpt lat="45.785117" lon="3.111045"><ele>350</ele></trkpt>
   <trkpt lat="45.785187" lon="3.111184"><ele>349.5</ele></trkpt>
   <trkpt lat="45.785256" lon="3.111321"><ele>349</ele></trkpt>
   <trkpt lat="45.785292" lon="3.111419"><ele>349</ele></trkpt>
   <trkpt lat="45.785316" lon="3.111473"><ele>349.25</ele></trkpt>
   <trkpt lat="45.785354" lon="3.111541"><ele>349.5</ele></trkpt>
   <trkpt lat="45.785419" lon="3.111648"><ele>349.75</ele></trkpt>
   <trkpt lat="45.785777" lon="3.112352"><ele>349.25</ele></trkpt>
   <trkpt lat="45.786029" lon="3.112851"><ele>349</ele></trkpt>
   <trkpt lat="45.786229" lon="3.113247"><ele>348.5</ele></trkpt>
   <trkpt lat="45.786656" lon="3.114101"><ele>346.25</ele></trkpt>
   <trkpt lat="45.786682" lon="3.114153"><ele>345.75</ele></trkpt>
   <trkpt lat="45.786687" lon="3.114161"><ele>345.75</ele></trkpt>
   <trkpt lat="45.786744" lon="3.114273"><ele>345.5</ele></trkpt>
   <trkpt lat="45.786759" lon="3.11426"><ele>345.5</ele></trkpt>
   <trkpt lat="45.786736" lon="3.1142"><ele>346</ele></trkpt>
   <trkpt lat="45.786708" lon="3.114127"><ele>346</ele></trkpt>
   <trkpt lat="45.786682" lon="3.114153"><ele>345.75</ele></trkpt>
   <trkpt lat="45.786687" lon="3.114161"><ele>345.75</ele></trkpt>
   <trkpt lat="45.786744" lon="3.114273"><ele>345.5</ele></trkpt>
   <trkpt lat="45.78676" lon="3.114303"><ele>345.5</ele></trkpt>
   <trkpt lat="45.78674" lon="3.114324"><ele>345.5</ele></trkpt>
   <trkpt lat="45.786705" lon="3.11436"><ele>345.75</ele></trkpt>
   <trkpt lat="45.78675" lon="3.114501"><ele>345.5</ele></trkpt>
   <trkpt lat="45.786782" lon="3.114671"><ele>345</ele></trkpt>
   <trkpt lat="45.786792" lon="3.114788"><ele>344.75</ele></trkpt>
   <trkpt lat="45.786791" lon="3.115007"><ele>344</ele></trkpt>
   <trkpt lat="45.786753" lon="3.11533"><ele>344</ele></trkpt>
   <trkpt lat="45.786737" lon="3.115556"><ele>344</ele></trkpt>
   <trkpt lat="45.786734" lon="3.115711"><ele>344</ele></trkpt>
   <trkpt lat="45.786754" lon="3.115917"><ele>344</ele></trkpt>
   <trkpt lat="45.78683" lon="3.116198"><ele>344.25</ele></trkpt>
   <trkpt lat="45.786933" lon="3.116435"><ele>343.25</ele></trkpt>
   <trkpt lat="45.787119" lon="3.116788"><ele>344</ele></trkpt>
   <trkpt lat="45.787335" lon="3.117179"><ele>343.5</ele></trkpt>
   <trkpt lat="45.787537" lon="3.117523"><ele>343</ele></trkpt>
   <trkpt lat="45.787731" lon="3.117824"><ele>342.75</ele></trkpt>
   <trkpt lat="45.788039" lon="3.118303"><ele>342.25</ele></trkpt>
   <trkpt lat="45.788126" lon="3.118452"><ele>341.25</ele></trkpt>
   <trkpt lat="45.788139" lon="3.118474"><ele>341.25</ele></trkpt>
   <trkpt lat="45.788085" lon="3.118547"><ele>341</ele></trkpt>
   <trkpt lat="45.78803" lon="3.118619"><ele>341.75</ele></trkpt>
   <trkpt lat="45.787846" lon="3.118905"><ele>345.25</ele></trkpt>
   <trkpt lat="45.787743" lon="3.119052"><ele>343</ele></trkpt>
   <trkpt lat="45.787641" lon="3.119199"><ele>341.5</ele></trkpt>
   <trkpt lat="45.787585" lon="3.11926"><ele>341.75</ele></trkpt>
   <trkpt lat="45.787473" lon="3.119346"><ele>341.25</ele></trkpt>
   <trkpt lat="45.787437" lon="3.119386"><ele>341</ele></trkpt>
   <trkpt lat="45.787403" lon="3.119417"><ele>341</ele></trkpt>
   <trkpt lat="45.787437" lon="3.119497"><ele>341</ele></trkpt>
   <trkpt lat="45.787485" lon="3.11962"><ele>341</ele></trkpt>
   <trkpt lat="45.787518" lon="3.119752"><ele>341.25</ele></trkpt>
   <trkpt lat="45.787569" lon="3.119916"><ele>342</ele></trkpt>
   <trkpt lat="45.787603" lon="3.120056"><ele>342.25</ele></trkpt>
   <trkpt lat="45.787638" lon="3.120271"><ele>342.25</ele></trkpt>
   <trkpt lat="45.787638" lon="3.120306"><ele>342.5</ele></trkpt>
   <trkpt lat="45.787638" lon="3.120557"><ele>343.25</ele></trkpt>
   <trkpt lat="45.787637" lon="3.121182"><ele>343.75</ele></trkpt>
   <trkpt lat="45.787637" lon="3.121214"><ele>343.75</ele></trkpt>
   <trkpt lat="45.787622" lon="3.121361"><ele>343.25</ele></trkpt>
   <trkpt lat="45.787628" lon="3.121551"><ele>343</ele></trkpt>
   <trkpt lat="45.787662" lon="3.121806"><ele>342.75</ele></trkpt>
   <trkpt lat="45.7877" lon="3.12195"><ele>342.5</ele></trkpt>
   <trkpt lat="45.787746" lon="3.12209"><ele>342.25</ele></trkpt>
   <trkpt lat="45.78771" lon="3.122191"><ele>342</ele></trkpt>
   <trkpt lat="45.787772" lon="3.122553"><ele>341</ele></trkpt>
   <trkpt lat="45.787846" lon="3.12299"><ele>341</ele></trkpt>
   <trkpt lat="45.78794" lon="3.123378"><ele>340.25</ele></trkpt>
   <trkpt lat="45.788004" lon="3.123823"><ele>339.25</ele></trkpt>
   <trkpt lat="45.788079" lon="3.124196"><ele>337.75</ele></trkpt>
   <trkpt lat="45.7881" lon="3.124301"><ele>337.5</ele></trkpt>
   <trkpt lat="45.788111" lon="3.124337"><ele>337.5</ele></trkpt>
   <trkpt lat="45.788138" lon="3.124428"><ele>337.25</ele></trkpt>
   <trkpt lat="45.788192" lon="3.124589"><ele>337.25</ele></trkpt>
   <trkpt lat="45.788275" lon="3.124818"><ele>337</ele></trkpt>
   <trkpt lat="45.788303" lon="3.124888"><ele>336.75</ele></trkpt>
   <trkpt lat="45.78832" lon="3.124929"><ele>336.5</ele></trkpt>
   <trkpt lat="45.788357" lon="3.12499"><ele>336</ele></trkpt>
   <trkpt lat="45.788431" lon="3.125145"><ele>336.25</ele></trkpt>
   <trkpt lat="45.789146" lon="3.126867"><ele>335.25</ele></trkpt>
   <trkpt lat="45.789224" lon="3.12704"><ele>335.25</ele></trkpt>
   <trkpt lat="45.789415" lon="3.127497"><ele>335</ele></trkpt>
   <trkpt lat="45.789757" lon="3.128313"><ele>335</ele></trkpt>
   <trkpt lat="45.789823" lon="3.128506"><ele>335.25</ele></trkpt>
   <trkpt lat="45.789842" lon="3.128589"><ele>335.25</ele></trkpt>
   <trkpt lat="45.789877" lon="3.128745"><ele>335.5</ele></trkpt>
   <trkpt lat="45.78991" lon="3.128973"><ele>335.25</ele></trkpt>
   <trkpt lat="45.79004" lon="3.130412"><ele>334</ele></trkpt>
   <trkpt lat="45.790108" lon="3.131202"><ele>333.75</ele></trkpt>
   <trkpt lat="45.790142" lon="3.131599"><ele>333.75</ele></trkpt>
   <trkpt lat="45.790243" lon="3.132491"><ele>334</ele></trkpt>
   <trkpt lat="45.790256" lon="3.132616"><ele>334</ele></trkpt>
   <trkpt lat="45.79036" lon="3.133571"><ele>334</ele></trkpt>
   <trkpt lat="45.790377" lon="3.13383"><ele>334.25</ele></trkpt>
   <trkpt lat="45.790379" lon="3.133972"><ele>334.25</ele></trkpt>
   <trkpt lat="45.790384" lon="3.134243"><ele>334</ele></trkpt>
   <trkpt lat="45.790381" lon="3.134441"><ele>334</ele></trkpt>
   <trkpt lat="45.790391" lon="3.134681"><ele>334</ele></trkpt>
   <trkpt lat="45.790432" lon="3.135102"><ele>334</ele></trkpt>
   <trkpt lat="45.790489" lon="3.135382"><ele>334</ele></trkpt>
   <trkpt lat="45.790525" lon="3.135532"><ele>334</ele></trkpt>
   <trkpt lat="45.790582" lon="3.135753"><ele>333.25</ele></trkpt>
   <trkpt lat="45.790625" lon="3.135898"><ele>333.25</ele></trkpt>
   <trkpt lat="45.790787" lon="3.136565"><ele>333.25</ele></trkpt>
   <trkpt lat="45.79109" lon="3.137789"><ele>332</ele></trkpt>
   <trkpt lat="45.791124" lon="3.138004"><ele>332</ele></trkpt>
   <trkpt lat="45.79137" lon="3.138977"><ele>332</ele></trkpt>
   <trkpt lat="45.791412" lon="3.139164"><ele>332</ele></trkpt>
   <trkpt lat="45.79145" lon="3.139316"><ele>331.75</ele></trkpt>
   <trkpt lat="45.791537" lon="3.139615"><ele>332</ele></trkpt>
   <trkpt lat="45.791559" lon="3.139701"><ele>332</ele></trkpt>
   <trkpt lat="45.791726" lon="3.140351"><ele>331.25</ele></trkpt>
   <trkpt lat="45.791761" lon="3.140496"><ele>332</ele></trkpt>
   <trkpt lat="45.792024" lon="3.141591"><ele>331</ele></trkpt>
   <trkpt lat="45.792262" lon="3.142762"><ele>330</ele></trkpt>
   <trkpt lat="45.792544" lon="3.144212"><ele>330</ele></trkpt>
   <trkpt lat="45.792609" lon="3.144563"><ele>330.5</ele></trkpt>
   <trkpt lat="45.79261" lon="3.144814"><ele>331</ele></trkpt>
   <trkpt lat="45.792624" lon="3.145105"><ele>331</ele></trkpt>
   <trkpt lat="45.792618" lon="3.145175"><ele>331</ele></trkpt>
   <trkpt lat="45.792584" lon="3.145352"><ele>331.5</ele></trkpt>
   <trkpt lat="45.792566" lon="3.145435"><ele>332.25</ele></trkpt>
   <trkpt lat="45.792585" lon="3.145597"><ele>333.25</ele></trkpt>
   <trkpt lat="45.792597" lon="3.145719"><ele>333.5</ele></trkpt>
   <trkpt lat="45.792592" lon="3.145929"><ele>333.25</ele></trkpt>
   <trkpt lat="45.792559" lon="3.146392"><ele>331</ele></trkpt>
   <trkpt lat="45.792522" lon="3.146916"><ele>331</ele></trkpt>
   <trkpt lat="45.792511" lon="3.147129"><ele>330.75</ele></trkpt>
   <trkpt lat="45.792421" lon="3.148996"><ele>329.75</ele></trkpt>
   <trkpt lat="45.792322" lon="3.151026"><ele>329</ele></trkpt>
   <trkpt lat="45.792254" lon="3.152071"><ele>329</ele></trkpt>
   <trkpt lat="45.792209" lon="3.152975"><ele>329</ele></trkpt>
   <trkpt lat="45.792199" lon="3.153205"><ele>329</ele></trkpt>
   <trkpt lat="45.792188" lon="3.15342"><ele>329</ele></trkpt>
   <trkpt lat="45.79215" lon="3.154504"><ele>329.5</ele></trkpt>
   <trkpt lat="45.792099" lon="3.155582"><ele>329</ele></trkpt>
   <trkpt lat="45.792088" lon="3.155791"><ele>329</ele></trkpt>
   <trkpt lat="45.791991" lon="3.157986"><ele>329</ele></trkpt>
   <trkpt lat="45.791987" lon="3.158085"><ele>329</ele></trkpt>
   <trkpt lat="45.791964" lon="3.158618"><ele>329</ele></trkpt>
   <trkpt lat="45.791945" lon="3.159019"><ele>328.75</ele></trkpt>
   <trkpt lat="45.79191" lon="3.159511"><ele>329</ele></trkpt>
   <trkpt lat="45.791847" lon="3.160011"><ele>329</ele></trkpt>
   <trkpt lat="45.791795" lon="3.160694"><ele>328.25</ele></trkpt>
   <trkpt lat="45.791766" lon="3.160982"><ele>328</ele></trkpt>
   <trkpt lat="45.791741" lon="3.161416"><ele>328.25</ele></trkpt>
   <trkpt lat="45.791721" lon="3.161906"><ele>328</ele></trkpt>
   <trkpt lat="45.791638" lon="3.163306"><ele>327.75</ele></trkpt>
   <trkpt lat="45.791589" lon="3.163839"><ele>327.5</ele></trkpt>
   <trkpt lat="45.79156" lon="3.164394"><ele>327.25</ele></trkpt>
   <trkpt lat="45.791561" lon="3.164822"><ele>327.5</ele></trkpt>
   <trkpt lat="45.791568" lon="3.165068"><ele>327.5</ele></trkpt>
   <trkpt lat="45.791579" lon="3.165273"><ele>327.5</ele></trkpt>
   <trkpt lat="45.791595" lon="3.16551"><ele>327</ele></trkpt>
   <trkpt lat="45.79161" lon="3.165674"><ele>326.75</ele></trkpt>
   <trkpt lat="45.791671" lon="3.166843"><ele>326.75</ele></trkpt>
   <trkpt lat="45.791667" lon="3.166922"><ele>323.25</ele></trkpt>
   <trkpt lat="45.791233" lon="3.176402"><ele>323.25</ele></trkpt>
   <trkpt lat="45.791081" lon="3.179731"><ele>322.75</ele></trkpt>
   <trkpt lat="45.790752" lon="3.185977"><ele>322.5</ele></trkpt>
   <trkpt lat="45.790441" lon="3.192223"><ele>322</ele></trkpt>
   <trkpt lat="45.790063" lon="3.200129"><ele>321.25</ele></trkpt>
   <trkpt lat="45.790022" lon="3.200875"><ele>321.25</ele></trkpt>
   <trkpt lat="45.789991" lon="3.201315"><ele>322</ele></trkpt>
   <trkpt lat="45.78998" lon="3.201394"><ele>322</ele></trkpt>
   <trkpt lat="45.789916" lon="3.201868"><ele>323.5</ele></trkpt>
   <trkpt lat="45.789813" lon="3.202292"><ele>321</ele></trkpt>
   <trkpt lat="45.789669" lon="3.202725"><ele>321</ele></trkpt>
   <trkpt lat="45.789439" lon="3.203201"><ele>321.5</ele></trkpt>
   <trkpt lat="45.78919" lon="3.203573"><ele>321.75</ele></trkpt>
   <trkpt lat="45.788932" lon="3.203903"><ele>321.75</ele></trkpt>
   <trkpt lat="45.78861" lon="3.20417"><ele>321.75</ele></trkpt>
   <trkpt lat="45.78844" lon="3.204288"><ele>320.75</ele></trkpt>
   <trkpt lat="45.788326" lon="3.204355"><ele>320.5</ele></trkpt>
   <trkpt lat="45.788138" lon="3.20444"><ele>321.5</ele></trkpt>
   <trkpt lat="45.787952" lon="3.204507"><ele>321.25</ele></trkpt>
   <trkpt lat="45.787608" lon="3.204568"><ele>321.25</ele></trkpt>
   <trkpt lat="45.787264" lon="3.204572"><ele>321.75</ele></trkpt>
   <trkpt lat="45.787098" lon="3.204555"><ele>321.75</ele></trkpt>
   <trkpt lat="45.786936" lon="3.204522"><ele>321.5</ele></trkpt>
   <trkpt lat="45.786615" lon="3.204409"><ele>321.75</ele></trkpt>
   <trkpt lat="45.786416" lon="3.204322"><ele>321.5</ele></trkpt>
   <trkpt lat="45.785852" lon="3.20402"><ele>321.5</ele></trkpt>
   <trkpt lat="45.785089" lon="3.203578"><ele>321.75</ele></trkpt>
   <trkpt lat="45.784629" lon="3.203329"><ele>322</ele></trkpt>
   <trkpt lat="45.784159" lon="3.203103"><ele>321.75</ele></trkpt>
   <trkpt lat="45.783688" lon="3.202909"><ele>321.75</ele></trkpt>
   <trkpt lat="45.783183" lon="3.202751"><ele>322.75</ele></trkpt>
   <trkpt lat="45.78266" lon="3.202622"><ele>322.25</ele></trkpt>
   <trkpt lat="45.782479" lon="3.202596"><ele>322.5</ele></trkpt>
   <trkpt lat="45.781675" lon="3.202527"><ele>322.75</ele></trkpt>
   <trkpt lat="45.780789" lon="3.202528"><ele>325</ele></trkpt>
   <trkpt lat="45.780383" lon="3.202508"><ele>327.5</ele></trkpt>
   <trkpt lat="45.780325" lon="3.202479"><ele>327.5</ele></trkpt>
   <trkpt lat="45.780263" lon="3.202427"><ele>327</ele></trkpt>
   <trkpt lat="45.780242" lon="3.202387"><ele>326.5</ele></trkpt>
   <trkpt lat="45.780215" lon="3.202355"><ele>326.25</ele></trkpt>
   <trkpt lat="45.780184" lon="3.202333"><ele>326.5</ele></trkpt>
   <trkpt lat="45.780139" lon="3.202319"><ele>326.75</ele></trkpt>
   <trkpt lat="45.780094" lon="3.202324"><ele>327.25</ele></trkpt>
   <trkpt lat="45.780051" lon="3.202347"><ele>327.75</ele></trkpt>
   <trkpt lat="45.780018" lon="3.202382"><ele>328.25</ele></trkpt>
   <trkpt lat="45.779992" lon="3.202429"><ele>328.75</ele></trkpt>
   <trkpt lat="45.779976" lon="3.202483"><ele>329</ele></trkpt>
   <trkpt lat="45.77997" lon="3.202532"><ele>329</ele></trkpt>
   <trkpt lat="45.779981" lon="3.20263"><ele>329</ele></trkpt>
   <trkpt lat="45.779997" lon="3.202674"><ele>329</ele></trkpt>
   <trkpt lat="45.780048" lon="3.202741"><ele>328.25</ele></trkpt>
   <trkpt lat="45.780083" lon="3.2029"><ele>327.25</ele></trkpt>
   <trkpt lat="45.780089" lon="3.202956"><ele>327</ele></trkpt>
   <trkpt lat="45.780078" lon="3.203662"><ele>325.75</ele></trkpt>
   <trkpt lat="45.780075" lon="3.203703"><ele>325.75</ele></trkpt>
   <trkpt lat="45.780053" lon="3.203796"><ele>325.75</ele></trkpt>
   <trkpt lat="45.780023" lon="3.203862"><ele>325.75</ele></trkpt>
   <trkpt lat="45.77999" lon="3.203905"><ele>326</ele></trkpt>
   <trkpt lat="45.779955" lon="3.203937"><ele>326</ele></trkpt>
   <trkpt lat="45.779915" lon="3.203954"><ele>326</ele></trkpt>
   <trkpt lat="45.77987" lon="3.203959"><ele>326</ele></trkpt>
   <trkpt lat="45.77983" lon="3.203957"><ele>326</ele></trkpt>
   <trkpt lat="45.779788" lon="3.203942"><ele>326</ele></trkpt>
   <trkpt lat="45.779744" lon="3.203909"><ele>326</ele></trkpt>
   <trkpt lat="45.779697" lon="3.203863"><ele>326</ele></trkpt>
   <trkpt lat="45.779545" lon="3.203672"><ele>326</ele></trkpt>
   <trkpt lat="45.779642" lon="3.203869"><ele>326</ele></trkpt>
   <trkpt lat="45.780131" lon="3.204873"><ele>326</ele></trkpt>
   <trkpt lat="45.780622" lon="3.205851"><ele>324.75</ele></trkpt>
   <trkpt lat="45.780642" lon="3.205898"><ele>324.75</ele></trkpt>
   <trkpt lat="45.780733" lon="3.206077"><ele>325</ele></trkpt>
   <trkpt lat="45.780864" lon="3.206337"><ele>325.5</ele></trkpt>
   <trkpt lat="45.781389" lon="3.207269"><ele>325.75</ele></trkpt>
   <trkpt lat="45.781571" lon="3.207621"><ele>325.75</ele></trkpt>
   <trkpt lat="45.782001" lon="3.208455"><ele>326.5</ele></trkpt>
   <trkpt lat="45.783308" lon="3.211005"><ele>327</ele></trkpt>
   <trkpt lat="45.783553" lon="3.211499"><ele>327</ele></trkpt>
   <trkpt lat="45.783626" lon="3.21169"><ele>326.75</ele></trkpt>
   <trkpt lat="45.78371" lon="3.211948"><ele>326.75</ele></trkpt>
   <trkpt lat="45.783833" lon="3.21238"><ele>327.5</ele></trkpt>
   <trkpt lat="45.783935" lon="3.212811"><ele>327.75</ele></trkpt>
   <trkpt lat="45.784004" lon="3.213021"><ele>327.75</ele></trkpt>
   <trkpt lat="45.784017" lon="3.213173"><ele>328.25</ele></trkpt>
   <trkpt lat="45.784025" lon="3.213373"><ele>329</ele></trkpt>
   <trkpt lat="45.783997" lon="3.213461"><ele>329.25</ele></trkpt>
   <trkpt lat="45.783978" lon="3.213555"><ele>329.5</ele></trkpt>
   <trkpt lat="45.783971" lon="3.21379"><ele>330</ele></trkpt>
   <trkpt lat="45.78402" lon="3.214016"><ele>329.5</ele></trkpt>
   <trkpt lat="45.78412" lon="3.214202"><ele>330</ele></trkpt>
   <trkpt lat="45.784127" lon="3.214522"><ele>329</ele></trkpt>
   <trkpt lat="45.784183" lon="3.214554"><ele>329</ele></trkpt>
   <trkpt lat="45.784233" lon="3.214581"><ele>328.75</ele></trkpt>
   <trkpt lat="45.78434" lon="3.214512"><ele>328.75</ele></trkpt>
   <trkpt lat="45.784407" lon="3.21448"><ele>328.75</ele></trkpt>
   <trkpt lat="45.784459" lon="3.214487"><ele>328.5</ele></trkpt>
   <trkpt lat="45.784506" lon="3.214519"><ele>328.25</ele></trkpt>
   <trkpt lat="45.78453" lon="3.214566"><ele>328</ele></trkpt>
   <trkpt lat="45.784572" lon="3.21457"><ele>328.25</ele></trkpt>
   <trkpt lat="45.784638" lon="3.214563"><ele>328.25</ele></trkpt>
   <trkpt lat="45.784693" lon="3.214548"><ele>328.25</ele></trkpt>
   <trkpt lat="45.784776" lon="3.21565"><ele>327.75</ele></trkpt>
   <trkpt lat="45.784797" lon="3.215851"><ele>328</ele></trkpt>
   <trkpt lat="45.784852" lon="3.216307"><ele>328.5</ele></trkpt>
   <trkpt lat="45.78494" lon="3.2168"><ele>328.75</ele></trkpt>
   <trkpt lat="45.784942" lon="3.216884"><ele>329</ele></trkpt>
   <trkpt lat="45.784918" lon="3.217078"><ele>329.75</ele></trkpt>
   <trkpt lat="45.784809" lon="3.217483"><ele>330.5</ele></trkpt>
   <trkpt lat="45.784811" lon="3.217541"><ele>330.75</ele></trkpt>
   <trkpt lat="45.784857" lon="3.217716"><ele>330.75</ele></trkpt>
   <trkpt lat="45.784842" lon="3.217851"><ele>331.25</ele></trkpt>
   <trkpt lat="45.784848" lon="3.217922"><ele>331.25</ele></trkpt>
   <trkpt lat="45.784893" lon="3.218032"><ele>331.25</ele></trkpt>
   <trkpt lat="45.784925" lon="3.218186"><ele>331.5</ele></trkpt>
   <trkpt lat="45.785293" lon="3.21897"><ele>332</ele></trkpt>
   <trkpt lat="45.786587" lon="3.22166"><ele>335.25</ele></trkpt>
   <trkpt lat="45.786579" lon="3.221757"><ele>335.25</ele></trkpt>
   <trkpt lat="45.786689" lon="3.221951"><ele>335</ele></trkpt>
   <trkpt lat="45.78725" lon="3.223056"><ele>334.5</ele></trkpt>
   <trkpt lat="45.787663" lon="3.223882"><ele>335.25</ele></trkpt>
   <trkpt lat="45.78787" lon="3.224297"><ele>335</ele></trkpt>
   <trkpt lat="45.78783" lon="3.224348"><ele>335.25</ele></trkpt>
   <trkpt lat="45.787804" lon="3.224415"><ele>335.75</ele></trkpt>
   <trkpt lat="45.787794" lon="3.224491"><ele>336</ele></trkpt>
   <trkpt lat="45.787802" lon="3.224567"><ele>336.25</ele></trkpt>
   <trkpt lat="45.787827" lon="3.224636"><ele>336.25</ele></trkpt>
   <trkpt lat="45.787865" lon="3.224689"><ele>336.25</ele></trkpt>
   <trkpt lat="45.787914" lon="3.224722"><ele>336</ele></trkpt>
   <trkpt lat="45.787967" lon="3.224731"><ele>335.5</ele></trkpt>
   <trkpt lat="45.78802" lon="3.224714"><ele>335.25</ele></trkpt>
   <trkpt lat="45.788066" lon="3.224675"><ele>334.75</ele></trkpt>
   <trkpt lat="45.7881" lon="3.224616"><ele>334.75</ele></trkpt>
   <trkpt lat="45.78812" lon="3.224545"><ele>334.5</ele></trkpt>
   <trkpt lat="45.78818" lon="3.224625"><ele>334.25</ele></trkpt>
   <trkpt lat="45.788524" lon="3.224857"><ele>333</ele></trkpt>
   <trkpt lat="45.788881" lon="3.225264"><ele>333</ele></trkpt>
   <trkpt lat="45.788925" lon="3.225351"><ele>333</ele></trkpt>
   <trkpt lat="45.788936" lon="3.225459"><ele>333.25</ele></trkpt>
   <trkpt lat="45.788886" lon="3.226028"><ele>335</ele></trkpt>
   <trkpt lat="45.78883" lon="3.227062"><ele>335.75</ele></trkpt>
   <trkpt lat="45.788757" lon="3.228055"><ele>338.75</ele></trkpt>
   <trkpt lat="45.788655" lon="3.229226"><ele>344.25</ele></trkpt>
   <trkpt lat="45.788558" lon="3.230062"><ele>348.25</ele></trkpt>
   <trkpt lat="45.788518" lon="3.230497"><ele>347.25</ele></trkpt>
   <trkpt lat="45.7885" lon="3.230887"><ele>347</ele></trkpt>
   <trkpt lat="45.788508" lon="3.231502"><ele>343.75</ele></trkpt>
   <trkpt lat="45.788531" lon="3.232083"><ele>341</ele></trkpt>
   <trkpt lat="45.788572" lon="3.233652"><ele>332.5</ele></trkpt>
   <trkpt lat="45.78858" lon="3.233961"><ele>330.5</ele></trkpt>
   <trkpt lat="45.788568" lon="3.234457"><ele>329.75</ele></trkpt>
   <trkpt lat="45.788481" lon="3.235964"><ele>327.25</ele></trkpt>
   <trkpt lat="45.788462" lon="3.236544"><ele>326</ele></trkpt>
   <trkpt lat="45.788424" lon="3.237256"><ele>325.25</ele></trkpt>
   <trkpt lat="45.788417" lon="3.237692"><ele>325.25</ele></trkpt>
   <trkpt lat="45.788369" lon="3.238518"><ele>326</ele></trkpt>
   <trkpt lat="45.788328" lon="3.238509"><ele>325.75</ele></trkpt>
   <trkpt lat="45.788325" lon="3.238552"><ele>325.75</ele></trkpt>
   <trkpt lat="45.788319" lon="3.238622"><ele>325.75</ele></trkpt>
   <trkpt lat="45.788201" lon="3.242048"><ele>322.5</ele></trkpt>
   <trkpt lat="45.788178" lon="3.242124"><ele>322.25</ele></trkpt>
   <trkpt lat="45.788141" lon="3.242197"><ele>322</ele></trkpt>
   <trkpt lat="45.788063" lon="3.242229"><ele>321.5</ele></trkpt>
   <trkpt lat="45.788015" lon="3.242217"><ele>318</ele></trkpt>
   <trkpt lat="45.78754" lon="3.242098"><ele>318</ele></trkpt>
   <trkpt lat="45.786589" lon="3.241778"><ele>320</ele></trkpt>
   <trkpt lat="45.786274" lon="3.241651"><ele>322</ele></trkpt>
   <trkpt lat="45.786104" lon="3.241561"><ele>321.5</ele></trkpt>
   <trkpt lat="45.785835" lon="3.241372"><ele>323</ele></trkpt>
   <trkpt lat="45.78566" lon="3.241326"><ele>323</ele></trkpt>
   <trkpt lat="45.785579" lon="3.241328"><ele>323</ele></trkpt>
   <trkpt lat="45.785118" lon="3.241424"><ele>324</ele></trkpt>
   <trkpt lat="45.784885" lon="3.241483"><ele>324.25</ele></trkpt>
   <trkpt lat="45.784791" lon="3.241522"><ele>324.25</ele></trkpt>
   <trkpt lat="45.783867" lon="3.242076"><ele>324.5</ele></trkpt>
   <trkpt lat="45.783318" lon="3.242316"><ele>323.25</ele></trkpt>
   <trkpt lat="45.783217" lon="3.242388"><ele>322.75</ele></trkpt>
   <trkpt lat="45.783109" lon="3.242482"><ele>322.5</ele></trkpt>
   <trkpt lat="45.782632" lon="3.242926"><ele>318.75</ele></trkpt>
   <trkpt lat="45.782467" lon="3.243049"><ele>318</ele></trkpt>
   <trkpt lat="45.782292" lon="3.243142"><ele>316.75</ele></trkpt>
   <trkpt lat="45.781666" lon="3.243363"><ele>316.75</ele></trkpt>
   <trkpt lat="45.781303" lon="3.24341"><ele>317.5</ele></trkpt>
   <trkpt lat="45.7811" lon="3.243436"><ele>317.5</ele></trkpt>
   <trkpt lat="45.781057" lon="3.243476"><ele>317.5</ele></trkpt>
   <trkpt lat="45.781035" lon="3.243522"><ele>317.5</ele></trkpt>
   <trkpt lat="45.781027" lon="3.243573"><ele>317.25</ele></trkpt>
   <trkpt lat="45.781007" lon="3.244076"><ele>315.25</ele></trkpt>
   <trkpt lat="45.780986" lon="3.244317"><ele>314.25</ele></trkpt>
   <trkpt lat="45.780972" lon="3.244429"><ele>314</ele></trkpt>
   <trkpt lat="45.780944" lon="3.244497"><ele>314</ele></trkpt>
   <trkpt lat="45.780912" lon="3.244522"><ele>314.25</ele></trkpt>
   <trkpt lat="45.780882" lon="3.244524"><ele>314.25</ele></trkpt>
   <trkpt lat="45.780645" lon="3.244471"><ele>314.5</ele></trkpt>
   <trkpt lat="45.780407" lon="3.244429"><ele>315.5</ele></trkpt>
   <trkpt lat="45.780227" lon="3.244439"><ele>316</ele></trkpt>
   <trkpt lat="45.77997" lon="3.244507"><ele>315.75</ele></trkpt>
   <trkpt lat="45.779438" lon="3.244634"><ele>316</ele></trkpt>
   <trkpt lat="45.779277" lon="3.244661"><ele>316</ele></trkpt>
   <trkpt lat="45.779107" lon="3.244674"><ele>315.75</ele></trkpt>
   <trkpt lat="45.779026" lon="3.24467"><ele>315.5</ele></trkpt>
   <trkpt lat="45.778909" lon="3.244642"><ele>315.25</ele></trkpt>
   <trkpt lat="45.778611" lon="3.244503"><ele>315.5</ele></trkpt>
   <trkpt lat="45.77831" lon="3.244296"><ele>315.25</ele></trkpt>
   <trkpt lat="45.778192" lon="3.244179"><ele>315.25</ele></trkpt>
   <trkpt lat="45.777859" lon="3.24376"><ele>315.25</ele></trkpt>
   <trkpt lat="45.777742" lon="3.24359"><ele>316.25</ele></trkpt>
   <trkpt lat="45.777682" lon="3.243357"><ele>315.75</ele></trkpt>
   <trkpt lat="45.777555" lon="3.2427"><ele>317.25</ele></trkpt>
   <trkpt lat="45.777526" lon="3.242443"><ele>318.25</ele></trkpt>
   <trkpt lat="45.777529" lon="3.24226"><ele>319</ele></trkpt>
   <trkpt lat="45.777553" lon="3.242094"><ele>317.75</ele></trkpt>
   <trkpt lat="45.777751" lon="3.241381"><ele>317</ele></trkpt>
   <trkpt lat="45.777929" lon="3.240967"><ele>315</ele></trkpt>
   <trkpt lat="45.778257" lon="3.240348"><ele>315.25</ele></trkpt>
   <trkpt lat="45.7784" lon="3.240023"><ele>316</ele></trkpt>
   <trkpt lat="45.778437" lon="3.239863"><ele>315</ele></trkpt>
   <trkpt lat="45.778497" lon="3.23944"><ele>314.25</ele></trkpt>
   <trkpt lat="45.778511" lon="3.239271"><ele>314.75</ele></trkpt>
   <trkpt lat="45.778548" lon="3.239105"><ele>314.75</ele></trkpt>
   <trkpt lat="45.778602" lon="3.239023"><ele>314.75</ele></trkpt>
   <trkpt lat="45.778676" lon="3.238957"><ele>314.75</ele></trkpt>
   <trkpt lat="45.778745" lon="3.238879"><ele>314.75</ele></trkpt>
   <trkpt lat="45.778785" lon="3.238791"><ele>314.75</ele></trkpt>
   <trkpt lat="45.778814" lon="3.238673"><ele>315</ele></trkpt>
   <trkpt lat="45.778881" lon="3.238403"><ele>315</ele></trkpt>
   <trkpt lat="45.778906" lon="3.238219"><ele>315</ele></trkpt>
   <trkpt lat="45.77889" lon="3.238046"><ele>315</ele></trkpt>
   <trkpt lat="45.778858" lon="3.237898"><ele>315</ele></trkpt>
   <trkpt lat="45.778807" lon="3.237763"><ele>314.75</ele></trkpt>
   <trkpt lat="45.778703" lon="3.237505"><ele>314.5</ele></trkpt>
   <trkpt lat="45.77853" lon="3.23717"><ele>315</ele></trkpt>
   <trkpt lat="45.778145" lon="3.236763"><ele>315.25</ele></trkpt>
   <trkpt lat="45.778009" lon="3.236674"><ele>315.75</ele></trkpt>
   <trkpt lat="45.777853" lon="3.236623"><ele>316.75</ele></trkpt>
   <trkpt lat="45.777728" lon="3.236612"><ele>316.75</ele></trkpt>
   <trkpt lat="45.777512" lon="3.236565"><ele>316.75</ele></trkpt>
   <trkpt lat="45.777246" lon="3.236382"><ele>316.5</ele></trkpt>
   <trkpt lat="45.776962" lon="3.235977"><ele>316.25</ele></trkpt>
   <trkpt lat="45.776625" lon="3.23566"><ele>316.5</ele></trkpt>
   <trkpt lat="45.77635" lon="3.235482"><ele>317.5</ele></trkpt>
   <trkpt lat="45.776143" lon="3.235439"><ele>316.75</ele></trkpt>
   <trkpt lat="45.775838" lon="3.235349"><ele>316.75</ele></trkpt>
   <trkpt lat="45.775603" lon="3.235213"><ele>317</ele></trkpt>
   <trkpt lat="45.775335" lon="3.235041"><ele>317.5</ele></trkpt>
   <trkpt lat="45.775236" lon="3.235044"><ele>318.25</ele></trkpt>
   <trkpt lat="45.775186" lon="3.235083"><ele>318.75</ele></trkpt>
   <trkpt lat="45.775143" lon="3.23514"><ele>319</ele></trkpt>
   <trkpt lat="45.775077" lon="3.235342"><ele>318.25</ele></trkpt>
   <trkpt lat="45.774971" lon="3.235895"><ele>315.25</ele></trkpt>
   <trkpt lat="45.774871" lon="3.236531"><ele>317.25</ele></trkpt>
   <trkpt lat="45.774811" lon="3.237026"><ele>316</ele></trkpt>
   <trkpt lat="45.774766" lon="3.237149"><ele>314.25</ele></trkpt>
   <trkpt lat="45.774727" lon="3.237179"><ele>313.75</ele></trkpt>
   <trkpt lat="45.774678" lon="3.237181"><ele>313.5</ele></trkpt>
   <trkpt lat="45.774532" lon="3.237118"><ele>313.5</ele></trkpt>
   <trkpt lat="45.774494" lon="3.237067"><ele>313.5</ele></trkpt>
   <trkpt lat="45.774469" lon="3.237012"><ele>313.25</ele></trkpt>
   <trkpt lat="45.774463" lon="3.236946"><ele>313.25</ele></trkpt>
   <trkpt lat="45.7746" lon="3.236013"><ele>317</ele></trkpt>
   <trkpt lat="45.774696" lon="3.235252"><ele>315.75</ele></trkpt>
   <trkpt lat="45.774712" lon="3.234999"><ele>316.75</ele></trkpt>
   <trkpt lat="45.77469" lon="3.234872"><ele>317.25</ele></trkpt>
   <trkpt lat="45.774636" lon="3.234726"><ele>317.25</ele></trkpt>
   <trkpt lat="45.774524" lon="3.234591"><ele>317.25</ele></trkpt>
   <trkpt lat="45.774233" lon="3.234382"><ele>316.25</ele></trkpt>
   <trkpt lat="45.774081" lon="3.234307"><ele>315.75</ele></trkpt>
   <trkpt lat="45.773808" lon="3.235175"><ele>315.25</ele></trkpt>
   <trkpt lat="45.773523" lon="3.236015"><ele>315.75</ele></trkpt>
   <trkpt lat="45.773504" lon="3.236074"><ele>315</ele></trkpt>
   <trkpt lat="45.773488" lon="3.236128"><ele>315</ele></trkpt>
   <trkpt lat="45.773216" lon="3.236942"><ele>315</ele></trkpt>
   <trkpt lat="45.772893" lon="3.237895"><ele>315.25</ele></trkpt>
   <trkpt lat="45.772881" lon="3.237934"><ele>315.25</ele></trkpt>
   <trkpt lat="45.772872" lon="3.237963"><ele>316</ele></trkpt>
   <trkpt lat="45.772619" lon="3.238673"><ele>318</ele></trkpt>
   <trkpt lat="45.772582" lon="3.238759"><ele>318.25</ele></trkpt>
   <trkpt lat="45.772475" lon="3.238758"><ele>318.5</ele></trkpt>
   <trkpt lat="45.772628" lon="3.238219"><ele>318.25</ele></trkpt>
   <trkpt lat="45.772674" lon="3.23815"><ele>318.75</ele></trkpt>
   <trkpt lat="45.772731" lon="3.23793"><ele>316.5</ele></trkpt>
   <trkpt lat="45.772759" lon="3.237819"><ele>314</ele></trkpt>
   <trkpt lat="45.772549" lon="3.237803"><ele>314</ele></trkpt>
   <trkpt lat="45.772184" lon="3.237635"><ele>313.5</ele></trkpt>
   <trkpt lat="45.771859" lon="3.237624"><ele>314</ele></trkpt>
   <trkpt lat="45.771804" lon="3.237547"><ele>314</ele></trkpt>
   <trkpt lat="45.771682" lon="3.237506"><ele>314.75</ele></trkpt>
   <trkpt lat="45.771465" lon="3.237438"><ele>314.75</ele></trkpt>
   <trkpt lat="45.771428" lon="3.237416"><ele>314.75</ele></trkpt>
   <trkpt lat="45.771374" lon="3.237344"><ele>315</ele></trkpt>
   <trkpt lat="45.77128" lon="3.237127"><ele>314.5</ele></trkpt>
   <trkpt lat="45.77126" lon="3.237029"><ele>314.25</ele></trkpt>
   <trkpt lat="45.771216" lon="3.236922"><ele>313.75</ele></trkpt>
   <trkpt lat="45.771086" lon="3.236698"><ele>314</ele></trkpt>
   <trkpt lat="45.771056" lon="3.236598"><ele>314</ele></trkpt>
   <trkpt lat="45.771038" lon="3.236471"><ele>314</ele></trkpt>
   <trkpt lat="45.77102" lon="3.236169"><ele>314</ele></trkpt>
   <trkpt lat="45.771063" lon="3.23508"><ele>313</ele></trkpt>
   <trkpt lat="45.771017" lon="3.234958"><ele>313.25</ele></trkpt>
   <trkpt lat="45.770942" lon="3.234888"><ele>313.5</ele></trkpt>
   <trkpt lat="45.770881" lon="3.234886"><ele>313.75</ele></trkpt>
   <trkpt lat="45.770844" lon="3.234899"><ele>313.75</ele></trkpt>
   <trkpt lat="45.770808" lon="3.234927"><ele>314</ele></trkpt>
   <trkpt lat="45.770752" lon="3.23499"><ele>314</ele></trkpt>
   <trkpt lat="45.770698" lon="3.23503"><ele>314</ele></trkpt>
   <trkpt lat="45.770573" lon="3.235066"><ele>314</ele></trkpt>
   <trkpt lat="45.770449" lon="3.235108"><ele>313.75</ele></trkpt>
   <trkpt lat="45.770404" lon="3.235147"><ele>313.5</ele></trkpt>
   <trkpt lat="45.770374" lon="3.235188"><ele>313.75</ele></trkpt>
   <trkpt lat="45.770006" lon="3.2359"><ele>313.75</ele></trkpt>
   <trkpt lat="45.769843" lon="3.236198"><ele>313.5</ele></trkpt>
   <trkpt lat="45.769788" lon="3.236294"><ele>313.75</ele></trkpt>
   <trkpt lat="45.769724" lon="3.236372"><ele>313.75</ele></trkpt>
   <trkpt lat="45.769386" lon="3.23659"><ele>314</ele></trkpt>
   <trkpt lat="45.769288" lon="3.236613"><ele>314</ele></trkpt>
   <trkpt lat="45.769228" lon="3.236599"><ele>314</ele></trkpt>
   <trkpt lat="45.768801" lon="3.236413"><ele>314</ele></trkpt>
   <trkpt lat="45.768409" lon="3.236144"><ele>314</ele></trkpt>
   <trkpt lat="45.767866" lon="3.235845"><ele>314</ele></trkpt>
   <trkpt lat="45.767496" lon="3.235613"><ele>314</ele></trkpt>
   <trkpt lat="45.767087" lon="3.235453"><ele>314</ele></trkpt>
   <trkpt lat="45.766485" lon="3.235135"><ele>315</ele></trkpt>
   <trkpt lat="45.766329" lon="3.235066"><ele>315</ele></trkpt>
   <trkpt lat="45.766239" lon="3.235014"><ele>315</ele></trkpt>
   <trkpt lat="45.766157" lon="3.234938"><ele>315</ele></trkpt>
   <trkpt lat="45.766065" lon="3.234873"><ele>315</ele></trkpt>
   <trkpt lat="45.765873" lon="3.234766"><ele>315</ele></trkpt>
   <trkpt lat="45.765497" lon="3.234555"><ele>315</ele></trkpt>
   <trkpt lat="45.765275" lon="3.234414"><ele>315</ele></trkpt>
   <trkpt lat="45.765222" lon="3.234389"><ele>315</ele></trkpt>
   <trkpt lat="45.765156" lon="3.234394"><ele>315</ele></trkpt>
   <trkpt lat="45.764534" lon="3.234549"><ele>315.5</ele></trkpt>
   <trkpt lat="45.7642" lon="3.234619"><ele>316</ele></trkpt>
   <trkpt lat="45.764086" lon="3.234635"><ele>316</ele></trkpt>
   <trkpt lat="45.763978" lon="3.234619"><ele>316</ele></trkpt>
   <trkpt lat="45.763883" lon="3.234576"><ele>316</ele></trkpt>
   <trkpt lat="45.76374" lon="3.234427"><ele>316</ele></trkpt>
   <trkpt lat="45.763407" lon="3.233746"><ele>315.75</ele></trkpt>
   <trkpt lat="45.763111" lon="3.233818"><ele>316</ele></trkpt>
   <trkpt lat="45.762816" lon="3.233842"><ele>316</ele></trkpt>
   <trkpt lat="45.762587" lon="3.233835"><ele>316.5</ele></trkpt>
   <trkpt lat="45.76238" lon="3.233767"><ele>317.5</ele></trkpt>
   <trkpt lat="45.761925" lon="3.233544"><ele>318.25</ele></trkpt>
   <trkpt lat="45.761345" lon="3.233289"><ele>320.75</ele></trkpt>
   <trkpt lat="45.760915" lon="3.233028"><ele>320.75</ele></trkpt>
   <trkpt lat="45.760519" lon="3.232757"><ele>321</ele></trkpt>
   <trkpt lat="45.759915" lon="3.232267"><ele>322.75</ele></trkpt>
   <trkpt lat="45.75968" lon="3.232051"><ele>323.75</ele></trkpt>
   <trkpt lat="45.758744" lon="3.231287"><ele>323.75</ele></trkpt>
   <trkpt lat="45.758499" lon="3.231065"><ele>323.75</ele></trkpt>
   <trkpt lat="45.757434" lon="3.229949"><ele>323</ele></trkpt>
   <trkpt lat="45.757217" lon="3.229739"><ele>323</ele></trkpt>
   <trkpt lat="45.757156" lon="3.229679"><ele>322.75</ele></trkpt>
   <trkpt lat="45.75714" lon="3.229654"><ele>322.5</ele></trkpt>
   <trkpt lat="45.756945" lon="3.229299"><ele>321.25</ele></trkpt>
   <trkpt lat="45.756829" lon="3.229058"><ele>320.25</ele></trkpt>
   <trkpt lat="45.756732" lon="3.228833"><ele>319</ele></trkpt>
   <trkpt lat="45.756618" lon="3.22844"><ele>317.25</ele></trkpt>
   <trkpt lat="45.75654" lon="3.228078"><ele>316.25</ele></trkpt>
   <trkpt lat="45.756531" lon="3.227952"><ele>316.25</ele></trkpt>
   <trkpt lat="45.756629" lon="3.227606"><ele>316.5</ele></trkpt>
   <trkpt lat="45.756654" lon="3.227497"><ele>317</ele></trkpt>
   <trkpt lat="45.756657" lon="3.227381"><ele>317</ele></trkpt>
   <trkpt lat="45.756634" lon="3.227275"><ele>317</ele></trkpt>
   <trkpt lat="45.75649" lon="3.226781"><ele>317</ele></trkpt>
   <trkpt lat="45.756416" lon="3.226488"><ele>316.75</ele></trkpt>
   <trkpt lat="45.75635" lon="3.226291"><ele>316.5</ele></trkpt>
   <trkpt lat="45.75612" lon="3.225186"><ele>316.75</ele></trkpt>
   <trkpt lat="45.755756" lon="3.223423"><ele>317</ele></trkpt>
   <trkpt lat="45.755735" lon="3.223329"><ele>317.25</ele></trkpt>
   <trkpt lat="45.755734" lon="3.223328"><ele>317.25</ele></trkpt>
   <trkpt lat="45.755734" lon="3.223326"><ele>317.25</ele></trkpt>
   <trkpt lat="45.755136" lon="3.220694"><ele>318</ele></trkpt>
   <trkpt lat="45.755086" lon="3.220627"><ele>318</ele></trkpt>
   <trkpt lat="45.754861" lon="3.220504"><ele>318</ele></trkpt>
   <trkpt lat="45.754736" lon="3.220387"><ele>318</ele></trkpt>
   <trkpt lat="45.754522" lon="3.220163"><ele>318</ele></trkpt>
   <trkpt lat="45.754436" lon="3.220088"><ele>318</ele></trkpt>
   <trkpt lat="45.754359" lon="3.220041"><ele>318</ele></trkpt>
   <trkpt lat="45.754269" lon="3.220041"><ele>318</ele></trkpt>
   <trkpt lat="45.754201" lon="3.220071"><ele>318</ele></trkpt>
   <trkpt lat="45.754139" lon="3.220118"><ele>317.75</ele></trkpt>
   <trkpt lat="45.753965" lon="3.220281"><ele>318.5</ele></trkpt>
   <trkpt lat="45.753703" lon="3.220491"><ele>318.25</ele></trkpt>
   <trkpt lat="45.753582" lon="3.220577"><ele>318.5</ele></trkpt>
   <trkpt lat="45.753457" lon="3.220651"><ele>317.75</ele></trkpt>
   <trkpt lat="45.753191" lon="3.220791"><ele>317.5</ele></trkpt>
   <trkpt lat="45.752539" lon="3.221079"><ele>317.75</ele></trkpt>
   <trkpt lat="45.752427" lon="3.22111"><ele>317.75</ele></trkpt>
   <trkpt lat="45.752318" lon="3.221101"><ele>317.75</ele></trkpt>
   <trkpt lat="45.752023" lon="3.221054"><ele>317.75</ele></trkpt>
   <trkpt lat="45.751702" lon="3.220993"><ele>317.5</ele></trkpt>
   <trkpt lat="45.751014" lon="3.220834"><ele>318.75</ele></trkpt>
   <trkpt lat="45.750342" lon="3.220664"><ele>318.5</ele></trkpt>
   <trkpt lat="45.75019" lon="3.220635"><ele>319</ele></trkpt>
   <trkpt lat="45.749521" lon="3.22051"><ele>319</ele></trkpt>
   <trkpt lat="45.7494" lon="3.220438"><ele>319</ele></trkpt>
   <trkpt lat="45.749346" lon="3.22057"><ele>318.75</ele></trkpt>
   <trkpt lat="45.749252" lon="3.220667"><ele>318.5</ele></trkpt>
   <trkpt lat="45.749161" lon="3.220734"><ele>318.25</ele></trkpt>
   <trkpt lat="45.748972" lon="3.220833"><ele>318.5</ele></trkpt>
   <trkpt lat="45.748875" lon="3.220875"><ele>319</ele></trkpt>
   <trkpt lat="45.748766" lon="3.220911"><ele>319</ele></trkpt>
   <trkpt lat="45.748671" lon="3.220924"><ele>319</ele></trkpt>
   <trkpt lat="45.748621" lon="3.220917"><ele>319</ele></trkpt>
   <trkpt lat="45.748538" lon="3.220947"><ele>318.75</ele></trkpt>
   <trkpt lat="45.748328" lon="3.221055"><ele>318.75</ele></trkpt>
   <trkpt lat="45.746683" lon="3.222023"><ele>319</ele></trkpt>
   <trkpt lat="45.745975" lon="3.222403"><ele>319.75</ele></trkpt>
   <trkpt lat="45.745892" lon="3.22248"><ele>319.75</ele></trkpt>
   <trkpt lat="45.745804" lon="3.222611"><ele>320</ele></trkpt>
   <trkpt lat="45.745519" lon="3.223661"><ele>320</ele></trkpt>
   <trkpt lat="45.745368" lon="3.224382"><ele>319.5</ele></trkpt>
   <trkpt lat="45.7453" lon="3.224644"><ele>319.25</ele></trkpt>
   <trkpt lat="45.745199" lon="3.225135"><ele>320.25</ele></trkpt>
   <trkpt lat="45.74501" lon="3.225871"><ele>319.75</ele></trkpt>
   <trkpt lat="45.74489" lon="3.226459"><ele>321.25</ele></trkpt>
   <trkpt lat="45.744838" lon="3.226646"><ele>319.75</ele></trkpt>
   <trkpt lat="45.744789" lon="3.226739"><ele>319.5</ele></trkpt>
   <trkpt lat="45.744685" lon="3.226802"><ele>319.5</ele></trkpt>
   <trkpt lat="45.743856" lon="3.227057"><ele>320</ele></trkpt>
   <trkpt lat="45.743705" lon="3.227122"><ele>320</ele></trkpt>
   <trkpt lat="45.743585" lon="3.227265"><ele>319.75</ele></trkpt>
   <trkpt lat="45.742622" lon="3.228428"><ele>319</ele></trkpt>
   <trkpt lat="45.742498" lon="3.228476"><ele>319.5</ele></trkpt>
   <trkpt lat="45.741629" lon="3.228532"><ele>320</ele></trkpt>
   <trkpt lat="45.74137" lon="3.228629"><ele>320</ele></trkpt>
   <trkpt lat="45.741243" lon="3.228702"><ele>320</ele></trkpt>
   <trkpt lat="45.741307" lon="3.229154"><ele>320</ele></trkpt>
   <trkpt lat="45.741412" lon="3.229664"><ele>320</ele></trkpt>
   <trkpt lat="45.741531" lon="3.229935"><ele>320</ele></trkpt>
   <trkpt lat="45.741641" lon="3.23025"><ele>320</ele></trkpt>
   <trkpt lat="45.74178" lon="3.230989"><ele>319</ele></trkpt>
   <trkpt lat="45.741787" lon="3.231116"><ele>319</ele></trkpt>
   <trkpt lat="45.741802" lon="3.231233"><ele>319</ele></trkpt>
   <trkpt lat="45.74179" lon="3.231448"><ele>319.75</ele></trkpt>
   <trkpt lat="45.741735" lon="3.231607"><ele>321.25</ele></trkpt>
   <trkpt lat="45.741727" lon="3.231645"><ele>321.5</ele></trkpt>
   <trkpt lat="45.741303" lon="3.23128"><ele>320.25</ele></trkpt>
   <trkpt lat="45.740812" lon="3.230924"><ele>320</ele></trkpt>
   <trkpt lat="45.740514" lon="3.230766"><ele>320.5</ele></trkpt>
   <trkpt lat="45.740193" lon="3.230637"><ele>320</ele></trkpt>
   <trkpt lat="45.739878" lon="3.230532"><ele>320.5</ele></trkpt>
   <trkpt lat="45.738765" lon="3.23032"><ele>320.25</ele></trkpt>
   <trkpt lat="45.738687" lon="3.230311"><ele>320.5</ele></trkpt>
   <trkpt lat="45.737291" lon="3.230049"><ele>320.75</ele></trkpt>
   <trkpt lat="45.735008" lon="3.229609"><ele>321</ele></trkpt>
   <trkpt lat="45.733444" lon="3.229175"><ele>321.5</ele></trkpt>
   <trkpt lat="45.731554" lon="3.228585"><ele>321.5</ele></trkpt>
   <trkpt lat="45.731354" lon="3.228531"><ele>321</ele></trkpt>
   <trkpt lat="45.730928" lon="3.228383"><ele>321</ele></trkpt>
   <trkpt lat="45.730662" lon="3.228238"><ele>321</ele></trkpt>
   <trkpt lat="45.730462" lon="3.228114"><ele>321.25</ele></trkpt>
   <trkpt lat="45.730298" lon="3.228026"><ele>321.75</ele></trkpt>
   <trkpt lat="45.730201" lon="3.22793"><ele>321.5</ele></trkpt>
   <trkpt lat="45.730195" lon="3.227821"><ele>321.25</ele></trkpt>
   <trkpt lat="45.730164" lon="3.227722"><ele>321.25</ele></trkpt>
   <trkpt lat="45.730113" lon="3.227641"><ele>321.5</ele></trkpt>
   <trkpt lat="45.730046" lon="3.227589"><ele>321.75</ele></trkpt>
   <trkpt lat="45.729971" lon="3.227571"><ele>322</ele></trkpt>
   <trkpt lat="45.729901" lon="3.227585"><ele>322</ele></trkpt>
   <trkpt lat="45.729838" lon="3.227629"><ele>322</ele></trkpt>
   <trkpt lat="45.729787" lon="3.227699"><ele>322</ele></trkpt>
   <trkpt lat="45.729752" lon="3.227787"><ele>322</ele></trkpt>
   <trkpt lat="45.729661" lon="3.22787"><ele>322</ele></trkpt>
   <trkpt lat="45.729592" lon="3.227883"><ele>322</ele></trkpt>
   <trkpt lat="45.729346" lon="3.227811"><ele>322</ele></trkpt>
   <trkpt lat="45.728408" lon="3.22725"><ele>322.5</ele></trkpt>
   <trkpt lat="45.728287" lon="3.227173"><ele>322.5</ele></trkpt>
   <trkpt lat="45.728163" lon="3.227071"><ele>322.5</ele></trkpt>
   <trkpt lat="45.727261" lon="3.226329"><ele>322.5</ele></trkpt>
   <trkpt lat="45.7263" lon="3.225525"><ele>325.5</ele></trkpt>
   <trkpt lat="45.726212" lon="3.225466"><ele>326.25</ele></trkpt>
   <trkpt lat="45.72597" lon="3.225304"><ele>328.75</ele></trkpt>
   <trkpt lat="45.725851" lon="3.225241"><ele>329.75</ele></trkpt>
   <trkpt lat="45.725742" lon="3.225194"><ele>330.25</ele></trkpt>
   <trkpt lat="45.725592" lon="3.225156"><ele>331</ele></trkpt>
   <trkpt lat="45.725101" lon="3.225069"><ele>332.75</ele></trkpt>
   <trkpt lat="45.72502" lon="3.225055"><ele>332.75</ele></trkpt>
   <trkpt lat="45.723601" lon="3.224785"><ele>334.5</ele></trkpt>
   <trkpt lat="45.723148" lon="3.224693"><ele>333</ele></trkpt>
   <trkpt lat="45.72287" lon="3.224646"><ele>333.75</ele></trkpt>
   <trkpt lat="45.722771" lon="3.224619"><ele>334.25</ele></trkpt>
   <trkpt lat="45.722459" lon="3.224532"><ele>335.25</ele></trkpt>
   <trkpt lat="45.721163" lon="3.224009"><ele>334.25</ele></trkpt>
   <trkpt lat="45.721076" lon="3.223974"><ele>334.25</ele></trkpt>
   <trkpt lat="45.719137" lon="3.223122"><ele>335</ele></trkpt>
   <trkpt lat="45.718153" lon="3.222698"><ele>335</ele></trkpt>
   <trkpt lat="45.717197" lon="3.222316"><ele>334.25</ele></trkpt>
   <trkpt lat="45.716935" lon="3.222211"><ele>333.5</ele></trkpt>
   <trkpt lat="45.716308" lon="3.22196"><ele>333.5</ele></trkpt>
   <trkpt lat="45.716039" lon="3.221852"><ele>334</ele></trkpt>
   <trkpt lat="45.715291" lon="3.221572"><ele>333.75</ele></trkpt>
   <trkpt lat="45.714341" lon="3.221132"><ele>335.25</ele></trkpt>
   <trkpt lat="45.713916" lon="3.220989"><ele>335</ele></trkpt>
   <trkpt lat="45.713324" lon="3.220793"><ele>333.5</ele></trkpt>
   <trkpt lat="45.713266" lon="3.220607"><ele>331.5</ele></trkpt>
   <trkpt lat="45.713291" lon="3.220576"><ele>330.75</ele></trkpt>
   <trkpt lat="45.71331" lon="3.220554"><ele>330.75</ele></trkpt>
   <trkpt lat="45.713324" lon="3.220496"><ele>330.75</ele></trkpt>
   <trkpt lat="45.713357" lon="3.220167"><ele>328.5</ele></trkpt>
   <trkpt lat="45.713383" lon="3.220119"><ele>328</ele></trkpt>
   <trkpt lat="45.71341" lon="3.220093"><ele>327.5</ele></trkpt>
   <trkpt lat="45.713672" lon="3.220171"><ele>327.75</ele></trkpt>
   <trkpt lat="45.714614" lon="3.220509"><ele>328.25</ele></trkpt>
   <trkpt lat="45.714828" lon="3.220599"><ele>328</ele></trkpt>
   <trkpt lat="45.715255" lon="3.220804"><ele>327.5</ele></trkpt>
   <trkpt lat="45.715364" lon="3.220856"><ele>328</ele></trkpt>
   <trkpt lat="45.715571" lon="3.220919"><ele>328</ele></trkpt>
   <trkpt lat="45.715695" lon="3.220908"><ele>328.5</ele></trkpt>
   <trkpt lat="45.715812" lon="3.220839"><ele>328.75</ele></trkpt>
   <trkpt lat="45.715874" lon="3.220696"><ele>327.75</ele></trkpt>
   <trkpt lat="45.716195" lon="3.22008"><ele>324.5</ele></trkpt>
   <trkpt lat="45.716287" lon="3.219924"><ele>324.25</ele></trkpt>
   <trkpt lat="45.716427" lon="3.219718"><ele>324.75</ele></trkpt>
   <trkpt lat="45.716812" lon="3.21918"><ele>324.5</ele></trkpt>
   <trkpt lat="45.716939" lon="3.218907"><ele>326.75</ele></trkpt>
   <trkpt lat="45.717058" lon="3.218436"><ele>324.25</ele></trkpt>
   <trkpt lat="45.717134" lon="3.218104"><ele>324.5</ele></trkpt>
   <trkpt lat="45.717146" lon="3.217982"><ele>324.75</ele></trkpt>
   <trkpt lat="45.717145" lon="3.217859"><ele>324.75</ele></trkpt>
   <trkpt lat="45.717122" lon="3.217696"><ele>324.5</ele></trkpt>
   <trkpt lat="45.717062" lon="3.217446"><ele>323.5</ele></trkpt>
   <trkpt lat="45.716984" lon="3.21706"><ele>324</ele></trkpt>
   <trkpt lat="45.716857" lon="3.216605"><ele>324.75</ele></trkpt>
   <trkpt lat="45.716785" lon="3.216408"><ele>325.75</ele></trkpt>
   <trkpt lat="45.716605" lon="3.216172"><ele>326</ele></trkpt>
   <trkpt lat="45.716065" lon="3.215305"><ele>325.75</ele></trkpt>
   <trkpt lat="45.715875" lon="3.21504"><ele>325.75</ele></trkpt>
   <trkpt lat="45.715668" lon="3.214711"><ele>323.25</ele></trkpt>
   <trkpt lat="45.715592" lon="3.214506"><ele>324.75</ele></trkpt>
   <trkpt lat="45.715536" lon="3.214264"><ele>324.25</ele></trkpt>
   <trkpt lat="45.715474" lon="3.213943"><ele>322.5</ele></trkpt>
   <trkpt lat="45.715435" lon="3.213591"><ele>322.25</ele></trkpt>
   <trkpt lat="45.715423" lon="3.213279"><ele>322.5</ele></trkpt>
   <trkpt lat="45.715426" lon="3.213124"><ele>322.75</ele></trkpt>
   <trkpt lat="45.715456" lon="3.212942"><ele>323.5</ele></trkpt>
   <trkpt lat="45.715516" lon="3.212816"><ele>325</ele></trkpt>
   <trkpt lat="45.715593" lon="3.212746"><ele>325.5</ele></trkpt>
   <trkpt lat="45.715693" lon="3.212715"><ele>324.75</ele></trkpt>
   <trkpt lat="45.715791" lon="3.212725"><ele>324</ele></trkpt>
   <trkpt lat="45.715952" lon="3.212761"><ele>324.5</ele></trkpt>
   <trkpt lat="45.716125" lon="3.212788"><ele>325.75</ele></trkpt>
   <trkpt lat="45.716258" lon="3.212788"><ele>325.75</ele></trkpt>
   <trkpt lat="45.716844" lon="3.212907"><ele>324.75</ele></trkpt>
   <trkpt lat="45.717525" lon="3.212973"><ele>324.25</ele></trkpt>
   <trkpt lat="45.718208" lon="3.213013"><ele>323.75</ele></trkpt>
   <trkpt lat="45.718403" lon="3.213003"><ele>323.5</ele></trkpt>
   <trkpt lat="45.718593" lon="3.213037"><ele>323.75</ele></trkpt>
   <trkpt lat="45.718799" lon="3.213137"><ele>323</ele></trkpt>
   <trkpt lat="45.71901" lon="3.213262"><ele>322.75</ele></trkpt>
   <trkpt lat="45.719089" lon="3.213284"><ele>322.75</ele></trkpt>
   <trkpt lat="45.719244" lon="3.213249"><ele>322.5</ele></trkpt>
   <trkpt lat="45.719382" lon="3.213235"><ele>322.25</ele></trkpt>
   <trkpt lat="45.719528" lon="3.213321"><ele>322.5</ele></trkpt>
   <trkpt lat="45.719605" lon="3.21343"><ele>322.5</ele></trkpt>
   <trkpt lat="45.719627" lon="3.21357"><ele>323</ele></trkpt>
   <trkpt lat="45.719636" lon="3.213725"><ele>323.25</ele></trkpt>
   <trkpt lat="45.719632" lon="3.213903"><ele>323</ele></trkpt>
   <trkpt lat="45.719618" lon="3.214043"><ele>323</ele></trkpt>
   <trkpt lat="45.719582" lon="3.214226"><ele>323</ele></trkpt>
   <trkpt lat="45.719585" lon="3.214298"><ele>323.25</ele></trkpt>
   <trkpt lat="45.719609" lon="3.214358"><ele>323.75</ele></trkpt>
   <trkpt lat="45.719726" lon="3.214486"><ele>324.75</ele></trkpt>
   <trkpt lat="45.719867" lon="3.214522"><ele>325.25</ele></trkpt>
   <trkpt lat="45.71997" lon="3.214523"><ele>325.75</ele></trkpt>
   <trkpt lat="45.720344" lon="3.21474"><ele>326</ele></trkpt>
   <trkpt lat="45.720691" lon="3.214903"><ele>326</ele></trkpt>
   <trkpt lat="45.720737" lon="3.214937"><ele>326</ele></trkpt>
   <trkpt lat="45.720765" lon="3.214946"><ele>326</ele></trkpt>
   <trkpt lat="45.720789" lon="3.214943"><ele>326</ele></trkpt>
   <trkpt lat="45.720869" lon="3.214898"><ele>326</ele></trkpt>
   <trkpt lat="45.720968" lon="3.214892"><ele>326</ele></trkpt>
   <trkpt lat="45.721058" lon="3.21491"><ele>326</ele></trkpt>
   <trkpt lat="45.721373" lon="3.215078"><ele>326</ele></trkpt>
   <trkpt lat="45.721485" lon="3.215167"><ele>326.5</ele></trkpt>
   <trkpt lat="45.721551" lon="3.215206"><ele>327</ele></trkpt>
   <trkpt lat="45.721579" lon="3.215206"><ele>327</ele></trkpt>
   <trkpt lat="45.721681" lon="3.215138"><ele>327.5</ele></trkpt>
   <trkpt lat="45.721965" lon="3.214809"><ele>327.25</ele></trkpt>
   <trkpt lat="45.722032" lon="3.214712"><ele>327.25</ele></trkpt>
   <trkpt lat="45.722092" lon="3.214664"><ele>327.5</ele></trkpt>
   <trkpt lat="45.722131" lon="3.214643"><ele>327.5</ele></trkpt>
   <trkpt lat="45.722193" lon="3.214627"><ele>327.75</ele></trkpt>
   <trkpt lat="45.722258" lon="3.214642"><ele>327.75</ele></trkpt>
   <trkpt lat="45.722324" lon="3.214669"><ele>327.5</ele></trkpt>
   <trkpt lat="45.722462" lon="3.214745"><ele>326.75</ele></trkpt>
   <trkpt lat="45.722665" lon="3.214819"><ele>325.75</ele></trkpt>
   <trkpt lat="45.722995" lon="3.214869"><ele>326.5</ele></trkpt>
   <trkpt lat="45.723283" lon="3.214895"><ele>327</ele></trkpt>
   <trkpt lat="45.723447" lon="3.214902"><ele>326.5</ele></trkpt>
   <trkpt lat="45.723561" lon="3.214894"><ele>326.25</ele></trkpt>
   <trkpt lat="45.723646" lon="3.214866"><ele>326.25</ele></trkpt>
   <trkpt lat="45.72373" lon="3.214791"><ele>326.25</ele></trkpt>
   <trkpt lat="45.723775" lon="3.214736"><ele>326.25</ele></trkpt>
   <trkpt lat="45.723872" lon="3.21459"><ele>325.5</ele></trkpt>
   <trkpt lat="45.723938" lon="3.214515"><ele>325</ele></trkpt>
   <trkpt lat="45.724007" lon="3.214474"><ele>325</ele></trkpt>
   <trkpt lat="45.724085" lon="3.214471"><ele>325</ele></trkpt>
   <trkpt lat="45.72427" lon="3.21449"><ele>325</ele></trkpt>
   <trkpt lat="45.724373" lon="3.214483"><ele>325.5</ele></trkpt>
   <trkpt lat="45.724456" lon="3.214444"><ele>325.75</ele></trkpt>
   <trkpt lat="45.724531" lon="3.214386"><ele>325</ele></trkpt>
   <trkpt lat="45.72472" lon="3.214205"><ele>324</ele></trkpt>
   <trkpt lat="45.725065" lon="3.213902"><ele>323</ele></trkpt>
   <trkpt lat="45.725503" lon="3.21356"><ele>323</ele></trkpt>
   <trkpt lat="45.725601" lon="3.213476"><ele>323</ele></trkpt>
   <trkpt lat="45.725716" lon="3.21335"><ele>323</ele></trkpt>
   <trkpt lat="45.72581" lon="3.213259"><ele>323</ele></trkpt>
   <trkpt lat="45.725913" lon="3.213195"><ele>323.75</ele></trkpt>
   <trkpt lat="45.726006" lon="3.213155"><ele>324.25</ele></trkpt>
   <trkpt lat="45.726237" lon="3.213094"><ele>324.5</ele></trkpt>
   <trkpt lat="45.726714" lon="3.21301"><ele>323</ele></trkpt>
   <trkpt lat="45.727188" lon="3.212969"><ele>323</ele></trkpt>
   <trkpt lat="45.727567" lon="3.213007"><ele>323.5</ele></trkpt>
   <trkpt lat="45.727727" lon="3.213055"><ele>323.75</ele></trkpt>
   <trkpt lat="45.728028" lon="3.21319"><ele>324.25</ele></trkpt>
   <trkpt lat="45.728303" lon="3.213256"><ele>323.25</ele></trkpt>
   <trkpt lat="45.728327" lon="3.213233"><ele>323.25</ele></trkpt>
   <trkpt lat="45.728332" lon="3.213186"><ele>323.5</ele></trkpt>
   <trkpt lat="45.728313" lon="3.213137"><ele>323.75</ele></trkpt>
   <trkpt lat="45.72784" lon="3.212931"><ele>324</ele></trkpt>
   <trkpt lat="45.727601" lon="3.212849"><ele>324.25</ele></trkpt>
   <trkpt lat="45.727398" lon="3.212756"><ele>324</ele></trkpt>
   <trkpt lat="45.727311" lon="3.212663"><ele>323.25</ele></trkpt>
   <trkpt lat="45.727266" lon="3.212559"><ele>323</ele></trkpt>
   <trkpt lat="45.727275" lon="3.212387"><ele>322.5</ele></trkpt>
   <trkpt lat="45.727292" lon="3.212226"><ele>321.75</ele></trkpt>
   <trkpt lat="45.727322" lon="3.212118"><ele>321.25</ele></trkpt>
   <trkpt lat="45.727358" lon="3.211991"><ele>321.25</ele></trkpt>
   <trkpt lat="45.727419" lon="3.211846"><ele>321.75</ele></trkpt>
   <trkpt lat="45.727555" lon="3.211642"><ele>321.5</ele></trkpt>
   <trkpt lat="45.727966" lon="3.212049"><ele>321.25</ele></trkpt>
   <trkpt lat="45.728239" lon="3.21226"><ele>320.25</ele></trkpt>
   <trkpt lat="45.728425" lon="3.212473"><ele>320.5</ele></trkpt>
   <trkpt lat="45.728583" lon="3.212674"><ele>320.5</ele></trkpt>
   <trkpt lat="45.728766" lon="3.212869"><ele>320.5</ele></trkpt>
   <trkpt lat="45.728997" lon="3.213056"><ele>320</ele></trkpt>
   <trkpt lat="45.729197" lon="3.213268"><ele>321</ele></trkpt>
   <trkpt lat="45.729586" lon="3.213609"><ele>322.75</ele></trkpt>
   <trkpt lat="45.729613" lon="3.213665"><ele>322.25</ele></trkpt>
   <trkpt lat="45.729614" lon="3.213734"><ele>322.75</ele></trkpt>
   <trkpt lat="45.729545" lon="3.213936"><ele>324.25</ele></trkpt>
   <trkpt lat="45.729598" lon="3.213941"><ele>322.75</ele></trkpt>
   <trkpt lat="45.729676" lon="3.213949"><ele>322.75</ele></trkpt>
   <trkpt lat="45.72985" lon="3.213979"><ele>321.5</ele></trkpt>
   <trkpt lat="45.729992" lon="3.214058"><ele>321.25</ele></trkpt>
   <trkpt lat="45.730154" lon="3.214197"><ele>321</ele></trkpt>
   <trkpt lat="45.730344" lon="3.214369"><ele>321</ele></trkpt>
   <trkpt lat="45.730535" lon="3.214615"><ele>321.25</ele></trkpt>
   <trkpt lat="45.730643" lon="3.214737"><ele>321</ele></trkpt>
   <trkpt lat="45.730821" lon="3.214906"><ele>321</ele></trkpt>
   <trkpt lat="45.730915" lon="3.215012"><ele>321</ele></trkpt>
   <trkpt lat="45.731049" lon="3.215166"><ele>321</ele></trkpt>
   <trkpt lat="45.731155" lon="3.215347"><ele>321.75</ele></trkpt>
   <trkpt lat="45.731269" lon="3.215413"><ele>321.25</ele></trkpt>
   <trkpt lat="45.731405" lon="3.215578"><ele>321.75</ele></trkpt>
   <trkpt lat="45.731616" lon="3.215773"><ele>322.25</ele></trkpt>
   <trkpt lat="45.73196" lon="3.216073"><ele>322.5</ele></trkpt>
   <trkpt lat="45.73231" lon="3.216333"><ele>322.75</ele></trkpt>
   <trkpt lat="45.732472" lon="3.216388"><ele>322.75</ele></trkpt>
   <trkpt lat="45.732874" lon="3.216414"><ele>321.5</ele></trkpt>
   <trkpt lat="45.733165" lon="3.216412"><ele>321</ele></trkpt>
   <trkpt lat="45.733383" lon="3.216488"><ele>321</ele></trkpt>
   <trkpt lat="45.733564" lon="3.216589"><ele>321.25</ele></trkpt>
   <trkpt lat="45.733712" lon="3.216604"><ele>321.25</ele></trkpt>
   <trkpt lat="45.733994" lon="3.216549"><ele>320.25</ele></trkpt>
   <trkpt lat="45.734083" lon="3.216582"><ele>320.75</ele></trkpt>
   <trkpt lat="45.734152" lon="3.216573"><ele>320.5</ele></trkpt>
   <trkpt lat="45.73429" lon="3.2166"><ele>320.5</ele></trkpt>
   <trkpt lat="45.734336" lon="3.216568"><ele>320</ele></trkpt>
   <trkpt lat="45.734435" lon="3.216584"><ele>320</ele></trkpt>
   <trkpt lat="45.734484" lon="3.216639"><ele>320.25</ele></trkpt>
   <trkpt lat="45.734494" lon="3.216695"><ele>320.5</ele></trkpt>
   <trkpt lat="45.734545" lon="3.216761"><ele>320.25</ele></trkpt>
   <trkpt lat="45.734595" lon="3.216949"><ele>321.25</ele></trkpt>
   <trkpt lat="45.73451" lon="3.216955"><ele>321.75</ele></trkpt>
   <trkpt lat="45.734459" lon="3.217035"><ele>321.75</ele></trkpt>
   <trkpt lat="45.734446" lon="3.217156"><ele>321.75</ele></trkpt>
   <trkpt lat="45.734422" lon="3.21728"><ele>322</ele></trkpt>
   <trkpt lat="45.734433" lon="3.217399"><ele>322</ele></trkpt>
   <trkpt lat="45.734614" lon="3.218387"><ele>321.5</ele></trkpt>
   <trkpt lat="45.734682" lon="3.218776"><ele>321.25</ele></trkpt>
   <trkpt lat="45.735194" lon="3.221556"><ele>321</ele></trkpt>
   <trkpt lat="45.735209" lon="3.221718"><ele>321</ele></trkpt>
   <trkpt lat="45.735104" lon="3.222003"><ele>321</ele></trkpt>
   <trkpt lat="45.735098" lon="3.22205"><ele>321</ele></trkpt>
   <trkpt lat="45.734966" lon="3.223182"><ele>321</ele></trkpt>
   <trkpt lat="45.734907" lon="3.223948"><ele>321</ele></trkpt>
   <trkpt lat="45.734883" lon="3.224397"><ele>321</ele></trkpt>
   <trkpt lat="45.734882" lon="3.224817"><ele>321</ele></trkpt>
   <trkpt lat="45.734916" lon="3.225698"><ele>321</ele></trkpt>
   <trkpt lat="45.734952" lon="3.226403"><ele>321</ele></trkpt>
   <trkpt lat="45.73502" lon="3.229006"><ele>320.75</ele></trkpt>
   <trkpt lat="45.735008" lon="3.229609"><ele>321</ele></trkpt>
   <trkpt lat="45.737291" lon="3.230049"><ele>320.75</ele></trkpt>
   <trkpt lat="45.738687" lon="3.230311"><ele>320.5</ele></trkpt>
   <trkpt lat="45.738765" lon="3.23032"><ele>320.25</ele></trkpt>
   <trkpt lat="45.739878" lon="3.230532"><ele>320.5</ele></trkpt>
   <trkpt lat="45.740193" lon="3.230637"><ele>320</ele></trkpt>
   <trkpt lat="45.740514" lon="3.230766"><ele>320.5</ele></trkpt>
   <trkpt lat="45.740812" lon="3.230924"><ele>320</ele></trkpt>
   <trkpt lat="45.741303" lon="3.23128"><ele>320.25</ele></trkpt>
   <trkpt lat="45.741727" lon="3.231645"><ele>321.5</ele></trkpt>
   <trkpt lat="45.741735" lon="3.231607"><ele>321.25</ele></trkpt>
   <trkpt lat="45.74179" lon="3.231448"><ele>319.75</ele></trkpt>
   <trkpt lat="45.741802" lon="3.231233"><ele>319</ele></trkpt>
   <trkpt lat="45.741787" lon="3.231116"><ele>319</ele></trkpt>
   <trkpt lat="45.74178" lon="3.230989"><ele>319</ele></trkpt>
   <trkpt lat="45.741641" lon="3.23025"><ele>320</ele></trkpt>
   <trkpt lat="45.741531" lon="3.229935"><ele>320</ele></trkpt>
   <trkpt lat="45.741412" lon="3.229664"><ele>320</ele></trkpt>
   <trkpt lat="45.741307" lon="3.229154"><ele>320</ele></trkpt>
   <trkpt lat="45.741243" lon="3.228702"><ele>320</ele></trkpt>
   <trkpt lat="45.74137" lon="3.228629"><ele>320</ele></trkpt>
   <trkpt lat="45.741629" lon="3.228532"><ele>320</ele></trkpt>
   <trkpt lat="45.742498" lon="3.228476"><ele>319.5</ele></trkpt>
   <trkpt lat="45.742622" lon="3.228428"><ele>319</ele></trkpt>
   <trkpt lat="45.743585" lon="3.227265"><ele>319.75</ele></trkpt>
   <trkpt lat="45.743705" lon="3.227122"><ele>320</ele></trkpt>
   <trkpt lat="45.743856" lon="3.227057"><ele>320</ele></trkpt>
   <trkpt lat="45.744685" lon="3.226802"><ele>319.5</ele></trkpt>
   <trkpt lat="45.744789" lon="3.226739"><ele>319.5</ele></trkpt>
   <trkpt lat="45.744838" lon="3.226646"><ele>319.75</ele></trkpt>
   <trkpt lat="45.74489" lon="3.226459"><ele>321.25</ele></trkpt>
   <trkpt lat="45.74501" lon="3.225871"><ele>319.75</ele></trkpt>
   <trkpt lat="45.745199" lon="3.225135"><ele>320.25</ele></trkpt>
   <trkpt lat="45.7453" lon="3.224644"><ele>319.25</ele></trkpt>
   <trkpt lat="45.745368" lon="3.224382"><ele>319.5</ele></trkpt>
   <trkpt lat="45.745519" lon="3.223661"><ele>320</ele></trkpt>
   <trkpt lat="45.745804" lon="3.222611"><ele>320</ele></trkpt>
   <trkpt lat="45.745892" lon="3.22248"><ele>319.75</ele></trkpt>
   <trkpt lat="45.745975" lon="3.222403"><ele>319.75</ele></trkpt>
   <trkpt lat="45.746683" lon="3.222023"><ele>319</ele></trkpt>
   <trkpt lat="45.748328" lon="3.221055"><ele>318.75</ele></trkpt>
   <trkpt lat="45.748538" lon="3.220947"><ele>318.75</ele></trkpt>
   <trkpt lat="45.748621" lon="3.220917"><ele>319</ele></trkpt>
   <trkpt lat="45.748671" lon="3.220924"><ele>319</ele></trkpt>
   <trkpt lat="45.748766" lon="3.220911"><ele>319</ele></trkpt>
   <trkpt lat="45.748875" lon="3.220875"><ele>319</ele></trkpt>
   <trkpt lat="45.748972" lon="3.220833"><ele>318.5</ele></trkpt>
   <trkpt lat="45.749161" lon="3.220734"><ele>318.25</ele></trkpt>
   <trkpt lat="45.749252" lon="3.220667"><ele>318.5</ele></trkpt>
   <trkpt lat="45.749346" lon="3.22057"><ele>318.75</ele></trkpt>
   <trkpt lat="45.7494" lon="3.220438"><ele>319</ele></trkpt>
   <trkpt lat="45.749521" lon="3.22051"><ele>319</ele></trkpt>
   <trkpt lat="45.750342" lon="3.220664"><ele>318.5</ele></trkpt>
   <trkpt lat="45.751014" lon="3.220834"><ele>318.75</ele></trkpt>
   <trkpt lat="45.751578" lon="3.220964"><ele>317.5</ele></trkpt>
   <trkpt lat="45.751702" lon="3.220993"><ele>317.5</ele></trkpt>
   <trkpt lat="45.752023" lon="3.221054"><ele>317.75</ele></trkpt>
   <trkpt lat="45.752318" lon="3.221101"><ele>317.75</ele></trkpt>
   <trkpt lat="45.752427" lon="3.22111"><ele>317.75</ele></trkpt>
   <trkpt lat="45.752539" lon="3.221079"><ele>317.75</ele></trkpt>
   <trkpt lat="45.753191" lon="3.220791"><ele>317.5</ele></trkpt>
   <trkpt lat="45.753457" lon="3.220651"><ele>317.75</ele></trkpt>
   <trkpt lat="45.753582" lon="3.220577"><ele>318.5</ele></trkpt>
   <trkpt lat="45.753703" lon="3.220491"><ele>318.25</ele></trkpt>
   <trkpt lat="45.753965" lon="3.220281"><ele>318.5</ele></trkpt>
   <trkpt lat="45.754139" lon="3.220118"><ele>317.75</ele></trkpt>
   <trkpt lat="45.754201" lon="3.220071"><ele>318</ele></trkpt>
   <trkpt lat="45.754269" lon="3.220041"><ele>318</ele></trkpt>
   <trkpt lat="45.754359" lon="3.220041"><ele>318</ele></trkpt>
   <trkpt lat="45.754436" lon="3.220088"><ele>318</ele></trkpt>
   <trkpt lat="45.754522" lon="3.220163"><ele>318</ele></trkpt>
   <trkpt lat="45.754736" lon="3.220387"><ele>318</ele></trkpt>
   <trkpt lat="45.754861" lon="3.220504"><ele>318</ele></trkpt>
   <trkpt lat="45.755086" lon="3.220627"><ele>318</ele></trkpt>
   <trkpt lat="45.755136" lon="3.220694"><ele>318</ele></trkpt>
   <trkpt lat="45.755734" lon="3.223326"><ele>317.25</ele></trkpt>
   <trkpt lat="45.755734" lon="3.223328"><ele>317.25</ele></trkpt>
   <trkpt lat="45.755735" lon="3.223329"><ele>317.25</ele></trkpt>
   <trkpt lat="45.755756" lon="3.223423"><ele>317</ele></trkpt>
   <trkpt lat="45.75612" lon="3.225186"><ele>316.75</ele></trkpt>
   <trkpt lat="45.75635" lon="3.226291"><ele>316.5</ele></trkpt>
   <trkpt lat="45.756416" lon="3.226488"><ele>316.75</ele></trkpt>
   <trkpt lat="45.75649" lon="3.226781"><ele>317</ele></trkpt>
   <trkpt lat="45.756634" lon="3.227275"><ele>317</ele></trkpt>
   <trkpt lat="45.756657" lon="3.227381"><ele>317</ele></trkpt>
   <trkpt lat="45.756654" lon="3.227497"><ele>317</ele></trkpt>
   <trkpt lat="45.756629" lon="3.227606"><ele>316.5</ele></trkpt>
   <trkpt lat="45.756531" lon="3.227952"><ele>316.25</ele></trkpt>
   <trkpt lat="45.75654" lon="3.228078"><ele>316.25</ele></trkpt>
   <trkpt lat="45.756618" lon="3.22844"><ele>317.25</ele></trkpt>
   <trkpt lat="45.756732" lon="3.228833"><ele>319</ele></trkpt>
   <trkpt lat="45.756829" lon="3.229058"><ele>320.25</ele></trkpt>
   <trkpt lat="45.756945" lon="3.229299"><ele>321.25</ele></trkpt>
   <trkpt lat="45.75714" lon="3.229654"><ele>322.5</ele></trkpt>
   <trkpt lat="45.757156" lon="3.229679"><ele>322.75</ele></trkpt>
   <trkpt lat="45.757217" lon="3.229739"><ele>323</ele></trkpt>
   <trkpt lat="45.757434" lon="3.229949"><ele>323</ele></trkpt>
   <trkpt lat="45.758499" lon="3.231065"><ele>323.75</ele></trkpt>
   <trkpt lat="45.758744" lon="3.231287"><ele>323.75</ele></trkpt>
   <trkpt lat="45.75968" lon="3.232051"><ele>323.75</ele></trkpt>
   <trkpt lat="45.759915" lon="3.232267"><ele>322.75</ele></trkpt>
   <trkpt lat="45.760519" lon="3.232757"><ele>321</ele></trkpt>
   <trkpt lat="45.760915" lon="3.233028"><ele>320.75</ele></trkpt>
   <trkpt lat="45.761345" lon="3.233289"><ele>320.75</ele></trkpt>
   <trkpt lat="45.761925" lon="3.233544"><ele>318.25</ele></trkpt>
   <trkpt lat="45.76238" lon="3.233767"><ele>317.5</ele></trkpt>
   <trkpt lat="45.762587" lon="3.233835"><ele>316.5</ele></trkpt>
   <trkpt lat="45.762816" lon="3.233842"><ele>316</ele></trkpt>
   <trkpt lat="45.763111" lon="3.233818"><ele>316</ele></trkpt>
   <trkpt lat="45.763407" lon="3.233746"><ele>315.75</ele></trkpt>
   <trkpt lat="45.76374" lon="3.234427"><ele>316</ele></trkpt>
   <trkpt lat="45.763883" lon="3.234576"><ele>316</ele></trkpt>
   <trkpt lat="45.763978" lon="3.234619"><ele>316</ele></trkpt>
   <trkpt lat="45.764086" lon="3.234635"><ele>316</ele></trkpt>
   <trkpt lat="45.7642" lon="3.234619"><ele>316</ele></trkpt>
   <trkpt lat="45.764534" lon="3.234549"><ele>315.5</ele></trkpt>
   <trkpt lat="45.765156" lon="3.234394"><ele>315</ele></trkpt>
   <trkpt lat="45.765222" lon="3.234389"><ele>315</ele></trkpt>
   <trkpt lat="45.765275" lon="3.234414"><ele>315</ele></trkpt>
   <trkpt lat="45.765497" lon="3.234555"><ele>315</ele></trkpt>
   <trkpt lat="45.766065" lon="3.234873"><ele>315</ele></trkpt>
   <trkpt lat="45.766157" lon="3.234938"><ele>315</ele></trkpt>
   <trkpt lat="45.766239" lon="3.235014"><ele>315</ele></trkpt>
   <trkpt lat="45.766329" lon="3.235066"><ele>315</ele></trkpt>
   <trkpt lat="45.766485" lon="3.235135"><ele>315</ele></trkpt>
   <trkpt lat="45.767087" lon="3.235453"><ele>314</ele></trkpt>
   <trkpt lat="45.767496" lon="3.235613"><ele>314</ele></trkpt>
   <trkpt lat="45.767866" lon="3.235845"><ele>314</ele></trkpt>
   <trkpt lat="45.768409" lon="3.236144"><ele>314</ele></trkpt>
   <trkpt lat="45.768801" lon="3.236413"><ele>314</ele></trkpt>
   <trkpt lat="45.769228" lon="3.236599"><ele>314</ele></trkpt>
   <trkpt lat="45.769288" lon="3.236613"><ele>314</ele></trkpt>
   <trkpt lat="45.769386" lon="3.23659"><ele>314</ele></trkpt>
   <trkpt lat="45.769724" lon="3.236372"><ele>313.75</ele></trkpt>
   <trkpt lat="45.769788" lon="3.236294"><ele>313.75</ele></trkpt>
   <trkpt lat="45.769843" lon="3.236198"><ele>313.5</ele></trkpt>
   <trkpt lat="45.770006" lon="3.2359"><ele>313.75</ele></trkpt>
   <trkpt lat="45.770374" lon="3.235188"><ele>313.75</ele></trkpt>
   <trkpt lat="45.770404" lon="3.235147"><ele>313.5</ele></trkpt>
   <trkpt lat="45.770449" lon="3.235108"><ele>313.75</ele></trkpt>
   <trkpt lat="45.770573" lon="3.235066"><ele>314</ele></trkpt>
   <trkpt lat="45.770698" lon="3.23503"><ele>314</ele></trkpt>
   <trkpt lat="45.770752" lon="3.23499"><ele>314</ele></trkpt>
   <trkpt lat="45.770808" lon="3.234927"><ele>314</ele></trkpt>
   <trkpt lat="45.770844" lon="3.234899"><ele>313.75</ele></trkpt>
   <trkpt lat="45.770881" lon="3.234886"><ele>313.75</ele></trkpt>
   <trkpt lat="45.770942" lon="3.234888"><ele>313.5</ele></trkpt>
   <trkpt lat="45.771017" lon="3.234958"><ele>313.25</ele></trkpt>
   <trkpt lat="45.771063" lon="3.23508"><ele>313</ele></trkpt>
   <trkpt lat="45.77102" lon="3.236169"><ele>314</ele></trkpt>
   <trkpt lat="45.771038" lon="3.236471"><ele>314</ele></trkpt>
   <trkpt lat="45.771056" lon="3.236598"><ele>314</ele></trkpt>
   <trkpt lat="45.771086" lon="3.236698"><ele>314</ele></trkpt>
   <trkpt lat="45.771216" lon="3.236922"><ele>313.75</ele></trkpt>
   <trkpt lat="45.77126" lon="3.237029"><ele>314.25</ele></trkpt>
   <trkpt lat="45.77128" lon="3.237127"><ele>314.5</ele></trkpt>
   <trkpt lat="45.771374" lon="3.237344"><ele>315</ele></trkpt>
   <trkpt lat="45.771428" lon="3.237416"><ele>314.75</ele></trkpt>
   <trkpt lat="45.771465" lon="3.237438"><ele>314.75</ele></trkpt>
   <trkpt lat="45.771682" lon="3.237506"><ele>314.75</ele></trkpt>
   <trkpt lat="45.771804" lon="3.237547"><ele>314</ele></trkpt>
   <trkpt lat="45.771859" lon="3.237624"><ele>314</ele></trkpt>
   <trkpt lat="45.772184" lon="3.237635"><ele>313.5</ele></trkpt>
   <trkpt lat="45.772549" lon="3.237803"><ele>314</ele></trkpt>
   <trkpt lat="45.772759" lon="3.237819"><ele>314</ele></trkpt>
   <trkpt lat="45.772731" lon="3.23793"><ele>316.5</ele></trkpt>
   <trkpt lat="45.772674" lon="3.23815"><ele>318.75</ele></trkpt>
   <trkpt lat="45.772628" lon="3.238219"><ele>318.25</ele></trkpt>
   <trkpt lat="45.772475" lon="3.238758"><ele>318.5</ele></trkpt>
   <trkpt lat="45.772582" lon="3.238759"><ele>318.25</ele></trkpt>
   <trkpt lat="45.772619" lon="3.238673"><ele>318</ele></trkpt>
   <trkpt lat="45.772872" lon="3.237963"><ele>316</ele></trkpt>
   <trkpt lat="45.772881" lon="3.237934"><ele>315.25</ele></trkpt>
   <trkpt lat="45.772893" lon="3.237895"><ele>315</ele></trkpt>
   <trkpt lat="45.773216" lon="3.236942"><ele>315</ele></trkpt>
   <trkpt lat="45.773488" lon="3.236128"><ele>315</ele></trkpt>
   <trkpt lat="45.773504" lon="3.236074"><ele>315</ele></trkpt>
   <trkpt lat="45.773523" lon="3.236015"><ele>315.75</ele></trkpt>
   <trkpt lat="45.773808" lon="3.235175"><ele>315.25</ele></trkpt>
   <trkpt lat="45.774081" lon="3.234307"><ele>315.75</ele></trkpt>
   <trkpt lat="45.774153" lon="3.234164"><ele>317.75</ele></trkpt>
   <trkpt lat="45.774198" lon="3.234134"><ele>318.75</ele></trkpt>
   <trkpt lat="45.774247" lon="3.234124"><ele>319.5</ele></trkpt>
   <trkpt lat="45.7743" lon="3.23413"><ele>320.25</ele></trkpt>
   <trkpt lat="45.774378" lon="3.234162"><ele>321</ele></trkpt>
   <trkpt lat="45.774683" lon="3.234325"><ele>325.25</ele></trkpt>
   <trkpt lat="45.774867" lon="3.234511"><ele>325</ele></trkpt>
   <trkpt lat="45.774873" lon="3.234564"><ele>324.25</ele></trkpt>
   <trkpt lat="45.774889" lon="3.234612"><ele>324</ele></trkpt>
   <trkpt lat="45.774912" lon="3.234653"><ele>323.75</ele></trkpt>
   <trkpt lat="45.77495" lon="3.23469"><ele>324</ele></trkpt>
   <trkpt lat="45.774993" lon="3.234707"><ele>324.75</ele></trkpt>
   <trkpt lat="45.775039" lon="3.234705"><ele>324.75</ele></trkpt>
   <trkpt lat="45.775084" lon="3.23468"><ele>324.5</ele></trkpt>
   <trkpt lat="45.775121" lon="3.234634"><ele>324.75</ele></trkpt>
   <trkpt lat="45.775184" lon="3.234601"><ele>324.75</ele></trkpt>
   <trkpt lat="45.775255" lon="3.234576"><ele>324.5</ele></trkpt>
   <trkpt lat="45.775454" lon="3.234558"><ele>324.5</ele></trkpt>
   <trkpt lat="45.775534" lon="3.234566"><ele>324.25</ele></trkpt>
   <trkpt lat="45.775705" lon="3.234608"><ele>324.25</ele></trkpt>
   <trkpt lat="45.775769" lon="3.234632"><ele>324.25</ele></trkpt>
   <trkpt lat="45.775912" lon="3.234715"><ele>323.5</ele></trkpt>
   <trkpt lat="45.776214" lon="3.234947"><ele>322</ele></trkpt>
   <trkpt lat="45.776346" lon="3.235038"><ele>321.5</ele></trkpt>
   <trkpt lat="45.777081" lon="3.235492"><ele>321.5</ele></trkpt>
   <trkpt lat="45.777586" lon="3.235872"><ele>322.25</ele></trkpt>
   <trkpt lat="45.777728" lon="3.235972"><ele>322.5</ele></trkpt>
   <trkpt lat="45.777989" lon="3.236115"><ele>322.5</ele></trkpt>
   <trkpt lat="45.778124" lon="3.236171"><ele>322</ele></trkpt>
   <trkpt lat="45.778401" lon="3.236266"><ele>321.5</ele></trkpt>
   <trkpt lat="45.779147" lon="3.236481"><ele>322.75</ele></trkpt>
   <trkpt lat="45.779429" lon="3.236564"><ele>323.75</ele></trkpt>
   <trkpt lat="45.779907" lon="3.236725"><ele>323.75</ele></trkpt>
   <trkpt lat="45.780151" lon="3.236814"><ele>324</ele></trkpt>
   <trkpt lat="45.78059" lon="3.23693"><ele>324</ele></trkpt>
   <trkpt lat="45.781339" lon="3.237043"><ele>324.25</ele></trkpt>
   <trkpt lat="45.781499" lon="3.23708"><ele>324.75</ele></trkpt>
   <trkpt lat="45.781647" lon="3.237125"><ele>325.25</ele></trkpt>
   <trkpt lat="45.781899" lon="3.237228"><ele>324.75</ele></trkpt>
   <trkpt lat="45.782077" lon="3.237318"><ele>325</ele></trkpt>
   <trkpt lat="45.782597" lon="3.237578"><ele>325</ele></trkpt>
   <trkpt lat="45.782934" lon="3.237727"><ele>325</ele></trkpt>
   <trkpt lat="45.78325" lon="3.237816"><ele>325</ele></trkpt>
   <trkpt lat="45.783437" lon="3.237849"><ele>325</ele></trkpt>
   <trkpt lat="45.78465" lon="3.237954"><ele>325</ele></trkpt>
   <trkpt lat="45.784946" lon="3.237991"><ele>325</ele></trkpt>
   <trkpt lat="45.785164" lon="3.238031"><ele>325.5</ele></trkpt>
   <trkpt lat="45.786267" lon="3.238299"><ele>324.75</ele></trkpt>
   <trkpt lat="45.786451" lon="3.238335"><ele>325</ele></trkpt>
   <trkpt lat="45.786735" lon="3.238367"><ele>325</ele></trkpt>
   <trkpt lat="45.78739" lon="3.238395"><ele>325.5</ele></trkpt>
   <trkpt lat="45.787701" lon="3.238412"><ele>326</ele></trkpt>
   <trkpt lat="45.787821" lon="3.238427"><ele>325.75</ele></trkpt>
   <trkpt lat="45.788328" lon="3.238509"><ele>325.75</ele></trkpt>
   <trkpt lat="45.788369" lon="3.238518"><ele>326</ele></trkpt>
   <trkpt lat="45.788417" lon="3.237692"><ele>325.25</ele></trkpt>
   <trkpt lat="45.788424" lon="3.237256"><ele>325.25</ele></trkpt>
   <trkpt lat="45.788462" lon="3.236544"><ele>326</ele></trkpt>
   <trkpt lat="45.788481" lon="3.235964"><ele>327.25</ele></trkpt>
   <trkpt lat="45.788568" lon="3.234457"><ele>329.75</ele></trkpt>
   <trkpt lat="45.78858" lon="3.233961"><ele>330.5</ele></trkpt>
   <trkpt lat="45.788572" lon="3.233652"><ele>332.5</ele></trkpt>
   <trkpt lat="45.788538" lon="3.232379"><ele>341</ele></trkpt>
   <trkpt lat="45.788531" lon="3.232083"><ele>341</ele></trkpt>
   <trkpt lat="45.788508" lon="3.231502"><ele>343.75</ele></trkpt>
   <trkpt lat="45.7885" lon="3.230887"><ele>347</ele></trkpt>
   <trkpt lat="45.788518" lon="3.230497"><ele>347.25</ele></trkpt>
   <trkpt lat="45.788558" lon="3.230062"><ele>348.25</ele></trkpt>
   <trkpt lat="45.788655" lon="3.229226"><ele>344.25</ele></trkpt>
   <trkpt lat="45.788757" lon="3.228055"><ele>338.75</ele></trkpt>
   <trkpt lat="45.78883" lon="3.227062"><ele>335.75</ele></trkpt>
   <trkpt lat="45.788886" lon="3.226028"><ele>335</ele></trkpt>
   <trkpt lat="45.788936" lon="3.225459"><ele>333.25</ele></trkpt>
   <trkpt lat="45.788925" lon="3.225351"><ele>333</ele></trkpt>
   <trkpt lat="45.788881" lon="3.225264"><ele>333</ele></trkpt>
   <trkpt lat="45.788524" lon="3.224857"><ele>333</ele></trkpt>
   <trkpt lat="45.78818" lon="3.224625"><ele>334.25</ele></trkpt>
   <trkpt lat="45.78812" lon="3.224545"><ele>334.5</ele></trkpt>
   <trkpt lat="45.788122" lon="3.224466"><ele>334.5</ele></trkpt>
   <trkpt lat="45.788106" lon="3.22439"><ele>334.25</ele></trkpt>
   <trkpt lat="45.788074" lon="3.224326"><ele>334.25</ele></trkpt>
   <trkpt lat="45.788029" lon="3.224281"><ele>334.5</ele></trkpt>
   <trkpt lat="45.787975" lon="3.22426"><ele>334.5</ele></trkpt>
   <trkpt lat="45.78792" lon="3.224265"><ele>334.75</ele></trkpt>
   <trkpt lat="45.78787" lon="3.224297"><ele>335</ele></trkpt>
   <trkpt lat="45.787663" lon="3.223882"><ele>335.25</ele></trkpt>
   <trkpt lat="45.78725" lon="3.223056"><ele>334.5</ele></trkpt>
   <trkpt lat="45.786689" lon="3.221951"><ele>335</ele></trkpt>
   <trkpt lat="45.786579" lon="3.221757"><ele>335.25</ele></trkpt>
   <trkpt lat="45.786587" lon="3.22166"><ele>335.25</ele></trkpt>
   <trkpt lat="45.785293" lon="3.21897"><ele>332</ele></trkpt>
   <trkpt lat="45.784925" lon="3.218186"><ele>331.5</ele></trkpt>
   <trkpt lat="45.784893" lon="3.218032"><ele>331.25</ele></trkpt>
   <trkpt lat="45.784848" lon="3.217922"><ele>331.25</ele></trkpt>
   <trkpt lat="45.784842" lon="3.217851"><ele>331.25</ele></trkpt>
   <trkpt lat="45.784857" lon="3.217716"><ele>330.75</ele></trkpt>
   <trkpt lat="45.784811" lon="3.217541"><ele>330.75</ele></trkpt>
   <trkpt lat="45.784809" lon="3.217483"><ele>330.5</ele></trkpt>
   <trkpt lat="45.784918" lon="3.217078"><ele>329.75</ele></trkpt>
   <trkpt lat="45.784942" lon="3.216884"><ele>329</ele></trkpt>
   <trkpt lat="45.78494" lon="3.2168"><ele>328.75</ele></trkpt>
   <trkpt lat="45.784852" lon="3.216307"><ele>328.5</ele></trkpt>
   <trkpt lat="45.784797" lon="3.215851"><ele>328</ele></trkpt>
   <trkpt lat="45.784776" lon="3.21565"><ele>327.75</ele></trkpt>
   <trkpt lat="45.784693" lon="3.214548"><ele>328.25</ele></trkpt>
   <trkpt lat="45.784638" lon="3.214563"><ele>328.25</ele></trkpt>
   <trkpt lat="45.784625" lon="3.21433"><ele>328.75</ele></trkpt>
   <trkpt lat="45.784723" lon="3.214251"><ele>328.5</ele></trkpt>
   <trkpt lat="45.784809" lon="3.214133"><ele>328.5</ele></trkpt>
   <trkpt lat="45.784873" lon="3.213988"><ele>328.25</ele></trkpt>
   <trkpt lat="45.784909" lon="3.213825"><ele>328.25</ele></trkpt>
   <trkpt lat="45.784916" lon="3.213739"><ele>328</ele></trkpt>
   <trkpt lat="45.784913" lon="3.213607"><ele>327.75</ele></trkpt>
   <trkpt lat="45.784891" lon="3.213478"><ele>327.5</ele></trkpt>
   <trkpt lat="45.784853" lon="3.213358"><ele>327.5</ele></trkpt>
   <trkpt lat="45.784771" lon="3.213208"><ele>327.5</ele></trkpt>
   <trkpt lat="45.784652" lon="3.21309"><ele>328</ele></trkpt>
   <trkpt lat="45.784514" lon="3.213027"><ele>327.75</ele></trkpt>
   <trkpt lat="45.784401" lon="3.213022"><ele>327.75</ele></trkpt>
   <trkpt lat="45.784289" lon="3.213055"><ele>328.5</ele></trkpt>
   <trkpt lat="45.784175" lon="3.212991"><ele>328.5</ele></trkpt>
   <trkpt lat="45.784078" lon="3.21289"><ele>328</ele></trkpt>
   <trkpt lat="45.784007" lon="3.212753"><ele>327.75</ele></trkpt>
   <trkpt lat="45.783833" lon="3.21238"><ele>327.5</ele></trkpt>
   <trkpt lat="45.78371" lon="3.211948"><ele>326.75</ele></trkpt>
   <trkpt lat="45.783626" lon="3.21169"><ele>326.75</ele></trkpt>
   <trkpt lat="45.783553" lon="3.211499"><ele>327</ele></trkpt>
   <trkpt lat="45.783308" lon="3.211005"><ele>327</ele></trkpt>
   <trkpt lat="45.782001" lon="3.208455"><ele>326.5</ele></trkpt>
   <trkpt lat="45.781571" lon="3.207621"><ele>325.75</ele></trkpt>
   <trkpt lat="45.781389" lon="3.207269"><ele>325.75</ele></trkpt>
   <trkpt lat="45.780993" lon="3.206425"><ele>324.75</ele></trkpt>
   <trkpt lat="45.780908" lon="3.206258"><ele>324.75</ele></trkpt>
   <trkpt lat="45.780659" lon="3.205778"><ele>324.5</ele></trkpt>
   <trkpt lat="45.780344" lon="3.205172"><ele>325.25</ele></trkpt>
   <trkpt lat="45.780246" lon="3.204868"><ele>325.5</ele></trkpt>
   <trkpt lat="45.780195" lon="3.204675"><ele>325</ele></trkpt>
   <trkpt lat="45.780182" lon="3.204595"><ele>325</ele></trkpt>
   <trkpt lat="45.78017" lon="3.204468"><ele>324.75</ele></trkpt>
   <trkpt lat="45.780157" lon="3.203664"><ele>325.75</ele></trkpt>
   <trkpt lat="45.780148" lon="3.202977"><ele>326</ele></trkpt>
   <trkpt lat="45.780161" lon="3.202874"><ele>326.25</ele></trkpt>
   <trkpt lat="45.780198" lon="3.202749"><ele>326.25</ele></trkpt>
   <trkpt lat="45.780222" lon="3.202728"><ele>326</ele></trkpt>
   <trkpt lat="45.780261" lon="3.202669"><ele>326.25</ele></trkpt>
   <trkpt lat="45.780385" lon="3.202597"><ele>326.25</ele></trkpt>
   <trkpt lat="45.780789" lon="3.202528"><ele>325</ele></trkpt>
   <trkpt lat="45.781675" lon="3.202527"><ele>322.75</ele></trkpt>
   <trkpt lat="45.782479" lon="3.202596"><ele>322.5</ele></trkpt>
   <trkpt lat="45.78266" lon="3.202622"><ele>322.25</ele></trkpt>
   <trkpt lat="45.783183" lon="3.202751"><ele>322.75</ele></trkpt>
   <trkpt lat="45.783688" lon="3.202909"><ele>321.75</ele></trkpt>
   <trkpt lat="45.784159" lon="3.203103"><ele>321.75</ele></trkpt>
   <trkpt lat="45.784629" lon="3.203329"><ele>322</ele></trkpt>
   <trkpt lat="45.785089" lon="3.203578"><ele>321.75</ele></trkpt>
   <trkpt lat="45.785852" lon="3.20402"><ele>321.5</ele></trkpt>
   <trkpt lat="45.786416" lon="3.204322"><ele>321.5</ele></trkpt>
   <trkpt lat="45.786615" lon="3.204409"><ele>321.75</ele></trkpt>
   <trkpt lat="45.786936" lon="3.204522"><ele>321.5</ele></trkpt>
   <trkpt lat="45.787098" lon="3.204555"><ele>321.75</ele></trkpt>
   <trkpt lat="45.787264" lon="3.204572"><ele>321.75</ele></trkpt>
   <trkpt lat="45.787608" lon="3.204568"><ele>321.25</ele></trkpt>
   <trkpt lat="45.787952" lon="3.204507"><ele>321.25</ele></trkpt>
   <trkpt lat="45.788138" lon="3.20444"><ele>321.5</ele></trkpt>
   <trkpt lat="45.788326" lon="3.204355"><ele>320.5</ele></trkpt>
   <trkpt lat="45.78844" lon="3.204288"><ele>320.75</ele></trkpt>
   <trkpt lat="45.78861" lon="3.20417"><ele>321.75</ele></trkpt>
   <trkpt lat="45.788932" lon="3.203903"><ele>321.75</ele></trkpt>
   <trkpt lat="45.78919" lon="3.203573"><ele>321.75</ele></trkpt>
   <trkpt lat="45.789439" lon="3.203201"><ele>321.5</ele></trkpt>
   <trkpt lat="45.789669" lon="3.202725"><ele>321</ele></trkpt>
   <trkpt lat="45.789813" lon="3.202292"><ele>321</ele></trkpt>
   <trkpt lat="45.789916" lon="3.201868"><ele>323.5</ele></trkpt>
   <trkpt lat="45.78998" lon="3.201394"><ele>322</ele></trkpt>
   <trkpt lat="45.789991" lon="3.201315"><ele>322</ele></trkpt>
   <trkpt lat="45.790022" lon="3.200875"><ele>321.25</ele></trkpt>
   <trkpt lat="45.790063" lon="3.200129"><ele>321.25</ele></trkpt>
   <trkpt lat="45.790441" lon="3.192223"><ele>322</ele></trkpt>
   <trkpt lat="45.790752" lon="3.185977"><ele>322.5</ele></trkpt>
   <trkpt lat="45.791081" lon="3.179731"><ele>322.75</ele></trkpt>
   <trkpt lat="45.791233" lon="3.176402"><ele>323.25</ele></trkpt>
   <trkpt lat="45.791671" lon="3.166843"><ele>326.75</ele></trkpt>
   <trkpt lat="45.791709" lon="3.166118"><ele>326.75</ele></trkpt>
   <trkpt lat="45.79168" lon="3.165504"><ele>327</ele></trkpt>
   <trkpt lat="45.791668" lon="3.165258"><ele>328</ele></trkpt>
   <trkpt lat="45.791647" lon="3.164934"><ele>327.75</ele></trkpt>
   <trkpt lat="45.791619" lon="3.164508"><ele>327.75</ele></trkpt>
   <trkpt lat="45.791638" lon="3.163306"><ele>327.75</ele></trkpt>
   <trkpt lat="45.791721" lon="3.161906"><ele>328</ele></trkpt>
   <trkpt lat="45.791741" lon="3.161416"><ele>328.25</ele></trkpt>
   <trkpt lat="45.791766" lon="3.160982"><ele>328</ele></trkpt>
   <trkpt lat="45.791795" lon="3.160694"><ele>328.25</ele></trkpt>
   <trkpt lat="45.791975" lon="3.159711"><ele>329</ele></trkpt>
   <trkpt lat="45.792005" lon="3.159517"><ele>328.75</ele></trkpt>
   <trkpt lat="45.792018" lon="3.159368"><ele>328.75</ele></trkpt>
   <trkpt lat="45.792027" lon="3.159111"><ele>328.75</ele></trkpt>
   <trkpt lat="45.792057" lon="3.158432"><ele>329</ele></trkpt>
   <trkpt lat="45.792085" lon="3.157867"><ele>329</ele></trkpt>
   <trkpt lat="45.79219" lon="3.155607"><ele>329</ele></trkpt>
   <trkpt lat="45.792266" lon="3.153828"><ele>329</ele></trkpt>
   <trkpt lat="45.792305" lon="3.153124"><ele>329</ele></trkpt>
   <trkpt lat="45.792314" lon="3.152945"><ele>329</ele></trkpt>
   <trkpt lat="45.792541" lon="3.148135"><ele>330</ele></trkpt>
   <trkpt lat="45.792597" lon="3.146914"><ele>331</ele></trkpt>
   <trkpt lat="45.792614" lon="3.14657"><ele>331</ele></trkpt>
   <trkpt lat="45.792637" lon="3.146082"><ele>331.5</ele></trkpt>
   <trkpt lat="45.79269" lon="3.145591"><ele>332</ele></trkpt>
   <trkpt lat="45.792698" lon="3.145374"><ele>331.25</ele></trkpt>
   <trkpt lat="45.792689" lon="3.145198"><ele>331</ele></trkpt>
   <trkpt lat="45.792668" lon="3.144839"><ele>331</ele></trkpt>
   <trkpt lat="45.792609" lon="3.144563"><ele>330.5</ele></trkpt>
   <trkpt lat="45.792544" lon="3.144212"><ele>330</ele></trkpt>
   <trkpt lat="45.792262" lon="3.142762"><ele>330</ele></trkpt>
   <trkpt lat="45.792024" lon="3.141591"><ele>331</ele></trkpt>
   <trkpt lat="45.791761" lon="3.140496"><ele>332</ele></trkpt>
   <trkpt lat="45.791726" lon="3.140351"><ele>331.25</ele></trkpt>
   <trkpt lat="45.791559" lon="3.139701"><ele>332</ele></trkpt>
   <trkpt lat="45.791537" lon="3.139615"><ele>332</ele></trkpt>
   <trkpt lat="45.79145" lon="3.139316"><ele>331.75</ele></trkpt>
   <trkpt lat="45.791412" lon="3.139164"><ele>332</ele></trkpt>
   <trkpt lat="45.79137" lon="3.138977"><ele>332</ele></trkpt>
   <trkpt lat="45.791124" lon="3.138004"><ele>332</ele></trkpt>
   <trkpt lat="45.79109" lon="3.137789"><ele>332</ele></trkpt>
   <trkpt lat="45.790787" lon="3.136565"><ele>333.25</ele></trkpt>
   <trkpt lat="45.790625" lon="3.135898"><ele>333.25</ele></trkpt>
   <trkpt lat="45.790582" lon="3.135753"><ele>333.25</ele></trkpt>
   <trkpt lat="45.790525" lon="3.135532"><ele>334</ele></trkpt>
   <trkpt lat="45.790489" lon="3.135382"><ele>334</ele></trkpt>
   <trkpt lat="45.790432" lon="3.135102"><ele>334</ele></trkpt>
   <trkpt lat="45.790391" lon="3.134681"><ele>334</ele></trkpt>
   <trkpt lat="45.790381" lon="3.134441"><ele>334</ele></trkpt>
   <trkpt lat="45.790384" lon="3.134243"><ele>334</ele></trkpt>
   <trkpt lat="45.790379" lon="3.133972"><ele>334.25</ele></trkpt>
   <trkpt lat="45.790377" lon="3.13383"><ele>334.25</ele></trkpt>
   <trkpt lat="45.79036" lon="3.133571"><ele>334</ele></trkpt>
   <trkpt lat="45.790256" lon="3.132616"><ele>334</ele></trkpt>
   <trkpt lat="45.790243" lon="3.132491"><ele>334</ele></trkpt>
   <trkpt lat="45.790142" lon="3.131599"><ele>333.75</ele></trkpt>
   <trkpt lat="45.790108" lon="3.131202"><ele>333.75</ele></trkpt>
   <trkpt lat="45.79004" lon="3.130412"><ele>334</ele></trkpt>
   <trkpt lat="45.78991" lon="3.128973"><ele>335.25</ele></trkpt>
   <trkpt lat="45.789877" lon="3.128745"><ele>335.5</ele></trkpt>
   <trkpt lat="45.789842" lon="3.128589"><ele>335.25</ele></trkpt>
   <trkpt lat="45.789823" lon="3.128506"><ele>335.25</ele></trkpt>
   <trkpt lat="45.789757" lon="3.128313"><ele>335</ele></trkpt>
   <trkpt lat="45.789415" lon="3.127497"><ele>335</ele></trkpt>
   <trkpt lat="45.789224" lon="3.12704"><ele>335.25</ele></trkpt>
   <trkpt lat="45.789146" lon="3.126867"><ele>335.25</ele></trkpt>
   <trkpt lat="45.788431" lon="3.125145"><ele>336.25</ele></trkpt>
   <trkpt lat="45.788357" lon="3.12499"><ele>336</ele></trkpt>
   <trkpt lat="45.78832" lon="3.124929"><ele>336.5</ele></trkpt>
   <trkpt lat="45.788303" lon="3.124888"><ele>336.75</ele></trkpt>
   <trkpt lat="45.788275" lon="3.124818"><ele>337</ele></trkpt>
   <trkpt lat="45.788192" lon="3.124589"><ele>337.25</ele></trkpt>
   <trkpt lat="45.788138" lon="3.124428"><ele>337.25</ele></trkpt>
   <trkpt lat="45.788111" lon="3.124337"><ele>337.5</ele></trkpt>
   <trkpt lat="45.7881" lon="3.124301"><ele>337.5</ele></trkpt>
   <trkpt lat="45.788079" lon="3.124196"><ele>337.75</ele></trkpt>
   <trkpt lat="45.788004" lon="3.123823"><ele>339.25</ele></trkpt>
   <trkpt lat="45.78794" lon="3.123378"><ele>340.25</ele></trkpt>
   <trkpt lat="45.787936" lon="3.122961"><ele>341</ele></trkpt>
   <trkpt lat="45.787999" lon="3.122428"><ele>341.75</ele></trkpt>
   <trkpt lat="45.788008" lon="3.122368"><ele>341.75</ele></trkpt>
   <trkpt lat="45.788023" lon="3.122266"><ele>341.75</ele></trkpt>
   <trkpt lat="45.78797" lon="3.122073"><ele>342.5</ele></trkpt>
   <trkpt lat="45.787821" lon="3.121769"><ele>343</ele></trkpt>
   <trkpt lat="45.787767" lon="3.121675"><ele>342.75</ele></trkpt>
   <trkpt lat="45.787698" lon="3.121529"><ele>343.25</ele></trkpt>
   <trkpt lat="45.787666" lon="3.121391"><ele>343.5</ele></trkpt>
   <trkpt lat="45.787637" lon="3.121214"><ele>343.75</ele></trkpt>
   <trkpt lat="45.787637" lon="3.121182"><ele>343.75</ele></trkpt>
   <trkpt lat="45.787638" lon="3.120557"><ele>343.25</ele></trkpt>
   <trkpt lat="45.787638" lon="3.120306"><ele>342.5</ele></trkpt>
   <trkpt lat="45.787638" lon="3.120271"><ele>342.25</ele></trkpt>
   <trkpt lat="45.787662" lon="3.120163"><ele>342.5</ele></trkpt>
   <trkpt lat="45.78763" lon="3.119972"><ele>342.25</ele></trkpt>
   <trkpt lat="45.787605" lon="3.119874"><ele>342.25</ele></trkpt>
   <trkpt lat="45.787552" lon="3.119725"><ele>341.5</ele></trkpt>
   <trkpt lat="45.787485" lon="3.11962"><ele>341</ele></trkpt>
   <trkpt lat="45.787437" lon="3.119497"><ele>341</ele></trkpt>
   <trkpt lat="45.787403" lon="3.119417"><ele>341</ele></trkpt>
   <trkpt lat="45.787437" lon="3.119386"><ele>341</ele></trkpt>
   <trkpt lat="45.787473" lon="3.119346"><ele>341.25</ele></trkpt>
   <trkpt lat="45.787585" lon="3.11926"><ele>341.75</ele></trkpt>
   <trkpt lat="45.787641" lon="3.119199"><ele>341.5</ele></trkpt>
   <trkpt lat="45.787743" lon="3.119052"><ele>343</ele></trkpt>
   <trkpt lat="45.787846" lon="3.118905"><ele>345.25</ele></trkpt>
   <trkpt lat="45.78803" lon="3.118619"><ele>341.75</ele></trkpt>
   <trkpt lat="45.788085" lon="3.118547"><ele>341</ele></trkpt>
   <trkpt lat="45.788139" lon="3.118474"><ele>341.25</ele></trkpt>
   <trkpt lat="45.788126" lon="3.118452"><ele>341.25</ele></trkpt>
   <trkpt lat="45.788039" lon="3.118303"><ele>342.25</ele></trkpt>
   <trkpt lat="45.787731" lon="3.117824"><ele>342.75</ele></trkpt>
   <trkpt lat="45.787537" lon="3.117523"><ele>343</ele></trkpt>
   <trkpt lat="45.787335" lon="3.117179"><ele>343.5</ele></trkpt>
   <trkpt lat="45.787119" lon="3.116788"><ele>344</ele></trkpt>
   <trkpt lat="45.786933" lon="3.116435"><ele>343.25</ele></trkpt>
   <trkpt lat="45.78683" lon="3.116198"><ele>344.25</ele></trkpt>
   <trkpt lat="45.786754" lon="3.115917"><ele>344</ele></trkpt>
   <trkpt lat="45.786734" lon="3.115711"><ele>344</ele></trkpt>
   <trkpt lat="45.786737" lon="3.115556"><ele>344</ele></trkpt>
   <trkpt lat="45.786753" lon="3.11533"><ele>344</ele></trkpt>
   <trkpt lat="45.786791" lon="3.115007"><ele>344</ele></trkpt>
   <trkpt lat="45.786792" lon="3.114788"><ele>344.75</ele></trkpt>
   <trkpt lat="45.786782" lon="3.114671"><ele>345</ele></trkpt>
   <trkpt lat="45.78675" lon="3.114501"><ele>345.5</ele></trkpt>
   <trkpt lat="45.786705" lon="3.11436"><ele>345.75</ele></trkpt>
   <trkpt lat="45.78674" lon="3.114324"><ele>345.5</ele></trkpt>
   <trkpt lat="45.78676" lon="3.114303"><ele>345.5</ele></trkpt>
   <trkpt lat="45.786744" lon="3.114273"><ele>345.5</ele></trkpt>
   <trkpt lat="45.786687" lon="3.114161"><ele>345.75</ele></trkpt>
   <trkpt lat="45.786682" lon="3.114153"><ele>345.75</ele></trkpt>
   <trkpt lat="45.786656" lon="3.114101"><ele>346.25</ele></trkpt>
   <trkpt lat="45.786229" lon="3.113247"><ele>348.5</ele></trkpt>
   <trkpt lat="45.786029" lon="3.112851"><ele>349</ele></trkpt>
   <trkpt lat="45.785777" lon="3.112352"><ele>349.25</ele></trkpt>
   <trkpt lat="45.785419" lon="3.111648"><ele>349.75</ele></trkpt>
   <trkpt lat="45.785354" lon="3.111541"><ele>349.5</ele></trkpt>
   <trkpt lat="45.785316" lon="3.111473"><ele>349.25</ele></trkpt>
   <trkpt lat="45.785292" lon="3.111419"><ele>349</ele></trkpt>
   <trkpt lat="45.785256" lon="3.111321"><ele>349</ele></trkpt>
   <trkpt lat="45.785187" lon="3.111184"><ele>349.5</ele></trkpt>
   <trkpt lat="45.785117" lon="3.111045"><ele>350</ele></trkpt>
   <trkpt lat="45.785058" lon="3.110929"><ele>349.75</ele></trkpt>
   <trkpt lat="45.784733" lon="3.110289"><ele>349.75</ele></trkpt>
   <trkpt lat="45.784621" lon="3.110062"><ele>349.5</ele></trkpt>
   <trkpt lat="45.784487" lon="3.109798"><ele>349</ele></trkpt>
   <trkpt lat="45.784236" lon="3.109296"><ele>350</ele></trkpt>
   <trkpt lat="45.784208" lon="3.109253"><ele>350</ele></trkpt>
   <trkpt lat="45.784181" lon="3.109236"><ele>350</ele></trkpt>
   <trkpt lat="45.78414" lon="3.109234"><ele>350</ele></trkpt>
   <trkpt lat="45.784111" lon="3.109257"><ele>350</ele></trkpt>
   <trkpt lat="45.784027" lon="3.109334"><ele>350</ele></trkpt>
   <trkpt lat="45.783975" lon="3.10936"><ele>350</ele></trkpt>
   <trkpt lat="45.783951" lon="3.109362"><ele>350</ele></trkpt>
   <trkpt lat="45.783917" lon="3.109354"><ele>349.75</ele></trkpt>
   <trkpt lat="45.783878" lon="3.109327"><ele>350</ele></trkpt>
   <trkpt lat="45.783819" lon="3.10924"><ele>350</ele></trkpt>
   <trkpt lat="45.782949" lon="3.107527"><ele>351.75</ele></trkpt>
   <trkpt lat="45.782712" lon="3.107059"><ele>352</ele></trkpt>
   <trkpt lat="45.782143" lon="3.105951"><ele>353</ele></trkpt>
   <trkpt lat="45.7819" lon="3.105469"><ele>353.25</ele></trkpt>
   <trkpt lat="45.781447" lon="3.104596"><ele>353.75</ele></trkpt>
   <trkpt lat="45.7814" lon="3.104505"><ele>354</ele></trkpt>
   <trkpt lat="45.781286" lon="3.104323"><ele>354.75</ele></trkpt>
   <trkpt lat="45.781235" lon="3.104143"><ele>355</ele></trkpt>
   <trkpt lat="45.781214" lon="3.104102"><ele>355</ele></trkpt>
   <trkpt lat="45.781189" lon="3.104052"><ele>355</ele></trkpt>
   <trkpt lat="45.780621" lon="3.102941"><ele>358</ele></trkpt>
  </trkseg>
 </trk>
</gpx>