<?xml version="1.0" encoding="UTF-8"?>
<!-- track-length = 28227 filtered ascend = 182 plain-ascend = 4 cost=45969 energy=0.1kwh time=1h 30m 35s -->
<gpx 
 xmlns="http://www.topografix.com/GPX/1/1" 
 xmlns:xsi="http://www.w3.org/2001/XMLSchema-instance" 
 xsi:schemaLocation="http://www.topografix.com/GPX/1/1 http://www.topografix.com/GPX/1/1/gpx.xsd" 
 version="1.1" 
 creator="BRouter-Web 99.71.0">
 <trk>
  <name>Clermont-Ferrand (28.2km)</name>
  <link href="https://brouter.damsy.net/latest/#map=12/45.7630/3.1973/standard&amp;lonlats=3.102437,45.780371;3.212589,45.751866;3.22288,45.74289;3.216117,45.735678;3.197601,45.724244;3.19396,45.722721;3.101618,45.779955&amp;profile=fastbike-lowtraffic">
   <text>BRouter-Web</text>
  </link>
  <trkseg>
   <trkpt lat="45.780365" lon="3.102441"><ele>357</ele></trkpt>
   <trkpt lat="45.781189" lon="3.104052"><ele>355</ele></trkpt>
   <trkpt lat="45.781214" lon="3.104102"><ele>355</ele></trkpt>
   <trkpt lat="45.781235" lon="3.104143"><ele>355</ele></trkpt>
   <trkpt lat="45.781286" lon="3.104323"><ele>354.75</ele></trkpt>
   <trkpt lat="45.781262" lon="3.104462"><ele>354.75</ele></trkpt>
   <trkpt lat="45.781249" lon="3.104602"><ele>355.25</ele></trkpt>
   <trkpt lat="45.781199" lon="3.105024"><ele>356</ele></trkpt>
   <trkpt lat="45.781191" lon="3.105153"><ele>356</ele></trkpt>
   <trkpt lat="45.781107" lon="3.10593"><ele>353</ele></trkpt>
   <trkpt lat="45.781059" lon="3.106376"><ele>353</ele></trkpt>
   <trkpt lat="45.780945" lon="3.1074"><ele>353.75</ele></trkpt>
   <trkpt lat="45.780912" lon="3.107699"><ele>352.25</ele></trkpt>
   <trkpt lat="45.780889" lon="3.107912"><ele>351.75</ele></trkpt>
   <trkpt lat="45.780767" lon="3.10906"><ele>351</ele></trkpt>
   <trkpt lat="45.780748" lon="3.109205"><ele>351.25</ele></trkpt>
   <trkpt lat="45.780721" lon="3.109444"><ele>351</ele></trkpt>
   <trkpt lat="45.780715" lon="3.109499"><ele>351</ele></trkpt>
   <trkpt lat="45.780666" lon="3.109917"><ele>351</ele></trkpt>
   <trkpt lat="45.780594" lon="3.110582"><ele>350</ele></trkpt>
   <trkpt lat="45.780576" lon="3.110745"><ele>349.25</ele></trkpt>
   <trkpt lat="45.780491" lon="3.111525"><ele>349</ele></trkpt>
   <trkpt lat="45.780422" lon="3.11215"><ele>349.25</ele></trkpt>
   <trkpt lat="45.78041" lon="3.112263"><ele>349.25</ele></trkpt>
   <trkpt lat="45.780359" lon="3.112722"><ele>348.25</ele></trkpt>
   <trkpt lat="45.780263" lon="3.113652"><ele>345.75</ele></trkpt>
   <trkpt lat="45.7802" lon="3.113766"><ele>345.75</ele></trkpt>
   <trkpt lat="45.780129" lon="3.113775"><ele>346</ele></trkpt>
   <trkpt lat="45.78009" lon="3.113779"><ele>346.25</ele></trkpt>
   <trkpt lat="45.779372" lon="3.113953"><ele>346.25</ele></trkpt>
   <trkpt lat="45.7793" lon="3.114"><ele>346.5</ele></trkpt>
   <trkpt lat="45.77928" lon="3.114022"><ele>346.5</ele></trkpt>
   <trkpt lat="45.779252" lon="3.114061"><ele>346.25</ele></trkpt>
   <trkpt lat="45.779242" lon="3.114171"><ele>346.25</ele></trkpt>
   <trkpt lat="45.779249" lon="3.114229"><ele>346</ele></trkpt>
   <trkpt lat="45.779256" lon="3.114271"><ele>345.75</ele></trkpt>
   <trkpt lat="45.779319" lon="3.114521"><ele>345.25</ele></trkpt>
   <trkpt lat="45.779295" lon="3.114619"><ele>344.75</ele></trkpt>
   <trkpt lat="45.779282" lon="3.114689"><ele>344.5</ele></trkpt>
   <trkpt lat="45.779317" lon="3.114972"><ele>343</ele></trkpt>
   <trkpt lat="45.779275" lon="3.115"><ele>342.75</ele></trkpt>
   <trkpt lat="45.77882" lon="3.115256"><ele>340.75</ele></trkpt>
   <trkpt lat="45.778721" lon="3.115313"><ele>340.25</ele></trkpt>
   <trkpt lat="45.778641" lon="3.115376"><ele>339.75</ele></trkpt>
   <trkpt lat="45.77808" lon="3.115708"><ele>338</ele></trkpt>
   <trkpt lat="45.778018" lon="3.115759"><ele>338</ele></trkpt>
   <trkpt lat="45.77798" lon="3.115799"><ele>338</ele></trkpt>
   <trkpt lat="45.777618" lon="3.116152"><ele>337.75</ele></trkpt>
   <trkpt lat="45.777242" lon="3.116507"><ele>338.25</ele></trkpt>
   <trkpt lat="45.777126" lon="3.116591"><ele>338.75</ele></trkpt>
   <trkpt lat="45.777053" lon="3.116632"><ele>338.75</ele></trkpt>
   <trkpt lat="45.776656" lon="3.116968"><ele>341</ele></trkpt>
   <trkpt lat="45.776599" lon="3.117021"><ele>341.25</ele></trkpt>
   <trkpt lat="45.776647" lon="3.11714"><ele>341</ele></trkpt>
   <trkpt lat="45.776792" lon="3.117414"><ele>340.5</ele></trkpt>
   <trkpt lat="45.776828" lon="3.117513"><ele>340.25</ele></trkpt>
   <trkpt lat="45.776858" lon="3.117578"><ele>340.25</ele></trkpt>
   <trkpt lat="45.776874" lon="3.117611"><ele>340.25</ele></trkpt>
   <trkpt lat="45.776918" lon="3.117708"><ele>340</ele></trkpt>
   <trkpt lat="45.776975" lon="3.117831"><ele>340</ele></trkpt>
   <trkpt lat="45.777013" lon="3.117914"><ele>340</ele></trkpt>
   <trkpt lat="45.777098" lon="3.118037"><ele>340.25</ele></trkpt>
   <trkpt lat="45.777205" lon="3.118219"><ele>340</ele></trkpt>
   <trkpt lat="45.777494" lon="3.118689"><ele>339.5</ele></trkpt>
   <trkpt lat="45.777533" lon="3.118749"><ele>339.25</ele></trkpt>
   <trkpt lat="45.777587" lon="3.1188"><ele>339</ele></trkpt>
   <trkpt lat="45.777558" lon="3.11884"><ele>339</ele></trkpt>
   <trkpt lat="45.77744" lon="3.118887"><ele>339</ele></trkpt>
   <trkpt lat="45.777339" lon="3.118927"><ele>339.5</ele></trkpt>
   <trkpt lat="45.777046" lon="3.119072"><ele>340.25</ele></trkpt>
   <trkpt lat="45.776878" lon="3.119189"><ele>340.5</ele></trkpt>
   <trkpt lat="45.776696" lon="3.11934"><ele>341.25</ele></trkpt>
   <trkpt lat="45.77642" lon="3.119594"><ele>342.25</ele></trkpt>
   <trkpt lat="45.776388" lon="3.119623"><ele>342.5</ele></trkpt>
   <trkpt lat="45.775886" lon="3.120098"><ele>345.75</ele></trkpt>
   <trkpt lat="45.775729" lon="3.120256"><ele>346.5</ele></trkpt>
   <trkpt lat="45.77569" lon="3.12034"><ele>347.25</ele></trkpt>
   <trkpt lat="45.775651" lon="3.120561"><ele>348.5</ele></trkpt>
   <trkpt lat="45.775548" lon="3.121122"><ele>351</ele></trkpt>
   <trkpt lat="45.775475" lon="3.12152"><ele>353.5</ele></trkpt>
   <trkpt lat="45.77544" lon="3.121655"><ele>354.75</ele></trkpt>
   <trkpt lat="45.775484" lon="3.121724"><ele>354.5</ele></trkpt>
   <trkpt lat="45.775634" lon="3.122278"><ele>354.5</ele></trkpt>
   <trkpt lat="45.775903" lon="3.123159"><ele>354.75</ele></trkpt>
   <trkpt lat="45.775978" lon="3.12336"><ele>355</ele></trkpt>
   <trkpt lat="45.776036" lon="3.123495"><ele>354.75</ele></trkpt>
   <trkpt lat="45.776265" lon="3.123882"><ele>354.75</ele></trkpt>
   <trkpt lat="45.776329" lon="3.124005"><ele>354.75</ele></trkpt>
   <trkpt lat="45.776432" lon="3.124234"><ele>354.75</ele></trkpt>
   <trkpt lat="45.776571" lon="3.124541"><ele>354.25</ele></trkpt>
   <trkpt lat="45.776732" lon="3.12492"><ele>353</ele></trkpt>
   <trkpt lat="45.777081" lon="3.125721"><ele>349</ele></trkpt>
   <trkpt lat="45.777175" lon="3.125872"><ele>348</ele></trkpt>
   <trkpt lat="45.777333" lon="3.126248"><ele>345.5</ele></trkpt>
   <trkpt lat="45.777792" lon="3.127282"><ele>340.75</ele></trkpt>
   <trkpt lat="45.777847" lon="3.127374"><ele>340.25</ele></trkpt>
   <trkpt lat="45.777774" lon="3.127482"><ele>340</ele></trkpt>
   <trkpt lat="45.777514" lon="3.12786"><ele>339</ele></trkpt>
   <trkpt lat="45.777244" lon="3.128265"><ele>337.25</ele></trkpt>
   <trkpt lat="45.777097" lon="3.128489"><ele>336.5</ele></trkpt>
   <trkpt lat="45.77691" lon="3.128671"><ele>335.75</ele></trkpt>
   <trkpt lat="45.776756" lon="3.128772"><ele>335.25</ele></trkpt>
   <trkpt lat="45.776651" lon="3.128804"><ele>335.25</ele></trkpt>
   <trkpt lat="45.77638" lon="3.12884"><ele>335</ele></trkpt>
   <trkpt lat="45.776003" lon="3.128872"><ele>335</ele></trkpt>
   <trkpt lat="45.775869" lon="3.128855"><ele>335</ele></trkpt>
   <trkpt lat="45.775781" lon="3.128829"><ele>335.25</ele></trkpt>
   <trkpt lat="45.77574" lon="3.128947"><ele>335.25</ele></trkpt>
   <trkpt lat="45.775741" lon="3.129026"><ele>335.5</ele></trkpt>
   <trkpt lat="45.775742" lon="3.12909"><ele>335.75</ele></trkpt>
   <trkpt lat="45.77577" lon="3.129245"><ele>336.25</ele></trkpt>
   <trkpt lat="45.775773" lon="3.129383"><ele>337.75</ele></trkpt>
   <trkpt lat="45.775715" lon="3.129793"><ele>337</ele></trkpt>
   <trkpt lat="45.775701" lon="3.129895"><ele>335.5</ele></trkpt>
   <trkpt lat="45.775684" lon="3.129997"><ele>334</ele></trkpt>
   <trkpt lat="45.775668" lon="3.130181"><ele>334.75</ele></trkpt>
   <trkpt lat="45.775685" lon="3.130345"><ele>334.75</ele></trkpt>
   <trkpt lat="45.775757" lon="3.130544"><ele>334.25</ele></trkpt>
   <trkpt lat="45.775804" lon="3.131294"><ele>334.75</ele></trkpt>
   <trkpt lat="45.775811" lon="3.131795"><ele>335</ele></trkpt>
   <trkpt lat="45.775788" lon="3.132206"><ele>335.25</ele></trkpt>
   <trkpt lat="45.77573" lon="3.132873"><ele>335.5</ele></trkpt>
   <trkpt lat="45.775544" lon="3.134575"><ele>336</ele></trkpt>
   <trkpt lat="45.775578" lon="3.1346"><ele>335.75</ele></trkpt>
   <trkpt lat="45.775731" lon="3.134674"><ele>335.75</ele></trkpt>
   <trkpt lat="45.776207" lon="3.134885"><ele>335.5</ele></trkpt>
   <trkpt lat="45.776466" lon="3.134995"><ele>334.75</ele></trkpt>
   <trkpt lat="45.776609" lon="3.135061"><ele>334.25</ele></trkpt>
   <trkpt lat="45.777343" lon="3.135376"><ele>334.5</ele></trkpt>
   <trkpt lat="45.7776" lon="3.135499"><ele>335</ele></trkpt>
   <trkpt lat="45.777594" lon="3.135572"><ele>335.25</ele></trkpt>
   <trkpt lat="45.777605" lon="3.135643"><ele>335</ele></trkpt>
   <trkpt lat="45.77763" lon="3.135706"><ele>334.75</ele></trkpt>
   <trkpt lat="45.777669" lon="3.135754"><ele>334.75</ele></trkpt>
   <trkpt lat="45.777716" lon="3.135782"><ele>334.75</ele></trkpt>
   <trkpt lat="45.777768" lon="3.135787"><ele>335</ele></trkpt>
   <trkpt lat="45.777819" lon="3.135767"><ele>335</ele></trkpt>
   <trkpt lat="45.777862" lon="3.135724"><ele>335</ele></trkpt>
   <trkpt lat="45.777893" lon="3.135664"><ele>335</ele></trkpt>
   <trkpt lat="45.778464" lon="3.136041"><ele>334</ele></trkpt>
   <trkpt lat="45.77903" lon="3.136459"><ele>334</ele></trkpt>
   <trkpt lat="45.779143" lon="3.136594"><ele>334</ele></trkpt>
   <trkpt lat="45.779237" lon="3.136673"><ele>334.25</ele></trkpt>
   <trkpt lat="45.779239" lon="3.13675"><ele>334.25</ele></trkpt>
   <trkpt lat="45.779252" lon="3.136824"><ele>334.25</ele></trkpt>
   <trkpt lat="45.779275" lon="3.136892"><ele>334.25</ele></trkpt>
   <trkpt lat="45.779309" lon="3.136952"><ele>334.5</ele></trkpt>
   <trkpt lat="45.77935" lon="3.137"><ele>334.5</ele></trkpt>
   <trkpt lat="45.779383" lon="3.137191"><ele>334.75</ele></trkpt>
   <trkpt lat="45.779403" lon="3.137478"><ele>334.75</ele></trkpt>
   <trkpt lat="45.779363" lon="3.137902"><ele>334.5</ele></trkpt>
   <trkpt lat="45.77928" lon="3.138815"><ele>334.25</ele></trkpt>
   <trkpt lat="45.77926" lon="3.139036"><ele>335</ele></trkpt>
   <trkpt lat="45.779245" lon="3.139198"><ele>335.25</ele></trkpt>
   <trkpt lat="45.779098" lon="3.140817"><ele>335.5</ele></trkpt>
   <trkpt lat="45.779048" lon="3.141364"><ele>334.25</ele></trkpt>
   <trkpt lat="45.778976" lon="3.142133"><ele>336.5</ele></trkpt>
   <trkpt lat="45.778913" lon="3.142847"><ele>336.75</ele></trkpt>
   <trkpt lat="45.778889" lon="3.14319"><ele>336.75</ele></trkpt>
   <trkpt lat="45.778886" lon="3.143459"><ele>336.75</ele></trkpt>
   <trkpt lat="45.778897" lon="3.143863"><ele>336</ele></trkpt>
   <trkpt lat="45.778962" lon="3.145002"><ele>336.25</ele></trkpt>
   <trkpt lat="45.779046" lon="3.146157"><ele>336</ele></trkpt>
   <trkpt lat="45.779005" lon="3.146228"><ele>335.5</ele></trkpt>
   <trkpt lat="45.77901" lon="3.146718"><ele>335.25</ele></trkpt>
   <trkpt lat="45.779002" lon="3.146841"><ele>335.25</ele></trkpt>
   <trkpt lat="45.77898" lon="3.146921"><ele>335.25</ele></trkpt>
   <trkpt lat="45.778956" lon="3.146971"><ele>335.25</ele></trkpt>
   <trkpt lat="45.778918" lon="3.147007"><ele>335.25</ele></trkpt>
   <trkpt lat="45.778881" lon="3.14706"><ele>335.25</ele></trkpt>
   <trkpt lat="45.778845" lon="3.147121"><ele>335.5</ele></trkpt>
   <trkpt lat="45.77882" lon="3.14718"><ele>335.5</ele></trkpt>
   <trkpt lat="45.7788" lon="3.147256"><ele>335.5</ele></trkpt>
   <trkpt lat="45.778789" lon="3.14734"><ele>335.5</ele></trkpt>
   <trkpt lat="45.77877" lon="3.147399"><ele>335.5</ele></trkpt>
   <trkpt lat="45.778744" lon="3.147451"><ele>335.25</ele></trkpt>
   <trkpt lat="45.778759" lon="3.147502"><ele>335.5</ele></trkpt>
   <trkpt lat="45.778787" lon="3.147664"><ele>335.75</ele></trkpt>
   <trkpt lat="45.778792" lon="3.147736"><ele>335.75</ele></trkpt>
   <trkpt lat="45.778853" lon="3.147728"><ele>335.75</ele></trkpt>
   <trkpt lat="45.778902" lon="3.147735"><ele>336</ele></trkpt>
   <trkpt lat="45.778974" lon="3.147799"><ele>335.75</ele></trkpt>
   <trkpt lat="45.779019" lon="3.147826"><ele>335.75</ele></trkpt>
   <trkpt lat="45.779047" lon="3.147858"><ele>335.75</ele></trkpt>
   <trkpt lat="45.779075" lon="3.147917"><ele>335.75</ele></trkpt>
   <trkpt lat="45.779081" lon="3.147975"><ele>335.75</ele></trkpt>
   <trkpt lat="45.779117" lon="3.148086"><ele>335.5</ele></trkpt>
   <trkpt lat="45.779165" lon="3.148282"><ele>335</ele></trkpt>
   <trkpt lat="45.779224" lon="3.148988"><ele>335</ele></trkpt>
   <trkpt lat="45.779259" lon="3.149228"><ele>335</ele></trkpt>
   <trkpt lat="45.779266" lon="3.149593"><ele>335</ele></trkpt>
   <trkpt lat="45.779255" lon="3.14993"><ele>335.5</ele></trkpt>
   <trkpt lat="45.7792" lon="3.150629"><ele>334.75</ele></trkpt>
   <trkpt lat="45.779159" lon="3.151171"><ele>334.75</ele></trkpt>
   <trkpt lat="45.77909" lon="3.151949"><ele>333.5</ele></trkpt>
   <trkpt lat="45.778992" lon="3.152823"><ele>334</ele></trkpt>
   <trkpt lat="45.778944" lon="3.153373"><ele>334</ele></trkpt>
   <trkpt lat="45.778904" lon="3.153839"><ele>334</ele></trkpt>
   <trkpt lat="45.778776" lon="3.155331"><ele>332.5</ele></trkpt>
   <trkpt lat="45.778743" lon="3.15573"><ele>332.75</ele></trkpt>
   <trkpt lat="45.778699" lon="3.156263"><ele>332.5</ele></trkpt>
   <trkpt lat="45.77869" lon="3.156366"><ele>332.25</ele></trkpt>
   <trkpt lat="45.778605" lon="3.157436"><ele>330.75</ele></trkpt>
   <trkpt lat="45.778536" lon="3.158272"><ele>330.75</ele></trkpt>
   <trkpt lat="45.778501" lon="3.15869"><ele>329.5</ele></trkpt>
   <trkpt lat="45.778477" lon="3.158987"><ele>330</ele></trkpt>
   <trkpt lat="45.778472" lon="3.159042"><ele>330</ele></trkpt>
   <trkpt lat="45.778458" lon="3.159218"><ele>329.75</ele></trkpt>
   <trkpt lat="45.778457" lon="3.159475"><ele>329.25</ele></trkpt>
   <trkpt lat="45.778454" lon="3.159504"><ele>329.25</ele></trkpt>
   <trkpt lat="45.778371" lon="3.160484"><ele>328.25</ele></trkpt>
   <trkpt lat="45.77804" lon="3.164454"><ele>327</ele></trkpt>
   <trkpt lat="45.777982" lon="3.164581"><ele>327.25</ele></trkpt>
   <trkpt lat="45.777974" lon="3.164628"><ele>327.25</ele></trkpt>
   <trkpt lat="45.777918" lon="3.16532"><ele>327</ele></trkpt>
   <trkpt lat="45.777904" lon="3.165434"><ele>327</ele></trkpt>
   <trkpt lat="45.77788" lon="3.165603"><ele>326.75</ele></trkpt>
   <trkpt lat="45.777853" lon="3.165745"><ele>326.75</ele></trkpt>
   <trkpt lat="45.777789" lon="3.166015"><ele>326.75</ele></trkpt>
   <trkpt lat="45.777716" lon="3.165985"><ele>327</ele></trkpt>
   <trkpt lat="45.777368" lon="3.165873"><ele>327.25</ele></trkpt>
   <trkpt lat="45.777128" lon="3.165769"><ele>328</ele></trkpt>
   <trkpt lat="45.776862" lon="3.165546"><ele>329</ele></trkpt>
   <trkpt lat="45.776664" lon="3.165352"><ele>329</ele></trkpt>
   <trkpt lat="45.776063" lon="3.167057"><ele>331.25</ele></trkpt>
   <trkpt lat="45.775885" lon="3.167625"><ele>333.25</ele></trkpt>
   <trkpt lat="45.775832" lon="3.167899"><ele>334</ele></trkpt>
   <trkpt lat="45.775743" lon="3.168576"><ele>335.75</ele></trkpt>
   <trkpt lat="45.775529" lon="3.169774"><ele>338.25</ele></trkpt>
   <trkpt lat="45.775474" lon="3.170048"><ele>339.75</ele></trkpt>
   <trkpt lat="45.775447" lon="3.170222"><ele>340</ele></trkpt>
   <trkpt lat="45.775372" lon="3.170755"><ele>341.25</ele></trkpt>
   <trkpt lat="45.775359" lon="3.170839"><ele>341.25</ele></trkpt>
   <trkpt lat="45.775212" lon="3.172344"><ele>343.5</ele></trkpt>
   <trkpt lat="45.775207" lon="3.172404"><ele>343.75</ele></trkpt>
   <trkpt lat="45.775142" lon="3.173148"><ele>344.25</ele></trkpt>
   <trkpt lat="45.775097" lon="3.173674"><ele>344</ele></trkpt>
   <trkpt lat="45.77509" lon="3.173748"><ele>344</ele></trkpt>
   <trkpt lat="45.775014" lon="3.174637"><ele>344</ele></trkpt>
   <trkpt lat="45.774982" lon="3.175008"><ele>343.25</ele></trkpt>
   <trkpt lat="45.774925" lon="3.175531"><ele>344</ele></trkpt>
   <trkpt lat="45.774919" lon="3.175587"><ele>344</ele></trkpt>
   <trkpt lat="45.774901" lon="3.175755"><ele>344.25</ele></trkpt>
   <trkpt lat="45.774773" lon="3.176655"><ele>344.25</ele></trkpt>
   <trkpt lat="45.774727" lon="3.17705"><ele>344.75</ele></trkpt>
   <trkpt lat="45.774727" lon="3.177168"><ele>344.75</ele></trkpt>
   <trkpt lat="45.774745" lon="3.177283"><ele>344.75</ele></trkpt>
   <trkpt lat="45.774796" lon="3.177542"><ele>344</ele></trkpt>
   <trkpt lat="45.77477" lon="3.177679"><ele>344.25</ele></trkpt>
   <trkpt lat="45.77472" lon="3.177784"><ele>345</ele></trkpt>
   <trkpt lat="45.774907" lon="3.178214"><ele>342.25</ele></trkpt>
   <trkpt lat="45.775002" lon="3.178462"><ele>340.75</ele></trkpt>
   <trkpt lat="45.775264" lon="3.17898"><ele>337.75</ele></trkpt>
   <trkpt lat="45.775307" lon="3.179181"><ele>336.75</ele></trkpt>
   <trkpt lat="45.775284" lon="3.179191"><ele>336.75</ele></trkpt>
   <trkpt lat="45.775265" lon="3.17921"><ele>337</ele></trkpt>
   <trkpt lat="45.775245" lon="3.179269"><ele>337.5</ele></trkpt>
   <trkpt lat="45.775245" lon="3.179303"><ele>337.25</ele></trkpt>
   <trkpt lat="45.775253" lon="3.179334"><ele>337.25</ele></trkpt>
   <trkpt lat="45.775268" lon="3.17936"><ele>337</ele></trkpt>
   <trkpt lat="45.775163" lon="3.179458"><ele>338</ele></trkpt>
   <trkpt lat="45.775019" lon="3.179528"><ele>340</ele></trkpt>
   <trkpt lat="45.77479" lon="3.179622"><ele>340</ele></trkpt>
   <trkpt lat="45.77445" lon="3.179756"><ele>339.75</ele></trkpt>
   <trkpt lat="45.774318" lon="3.179769"><ele>340.75</ele></trkpt>
   <trkpt lat="45.774227" lon="3.179732"><ele>341.5</ele></trkpt>
   <trkpt lat="45.774188" lon="3.179652"><ele>342</ele></trkpt>
   <trkpt lat="45.774082" lon="3.17979"><ele>342.25</ele></trkpt>
   <trkpt lat="45.774049" lon="3.17983"><ele>342.25</ele></trkpt>
   <trkpt lat="45.773989" lon="3.180034"><ele>342</ele></trkpt>
   <trkpt lat="45.773974" lon="3.180087"><ele>342</ele></trkpt>
   <trkpt lat="45.773899" lon="3.18034"><ele>341.5</ele></trkpt>
   <trkpt lat="45.773724" lon="3.180942"><ele>340.75</ele></trkpt>
   <trkpt lat="45.773679" lon="3.181092"><ele>340.75</ele></trkpt>
   <trkpt lat="45.773651" lon="3.181187"><ele>340.75</ele></trkpt>
   <trkpt lat="45.773495" lon="3.181746"><ele>339.5</ele></trkpt>
   <trkpt lat="45.773443" lon="3.181918"><ele>339.5</ele></trkpt>
   <trkpt lat="45.773292" lon="3.182403"><ele>339.75</ele></trkpt>
   <trkpt lat="45.773161" lon="3.182853"><ele>339</ele></trkpt>
   <trkpt lat="45.773054" lon="3.183225"><ele>339.25</ele></trkpt>
   <trkpt lat="45.772936" lon="3.183629"><ele>338.75</ele></trkpt>
   <trkpt lat="45.7728" lon="3.183971"><ele>338.75</ele></trkpt>
   <trkpt lat="45.772725" lon="3.184131"><ele>339</ele></trkpt>
   <trkpt lat="45.772657" lon="3.184253"><ele>339.25</ele></trkpt>
   <trkpt lat="45.772544" lon="3.184418"><ele>339.75</ele></trkpt>
   <trkpt lat="45.772413" lon="3.184623"><ele>339.5</ele></trkpt>
   <trkpt lat="45.772291" lon="3.184826"><ele>339.75</ele></trkpt>
   <trkpt lat="45.772205" lon="3.184952"><ele>340</ele></trkpt>
   <trkpt lat="45.772017" lon="3.185231"><ele>340.5</ele></trkpt>
   <trkpt lat="45.771927" lon="3.185359"><ele>341</ele></trkpt>
   <trkpt lat="45.771836" lon="3.185541"><ele>341.25</ele></trkpt>
   <trkpt lat="45.771777" lon="3.185695"><ele>341.25</ele></trkpt>
   <trkpt lat="45.771704" lon="3.185942"><ele>341.5</ele></trkpt>
   <trkpt lat="45.771679" lon="3.186046"><ele>341.75</ele></trkpt>
   <trkpt lat="45.771487" lon="3.186727"><ele>342.25</ele></trkpt>
   <trkpt lat="45.771427" lon="3.186919"><ele>342.5</ele></trkpt>
   <trkpt lat="45.771395" lon="3.18704"><ele>342.75</ele></trkpt>
   <trkpt lat="45.771318" lon="3.187291"><ele>343</ele></trkpt>
   <trkpt lat="45.771177" lon="3.187629"><ele>343.5</ele></trkpt>
   <trkpt lat="45.771144" lon="3.187692"><ele>343.75</ele></trkpt>
   <trkpt lat="45.770849" lon="3.188249"><ele>344.5</ele></trkpt>
   <trkpt lat="45.770768" lon="3.18839"><ele>344.75</ele></trkpt>
   <trkpt lat="45.770375" lon="3.18914"><ele>345.5</ele></trkpt>
   <trkpt lat="45.770286" lon="3.189307"><ele>345.75</ele></trkpt>
   <trkpt lat="45.769973" lon="3.189899"><ele>347</ele></trkpt>
   <trkpt lat="45.769928" lon="3.190007"><ele>347</ele></trkpt>
   <trkpt lat="45.769878" lon="3.190127"><ele>346.75</ele></trkpt>
   <trkpt lat="45.769833" lon="3.190322"><ele>346.5</ele></trkpt>
   <trkpt lat="45.769756" lon="3.19062"><ele>347.75</ele></trkpt>
   <trkpt lat="45.769701" lon="3.190847"><ele>348</ele></trkpt>
   <trkpt lat="45.769692" lon="3.190961"><ele>347.5</ele></trkpt>
   <trkpt lat="45.769695" lon="3.191065"><ele>347.25</ele></trkpt>
   <trkpt lat="45.769627" lon="3.191149"><ele>347.5</ele></trkpt>
   <trkpt lat="45.769598" lon="3.191226"><ele>347.5</ele></trkpt>
   <trkpt lat="45.76951" lon="3.191556"><ele>347.5</ele></trkpt>
   <trkpt lat="45.769367" lon="3.192178"><ele>348.25</ele></trkpt>
   <trkpt lat="45.769345" lon="3.192282"><ele>348</ele></trkpt>
   <trkpt lat="45.76928" lon="3.192558"><ele>348</ele></trkpt>
   <trkpt lat="45.769143" lon="3.193072"><ele>349</ele></trkpt>
   <trkpt lat="45.769074" lon="3.193311"><ele>349.25</ele></trkpt>
   <trkpt lat="45.768988" lon="3.193548"><ele>349.25</ele></trkpt>
   <trkpt lat="45.768895" lon="3.193779"><ele>349.75</ele></trkpt>
   <trkpt lat="45.768856" lon="3.193873"><ele>350</ele></trkpt>
   <trkpt lat="45.768777" lon="3.19407"><ele>351</ele></trkpt>
   <trkpt lat="45.768716" lon="3.194258"><ele>351.25</ele></trkpt>
   <trkpt lat="45.768512" lon="3.194948"><ele>352.5</ele></trkpt>
   <trkpt lat="45.768465" lon="3.195077"><ele>353</ele></trkpt>
   <trkpt lat="45.768385" lon="3.195217"><ele>353.5</ele></trkpt>
   <trkpt lat="45.768344" lon="3.195276"><ele>353.75</ele></trkpt>
   <trkpt lat="45.768337" lon="3.195278"><ele>353.75</ele></trkpt>
   <trkpt lat="45.768293" lon="3.195345"><ele>354.25</ele></trkpt>
   <trkpt lat="45.768276" lon="3.195414"><ele>354.5</ele></trkpt>
   <trkpt lat="45.768186" lon="3.195554"><ele>355.5</ele></trkpt>
   <trkpt lat="45.768172" lon="3.19557"><ele>355.5</ele></trkpt>
   <trkpt lat="45.767933" lon="3.195872"><ele>357.5</ele></trkpt>
   <trkpt lat="45.767752" lon="3.196104"><ele>359</ele></trkpt>
   <trkpt lat="45.767566" lon="3.196354"><ele>359.75</ele></trkpt>
   <trkpt lat="45.767381" lon="3.196588"><ele>361.25</ele></trkpt>
   <trkpt lat="45.767238" lon="3.196697"><ele>361.75</ele></trkpt>
   <trkpt lat="45.766712" lon="3.197414"><ele>365.25</ele></trkpt>
   <trkpt lat="45.766683" lon="3.197469"><ele>365.75</ele></trkpt>
   <trkpt lat="45.766663" lon="3.197512"><ele>366</ele></trkpt>
   <trkpt lat="45.766558" lon="3.197662"><ele>366.5</ele></trkpt>
   <trkpt lat="45.766431" lon="3.197819"><ele>366.75</ele></trkpt>
   <trkpt lat="45.766273" lon="3.198067"><ele>367.75</ele></trkpt>
   <trkpt lat="45.766196" lon="3.198213"><ele>367.75</ele></trkpt>
   <trkpt lat="45.766133" lon="3.198362"><ele>367.75</ele></trkpt>
   <trkpt lat="45.766083" lon="3.198497"><ele>368</ele></trkpt>
   <trkpt lat="45.766028" lon="3.198681"><ele>368.5</ele></trkpt>
   <trkpt lat="45.76594" lon="3.199071"><ele>368.75</ele></trkpt>
   <trkpt lat="45.76579" lon="3.199833"><ele>368.5</ele></trkpt>
   <trkpt lat="45.76579" lon="3.199911"><ele>368</ele></trkpt>
   <trkpt lat="45.765807" lon="3.199997"><ele>367.25</ele></trkpt>
   <trkpt lat="45.765831" lon="3.200037"><ele>367</ele></trkpt>
   <trkpt lat="45.765714" lon="3.200189"><ele>368</ele></trkpt>
   <trkpt lat="45.765501" lon="3.200492"><ele>369.5</ele></trkpt>
   <trkpt lat="45.765457" lon="3.200555"><ele>370</ele></trkpt>
   <trkpt lat="45.765298" lon="3.200781"><ele>371</ele></trkpt>
   <trkpt lat="45.765022" lon="3.201178"><ele>372</ele></trkpt>
   <trkpt lat="45.764926" lon="3.201308"><ele>373</ele></trkpt>
   <trkpt lat="45.76487" lon="3.201387"><ele>373.25</ele></trkpt>
   <trkpt lat="45.764292" lon="3.202219"><ele>376.5</ele></trkpt>
   <trkpt lat="45.764239" lon="3.202294"><ele>376.5</ele></trkpt>
   <trkpt lat="45.764168" lon="3.202405"><ele>376.75</ele></trkpt>
   <trkpt lat="45.764015" lon="3.20262"><ele>377.5</ele></trkpt>
   <trkpt lat="45.763849" lon="3.202896"><ele>378.25</ele></trkpt>
   <trkpt lat="45.763727" lon="3.203119"><ele>379</ele></trkpt>
   <trkpt lat="45.763581" lon="3.203423"><ele>379.75</ele></trkpt>
   <trkpt lat="45.763557" lon="3.203472"><ele>379.75</ele></trkpt>
   <trkpt lat="45.763508" lon="3.203585"><ele>380</ele></trkpt>
   <trkpt lat="45.763311" lon="3.204081"><ele>382.75</ele></trkpt>
   <trkpt lat="45.76311" lon="3.204593"><ele>385.5</ele></trkpt>
   <trkpt lat="45.762999" lon="3.204838"><ele>386.75</ele></trkpt>
   <trkpt lat="45.762797" lon="3.205213"><ele>388</ele></trkpt>
   <trkpt lat="45.762738" lon="3.205311"><ele>388.25</ele></trkpt>
   <trkpt lat="45.762773" lon="3.205376"><ele>388.25</ele></trkpt>
   <trkpt lat="45.762776" lon="3.205411"><ele>388.25</ele></trkpt>
   <trkpt lat="45.762781" lon="3.20545"><ele>388.5</ele></trkpt>
   <trkpt lat="45.762799" lon="3.205509"><ele>388.75</ele></trkpt>
   <trkpt lat="45.762962" lon="3.206097"><ele>388.25</ele></trkpt>
   <trkpt lat="45.762985" lon="3.206282"><ele>387.75</ele></trkpt>
   <trkpt lat="45.76299" lon="3.20644"><ele>387.25</ele></trkpt>
   <trkpt lat="45.762996" lon="3.206556"><ele>387.25</ele></trkpt>
   <trkpt lat="45.762673" lon="3.206629"><ele>389.25</ele></trkpt>
   <trkpt lat="45.76249" lon="3.206686"><ele>390</ele></trkpt>
   <trkpt lat="45.762315" lon="3.206785"><ele>391</ele></trkpt>
   <trkpt lat="45.762143" lon="3.206899"><ele>391.5</ele></trkpt>
   <trkpt lat="45.761746" lon="3.207227"><ele>392.5</ele></trkpt>
   <trkpt lat="45.760862" lon="3.208051"><ele>392.5</ele></trkpt>
   <trkpt lat="45.760208" lon="3.20869"><ele>387.25</ele></trkpt>
   <trkpt lat="45.75954" lon="3.209317"><ele>379.75</ele></trkpt>
   <trkpt lat="45.758844" lon="3.209905"><ele>373</ele></trkpt>
   <trkpt lat="45.758379" lon="3.210235"><ele>370.75</ele></trkpt>
   <trkpt lat="45.757922" lon="3.210518"><ele>367</ele></trkpt>
   <trkpt lat="45.757721" lon="3.210631"><ele>366.25</ele></trkpt>
   <trkpt lat="45.757515" lon="3.21074"><ele>365.5</ele></trkpt>
   <trkpt lat="45.75702" lon="3.210964"><ele>364.25</ele></trkpt>
   <trkpt lat="45.756619" lon="3.211126"><ele>363.5</ele></trkpt>
   <trkpt lat="45.756202" lon="3.211309"><ele>361.5</ele></trkpt>
   <trkpt lat="45.754172" lon="3.212144"><ele>349.5</ele></trkpt>
   <trkpt lat="45.75354" lon="3.212401"><ele>346.25</ele></trkpt>
   <trkpt lat="45.753161" lon="3.212542"><ele>345.5</ele></trkpt>
   <trkpt lat="45.752824" lon="3.212625"><ele>343.5</ele></trkpt>
   <trkpt lat="45.752602" lon="3.212666"><ele>342.5</ele></trkpt>
   <trkpt lat="45.75239" lon="3.212674"><ele>341.75</ele></trkpt>
   <trkpt lat="45.752152" lon="3.212654"><ele>340.75</ele></trkpt>
   <trkpt lat="45.75202" lon="3.212634"><ele>340</ele></trkpt>
   <trkpt lat="45.751864" lon="3.21259"><ele>339.75</ele></trkpt>
   <trkpt lat="45.751731" lon="3.212553"><ele>339.75</ele></trkpt>
   <trkpt lat="45.751576" lon="3.212499"><ele>339.5</ele></trkpt>
   <trkpt lat="45.751425" lon="3.212427"><ele>339</ele></trkpt>
   <trkpt lat="45.75037" lon="3.211815"><ele>332.25</ele></trkpt>
   <trkpt lat="45.74952" lon="3.211312"><ele>329.75</ele></trkpt>
   <trkpt lat="45.749156" lon="3.211149"><ele>328.5</ele></trkpt>
   <trkpt lat="45.748946" lon="3.211074"><ele>328.5</ele></trkpt>
   <trkpt lat="45.748783" lon="3.211028"><ele>327.75</ele></trkpt>
   <trkpt lat="45.748468" lon="3.210981"><ele>326</ele></trkpt>
   <trkpt lat="45.748312" lon="3.210973"><ele>325.25</ele></trkpt>
   <trkpt lat="45.748153" lon="3.21098"><ele>325.25</ele></trkpt>
   <trkpt lat="45.747833" lon="3.211027"><ele>324.5</ele></trkpt>
   <trkpt lat="45.747673" lon="3.211073"><ele>324.5</ele></trkpt>
   <trkpt lat="45.747352" lon="3.211197"><ele>324</ele></trkpt>
   <trkpt lat="45.747177" lon="3.211294"><ele>323.5</ele></trkpt>
   <trkpt lat="45.747006" lon="3.211408"><ele>324</ele></trkpt>
   <trkpt lat="45.746883" lon="3.211525"><ele>323.75</ele></trkpt>
   <trkpt lat="45.746761" lon="3.211672"><ele>323.75</ele></trkpt>
   <trkpt lat="45.746668" lon="3.211813"><ele>324.25</ele></trkpt>
   <trkpt lat="45.746646" lon="3.211867"><ele>324.25</ele></trkpt>
   <trkpt lat="45.746628" lon="3.211925"><ele>324.25</ele></trkpt>
   <trkpt lat="45.746608" lon="3.212047"><ele>324</ele></trkpt>
   <trkpt lat="45.746595" lon="3.212173"><ele>323.5</ele></trkpt>
   <trkpt lat="45.746592" lon="3.212273"><ele>323.25</ele></trkpt>
   <trkpt lat="45.74657" lon="3.212332"><ele>323.5</ele></trkpt>
   <trkpt lat="45.746513" lon="3.212449"><ele>323.5</ele></trkpt>
   <trkpt lat="45.74649" lon="3.212542"><ele>323.25</ele></trkpt>
   <trkpt lat="45.746486" lon="3.212747"><ele>322.75</ele></trkpt>
   <trkpt lat="45.746472" lon="3.212933"><ele>321.75</ele></trkpt>
   <trkpt lat="45.746443" lon="3.213194"><ele>321</ele></trkpt>
   <trkpt lat="45.746475" lon="3.213771"><ele>320.5</ele></trkpt>
   <trkpt lat="45.746517" lon="3.214173"><ele>320.5</ele></trkpt>
   <trkpt lat="45.746633" lon="3.21528"><ele>319.75</ele></trkpt>
   <trkpt lat="45.746802" lon="3.216429"><ele>318.75</ele></trkpt>
   <trkpt lat="45.746807" lon="3.21648"><ele>318.25</ele></trkpt>
   <trkpt lat="45.74666" lon="3.216488"><ele>317.75</ele></trkpt>
   <trkpt lat="45.746221" lon="3.216471"><ele>318.5</ele></trkpt>
   <trkpt lat="45.746124" lon="3.216477"><ele>318</ele></trkpt>
   <trkpt lat="45.745966" lon="3.216504"><ele>318</ele></trkpt>
   <trkpt lat="45.745833" lon="3.216555"><ele>318.25</ele></trkpt>
   <trkpt lat="45.745692" lon="3.216613"><ele>319</ele></trkpt>
   <trkpt lat="45.745565" lon="3.216731"><ele>319.5</ele></trkpt>
   <trkpt lat="45.745441" lon="3.217015"><ele>319</ele></trkpt>
   <trkpt lat="45.745345" lon="3.217147"><ele>319.25</ele></trkpt>
   <trkpt lat="45.745292" lon="3.217203"><ele>319.75</ele></trkpt>
   <trkpt lat="45.745235" lon="3.217242"><ele>319.75</ele></trkpt>
   <trkpt lat="45.745055" lon="3.217323"><ele>320.5</ele></trkpt>
   <trkpt lat="45.744984" lon="3.217392"><ele>320.75</ele></trkpt>
   <trkpt lat="45.744894" lon="3.217562"><ele>319.75</ele></trkpt>
   <trkpt lat="45.744821" lon="3.217822"><ele>318.25</ele></trkpt>
   <trkpt lat="45.74418" lon="3.2185"><ele>320.25</ele></trkpt>
   <trkpt lat="45.743899" lon="3.219011"><ele>319.75</ele></trkpt>
   <trkpt lat="45.743792" lon="3.219249"><ele>319</ele></trkpt>
   <trkpt lat="45.74347" lon="3.220377"><ele>319.75</ele></trkpt>
   <trkpt lat="45.743451" lon="3.220501"><ele>319.75</ele></trkpt>
   <trkpt lat="45.743451" lon="3.220586"><ele>319.5</ele></trkpt>
   <trkpt lat="45.743524" lon="3.221511"><ele>318.75</ele></trkpt>
   <trkpt lat="45.743502" lon="3.221825"><ele>319</ele></trkpt>
   <trkpt lat="45.743341" lon="3.222275"><ele>320.25</ele></trkpt>
   <trkpt lat="45.743047" lon="3.222703"><ele>320.75</ele></trkpt>
   <trkpt lat="45.742973" lon="3.222777"><ele>320.5</ele></trkpt>
   <trkpt lat="45.742901" lon="3.222865"><ele>320</ele></trkpt>
   <trkpt lat="45.742893" lon="3.222882"><ele>319.25</ele></trkpt>
   <trkpt lat="45.74273" lon="3.223273"><ele>319.25</ele></trkpt>
   <trkpt lat="45.742678" lon="3.223348"><ele>319.25</ele></trkpt>
   <trkpt lat="45.742137" lon="3.223902"><ele>320</ele></trkpt>
   <trkpt lat="45.742045" lon="3.223927"><ele>320</ele></trkpt>
   <trkpt lat="45.741388" lon="3.224038"><ele>318.25</ele></trkpt>
   <trkpt lat="45.741147" lon="3.224056"><ele>318.5</ele></trkpt>
   <trkpt lat="45.740651" lon="3.224112"><ele>320.25</ele></trkpt>
   <trkpt lat="45.740384" lon="3.224107"><ele>320.5</ele></trkpt>
   <trkpt lat="45.73998" lon="3.224059"><ele>319</ele></trkpt>
   <trkpt lat="45.739766" lon="3.223984"><ele>319.5</ele></trkpt>
   <trkpt lat="45.739599" lon="3.223887"><ele>319.5</ele></trkpt>
   <trkpt lat="45.739491" lon="3.223786"><ele>319.25</ele></trkpt>
   <trkpt lat="45.739378" lon="3.223632"><ele>319.75</ele></trkpt>
   <trkpt lat="45.739267" lon="3.223402"><ele>319.25</ele></trkpt>
   <trkpt lat="45.739167" lon="3.223134"><ele>321</ele></trkpt>
   <trkpt lat="45.739104" lon="3.222929"><ele>320.75</ele></trkpt>
   <trkpt lat="45.739075" lon="3.222754"><ele>320.25</ele></trkpt>
   <trkpt lat="45.739077" lon="3.222343"><ele>320.25</ele></trkpt>
   <trkpt lat="45.739055" lon="3.222069"><ele>319.75</ele></trkpt>
   <trkpt lat="45.739063" lon="3.221663"><ele>320.5</ele></trkpt>
   <trkpt lat="45.739017" lon="3.221394"><ele>320.25</ele></trkpt>
   <trkpt lat="45.738951" lon="3.221071"><ele>321.5</ele></trkpt>
   <trkpt lat="45.738854" lon="3.22085"><ele>322</ele></trkpt>
   <trkpt lat="45.738827" lon="3.220726"><ele>321.5</ele></trkpt>
   <trkpt lat="45.738828" lon="3.220637"><ele>321.5</ele></trkpt>
   <trkpt lat="45.738839" lon="3.220553"><ele>321.75</ele></trkpt>
   <trkpt lat="45.738908" lon="3.220303"><ele>322.75</ele></trkpt>
   <trkpt lat="45.738914" lon="3.220171"><ele>322.75</ele></trkpt>
   <trkpt lat="45.738889" lon="3.220075"><ele>322.75</ele></trkpt>
   <trkpt lat="45.738839" lon="3.219989"><ele>322.75</ele></trkpt>
   <trkpt lat="45.738661" lon="3.219732"><ele>322.75</ele></trkpt>
   <trkpt lat="45.738542" lon="3.219557"><ele>321.75</ele></trkpt>
   <trkpt lat="45.738322" lon="3.219211"><ele>322</ele></trkpt>
   <trkpt lat="45.738005" lon="3.218847"><ele>321.75</ele></trkpt>
   <trkpt lat="45.737646" lon="3.218251"><ele>320.75</ele></trkpt>
   <trkpt lat="45.737341" lon="3.21782"><ele>321.25</ele></trkpt>
   <trkpt lat="45.737221" lon="3.217661"><ele>321.75</ele></trkpt>
   <trkpt lat="45.736854" lon="3.217328"><ele>320.25</ele></trkpt>
   <trkpt lat="45.736545" lon="3.216981"><ele>320.25</ele></trkpt>
   <trkpt lat="45.735855" lon="3.216308"><ele>320</ele></trkpt>
   <trkpt lat="45.735678" lon="3.216129"><ele>320.5</ele></trkpt>
   <trkpt lat="45.735678" lon="3.216129"><ele>320.5</ele></trkpt>
   <trkpt lat="45.735855" lon="3.216308"><ele>320</ele></trkpt>
   <trkpt lat="45.735825" lon="3.216181"><ele>321</ele></trkpt>
   <trkpt lat="45.735785" lon="3.216071"><ele>322</ele></trkpt>
   <trkpt lat="45.735544" lon="3.215821"><ele>324</ele></trkpt>
   <trkpt lat="45.735479" lon="3.215729"><ele>324.75</ele></trkpt>
   <trkpt lat="45.735457" lon="3.215647"><ele>325.75</ele></trkpt>
   <trkpt lat="45.735487" lon="3.215188"><ele>327.25</ele></trkpt>
   <trkpt lat="45.735516" lon="3.214613"><ele>328.75</ele></trkpt>
   <trkpt lat="45.735484" lon="3.214493"><ele>329.5</ele></trkpt>
   <trkpt lat="45.735579" lon="3.214308"><ele>329.75</ele></trkpt>
   <trkpt lat="45.735594" lon="3.214279"><ele>329.75</ele></trkpt>
   <trkpt lat="45.735506" lon="3.214242"><ele>330</ele></trkpt>
   <trkpt lat="45.735481" lon="3.21418"><ele>330</ele></trkpt>
   <trkpt lat="45.735429" lon="3.214113"><ele>330</ele></trkpt>
   <trkpt lat="45.735119" lon="3.213842"><ele>330</ele></trkpt>
   <trkpt lat="45.734898" lon="3.213588"><ele>330</ele></trkpt>
   <trkpt lat="45.734694" lon="3.213313"><ele>330.75</ele></trkpt>
   <trkpt lat="45.73367" lon="3.211602"><ele>331.25</ele></trkpt>
   <trkpt lat="45.733599" lon="3.211502"><ele>331.5</ele></trkpt>
   <trkpt lat="45.733521" lon="3.211415"><ele>332</ele></trkpt>
   <trkpt lat="45.733439" lon="3.211353"><ele>332.5</ele></trkpt>
   <trkpt lat="45.733383" lon="3.211293"><ele>332.75</ele></trkpt>
   <trkpt lat="45.733339" lon="3.211248"><ele>332.75</ele></trkpt>
   <trkpt lat="45.733332" lon="3.211115"><ele>332.75</ele></trkpt>
   <trkpt lat="45.733312" lon="3.211073"><ele>332.75</ele></trkpt>
   <trkpt lat="45.732602" lon="3.21013"><ele>337</ele></trkpt>
   <trkpt lat="45.73251" lon="3.210044"><ele>338.25</ele></trkpt>
   <trkpt lat="45.732414" lon="3.209992"><ele>338.5</ele></trkpt>
   <trkpt lat="45.732331" lon="3.209912"><ele>338.75</ele></trkpt>
   <trkpt lat="45.732292" lon="3.209822"><ele>339.25</ele></trkpt>
   <trkpt lat="45.732281" lon="3.20973"><ele>339.75</ele></trkpt>
   <trkpt lat="45.732168" lon="3.209523"><ele>340.75</ele></trkpt>
   <trkpt lat="45.732022" lon="3.209275"><ele>342.5</ele></trkpt>
   <trkpt lat="45.731923" lon="3.209078"><ele>343</ele></trkpt>
   <trkpt lat="45.731754" lon="3.208707"><ele>343.75</ele></trkpt>
   <trkpt lat="45.731579" lon="3.208353"><ele>344.5</ele></trkpt>
   <trkpt lat="45.731346" lon="3.207922"><ele>345.25</ele></trkpt>
   <trkpt lat="45.731025" lon="3.207429"><ele>345.75</ele></trkpt>
   <trkpt lat="45.730199" lon="3.206238"><ele>348.5</ele></trkpt>
   <trkpt lat="45.730071" lon="3.206044"><ele>349</ele></trkpt>
   <trkpt lat="45.730014" lon="3.205981"><ele>349.25</ele></trkpt>
   <trkpt lat="45.729798" lon="3.205816"><ele>349.75</ele></trkpt>
   <trkpt lat="45.729778" lon="3.205773"><ele>350</ele></trkpt>
   <trkpt lat="45.72975" lon="3.205715"><ele>350</ele></trkpt>
   <trkpt lat="45.729728" lon="3.205666"><ele>350</ele></trkpt>
   <trkpt lat="45.729711" lon="3.205629"><ele>350</ele></trkpt>
   <trkpt lat="45.729635" lon="3.205445"><ele>350</ele></trkpt>
   <trkpt lat="45.729536" lon="3.205285"><ele>350</ele></trkpt>
   <trkpt lat="45.729459" lon="3.205181"><ele>350</ele></trkpt>
   <trkpt lat="45.729258" lon="3.204903"><ele>349.5</ele></trkpt>
   <trkpt lat="45.729139" lon="3.204718"><ele>349.75</ele></trkpt>
   <trkpt lat="45.728992" lon="3.204488"><ele>350</ele></trkpt>
   <trkpt lat="45.728743" lon="3.204133"><ele>350.5</ele></trkpt>
   <trkpt lat="45.72869" lon="3.204058"><ele>350.5</ele></trkpt>
   <trkpt lat="45.728613" lon="3.203973"><ele>350.5</ele></trkpt>
   <trkpt lat="45.728349" lon="3.203617"><ele>350.75</ele></trkpt>
   <trkpt lat="45.728306" lon="3.203554"><ele>351</ele></trkpt>
   <trkpt lat="45.728298" lon="3.203542"><ele>351</ele></trkpt>
   <trkpt lat="45.728249" lon="3.203469"><ele>351</ele></trkpt>
   <trkpt lat="45.728191" lon="3.203388"><ele>351.25</ele></trkpt>
   <trkpt lat="45.72814" lon="3.203317"><ele>351.25</ele></trkpt>
   <trkpt lat="45.727988" lon="3.203104"><ele>351.75</ele></trkpt>
   <trkpt lat="45.727842" lon="3.20288"><ele>352.5</ele></trkpt>
   <trkpt lat="45.727808" lon="3.202827"><ele>352.75</ele></trkpt>
   <trkpt lat="45.727739" lon="3.202723"><ele>353</ele></trkpt>
   <trkpt lat="45.727332" lon="3.202147"><ele>353.25</ele></trkpt>
   <trkpt lat="45.727262" lon="3.202043"><ele>353.5</ele></trkpt>
   <trkpt lat="45.726843" lon="3.201518"><ele>354</ele></trkpt>
   <trkpt lat="45.726689" lon="3.201313"><ele>354.75</ele></trkpt>
   <trkpt lat="45.726288" lon="3.200843"><ele>355.5</ele></trkpt>
   <trkpt lat="45.726132" lon="3.200727"><ele>355.25</ele></trkpt>
   <trkpt lat="45.725883" lon="3.200542"><ele>355</ele></trkpt>
   <trkpt lat="45.725807" lon="3.200512"><ele>355</ele></trkpt>
   <trkpt lat="45.725768" lon="3.200463"><ele>355.25</ele></trkpt>
   <trkpt lat="45.725733" lon="3.200408"><ele>355.25</ele></trkpt>
   <trkpt lat="45.725776" lon="3.200251"><ele>355.75</ele></trkpt>
   <trkpt lat="45.725791" lon="3.200138"><ele>356.25</ele></trkpt>
   <trkpt lat="45.72579" lon="3.200037"><ele>356.5</ele></trkpt>
   <trkpt lat="45.725779" lon="3.199941"><ele>356.75</ele></trkpt>
   <trkpt lat="45.725632" lon="3.199491"><ele>356.75</ele></trkpt>
   <trkpt lat="45.725458" lon="3.19895"><ele>357</ele></trkpt>
   <trkpt lat="45.725387" lon="3.198676"><ele>356</ele></trkpt>
   <trkpt lat="45.725341" lon="3.198395"><ele>355.5</ele></trkpt>
   <trkpt lat="45.725312" lon="3.198005"><ele>355</ele></trkpt>
   <trkpt lat="45.725302" lon="3.197651"><ele>354.5</ele></trkpt>
   <trkpt lat="45.7253" lon="3.197208"><ele>354</ele></trkpt>
   <trkpt lat="45.725287" lon="3.197119"><ele>353.5</ele></trkpt>
   <trkpt lat="45.725288" lon="3.197002"><ele>353.25</ele></trkpt>
   <trkpt lat="45.725294" lon="3.196944"><ele>353</ele></trkpt>
   <trkpt lat="45.72531" lon="3.196887"><ele>353.5</ele></trkpt>
   <trkpt lat="45.725316" lon="3.19674"><ele>354</ele></trkpt>
   <trkpt lat="45.725317" lon="3.19664"><ele>354.25</ele></trkpt>
   <trkpt lat="45.725318" lon="3.196488"><ele>354.25</ele></trkpt>
   <trkpt lat="45.725268" lon="3.196501"><ele>353.75</ele></trkpt>
   <trkpt lat="45.725206" lon="3.196532"><ele>352.25</ele></trkpt>
   <trkpt lat="45.72515" lon="3.196546"><ele>351.25</ele></trkpt>
   <trkpt lat="45.72511" lon="3.19657"><ele>350.5</ele></trkpt>
   <trkpt lat="45.725084" lon="3.196625"><ele>350.75</ele></trkpt>
   <trkpt lat="45.72505" lon="3.196687"><ele>350.5</ele></trkpt>
   <trkpt lat="45.724942" lon="3.197012"><ele>348</ele></trkpt>
   <trkpt lat="45.724579" lon="3.197893"><ele>343.75</ele></trkpt>
   <trkpt lat="45.724512" lon="3.197838"><ele>341.75</ele></trkpt>
   <trkpt lat="45.724296" lon="3.197646"><ele>337.75</ele></trkpt>
   <trkpt lat="45.724242" lon="3.197603"><ele>338.25</ele></trkpt>
   <trkpt lat="45.724296" lon="3.197646"><ele>337.75</ele></trkpt>
   <trkpt lat="45.724286" lon="3.197084"><ele>336.75</ele></trkpt>
   <trkpt lat="45.724279" lon="3.196857"><ele>337.5</ele></trkpt>
   <trkpt lat="45.724313" lon="3.196625"><ele>338</ele></trkpt>
   <trkpt lat="45.724359" lon="3.196455"><ele>338.25</ele></trkpt>
   <trkpt lat="45.724399" lon="3.196367"><ele>338.25</ele></trkpt>
   <trkpt lat="45.72448" lon="3.196216"><ele>337.75</ele></trkpt>
   <trkpt lat="45.724515" lon="3.196089"><ele>337.5</ele></trkpt>
   <trkpt lat="45.724502" lon="3.195844"><ele>338.75</ele></trkpt>
   <trkpt lat="45.724356" lon="3.195415"><ele>338.75</ele></trkpt>
   <trkpt lat="45.724298" lon="3.195262"><ele>339</ele></trkpt>
   <trkpt lat="45.724216" lon="3.195171"><ele>339.25</ele></trkpt>
   <trkpt lat="45.723995" lon="3.195084"><ele>340.5</ele></trkpt>
   <trkpt lat="45.723815" lon="3.194949"><ele>340.75</ele></trkpt>
   <trkpt lat="45.723545" lon="3.194785"><ele>341.25</ele></trkpt>
   <trkpt lat="45.723532" lon="3.194758"><ele>341.25</ele></trkpt>
   <trkpt lat="45.723489" lon="3.19429"><ele>339.75</ele></trkpt>
   <trkpt lat="45.723425" lon="3.194252"><ele>339.75</ele></trkpt>
   <trkpt lat="45.723304" lon="3.194299"><ele>340.5</ele></trkpt>
   <trkpt lat="45.723201" lon="3.194286"><ele>340.75</ele></trkpt>
   <trkpt lat="45.723046" lon="3.194145"><ele>340.75</ele></trkpt>
   <trkpt lat="45.722781" lon="3.19402"><ele>340.75</ele></trkpt>
   <trkpt lat="45.722713" lon="3.193994"><ele>341.75</ele></trkpt>
   <trkpt lat="45.722612" lon="3.193956"><ele>341.75</ele></trkpt>
   <trkpt lat="45.72259" lon="3.193883"><ele>342</ele></trkpt>
   <trkpt lat="45.722567" lon="3.193765"><ele>341.5</ele></trkpt>
   <trkpt lat="45.722559" lon="3.193616"><ele>341</ele></trkpt>
   <trkpt lat="45.72262" lon="3.193591"><ele>341</ele></trkpt>
   <trkpt lat="45.723224" lon="3.193195"><ele>340.25</ele></trkpt>
   <trkpt lat="45.723286" lon="3.193129"><ele>340.5</ele></trkpt>
   <trkpt lat="45.723327" lon="3.193099"><ele>340.75</ele></trkpt>
   <trkpt lat="45.723398" lon="3.193013"><ele>340.75</ele></trkpt>
   <trkpt lat="45.724134" lon="3.192089"><ele>344.5</ele></trkpt>
   <trkpt lat="45.724174" lon="3.192021"><ele>345.5</ele></trkpt>
   <trkpt lat="45.724226" lon="3.19196"><ele>346.25</ele></trkpt>
   <trkpt lat="45.72427" lon="3.19195"><ele>346.5</ele></trkpt>
   <trkpt lat="45.724307" lon="3.191943"><ele>347</ele></trkpt>
   <trkpt lat="45.72432" lon="3.19197"><ele>346.75</ele></trkpt>
   <trkpt lat="45.724339" lon="3.191988"><ele>347</ele></trkpt>
   <trkpt lat="45.724362" lon="3.191994"><ele>347</ele></trkpt>
   <trkpt lat="45.724384" lon="3.191987"><ele>347.25</ele></trkpt>
   <trkpt lat="45.724403" lon="3.191968"><ele>347.5</ele></trkpt>
   <trkpt lat="45.724415" lon="3.191941"><ele>347.75</ele></trkpt>
   <trkpt lat="45.724419" lon="3.191908"><ele>347.75</ele></trkpt>
   <trkpt lat="45.724415" lon="3.191876"><ele>348</ele></trkpt>
   <trkpt lat="45.724401" lon="3.19185"><ele>348</ele></trkpt>
   <trkpt lat="45.724423" lon="3.19182"><ele>348.25</ele></trkpt>
   <trkpt lat="45.724481" lon="3.191735"><ele>349</ele></trkpt>
   <trkpt lat="45.724573" lon="3.191606"><ele>350</ele></trkpt>
   <trkpt lat="45.724664" lon="3.191476"><ele>350.5</ele></trkpt>
   <trkpt lat="45.724873" lon="3.191178"><ele>352.75</ele></trkpt>
   <trkpt lat="45.72494" lon="3.191089"><ele>353.5</ele></trkpt>
   <trkpt lat="45.725109" lon="3.190861"><ele>354.25</ele></trkpt>
   <trkpt lat="45.725871" lon="3.189993"><ele>357.25</ele></trkpt>
   <trkpt lat="45.726006" lon="3.189839"><ele>357.75</ele></trkpt>
   <trkpt lat="45.726073" lon="3.189764"><ele>357.75</ele></trkpt>
   <trkpt lat="45.726143" lon="3.189687"><ele>358.25</ele></trkpt>
   <trkpt lat="45.726245" lon="3.189577"><ele>358.75</ele></trkpt>
   <trkpt lat="45.72641" lon="3.189386"><ele>359</ele></trkpt>
   <trkpt lat="45.726514" lon="3.189282"><ele>359.25</ele></trkpt>
   <trkpt lat="45.726555" lon="3.189231"><ele>359.5</ele></trkpt>
   <trkpt lat="45.726573" lon="3.189167"><ele>359.5</ele></trkpt>
   <trkpt lat="45.726618" lon="3.189153"><ele>359.75</ele></trkpt>
   <trkpt lat="45.726658" lon="3.18912"><ele>359.75</ele></trkpt>
   <trkpt lat="45.726689" lon="3.189071"><ele>359.75</ele></trkpt>
   <trkpt lat="45.726706" lon="3.18901"><ele>360</ele></trkpt>
   <trkpt lat="45.726708" lon="3.188927"><ele>360</ele></trkpt>
   <trkpt lat="45.726764" lon="3.188863"><ele>359.75</ele></trkpt>
   <trkpt lat="45.726885" lon="3.188806"><ele>359.5</ele></trkpt>
   <trkpt lat="45.726976" lon="3.188777"><ele>359.5</ele></trkpt>
   <trkpt lat="45.727242" lon="3.18856"><ele>358.75</ele></trkpt>
   <trkpt lat="45.727392" lon="3.188437"><ele>358</ele></trkpt>
   <trkpt lat="45.72746" lon="3.188316"><ele>358</ele></trkpt>
   <trkpt lat="45.727638" lon="3.188213"><ele>357.5</ele></trkpt>
   <trkpt lat="45.727757" lon="3.188134"><ele>357</ele></trkpt>
   <trkpt lat="45.727914" lon="3.188"><ele>357</ele></trkpt>
   <trkpt lat="45.728025" lon="3.187891"><ele>357</ele></trkpt>
   <trkpt lat="45.728175" lon="3.187738"><ele>356.25</ele></trkpt>
   <trkpt lat="45.728299" lon="3.1876"><ele>356</ele></trkpt>
   <trkpt lat="45.728557" lon="3.187267"><ele>355.75</ele></trkpt>
   <trkpt lat="45.728879" lon="3.186866"><ele>355</ele></trkpt>
   <trkpt lat="45.728931" lon="3.1868"><ele>354.75</ele></trkpt>
   <trkpt lat="45.729666" lon="3.1858"><ele>353.75</ele></trkpt>
   <trkpt lat="45.730072" lon="3.185174"><ele>353.5</ele></trkpt>
   <trkpt lat="45.730508" lon="3.184537"><ele>354</ele></trkpt>
   <trkpt lat="45.730601" lon="3.184405"><ele>353.75</ele></trkpt>
   <trkpt lat="45.730693" lon="3.184255"><ele>353.5</ele></trkpt>
   <trkpt lat="45.731366" lon="3.183247"><ele>353.5</ele></trkpt>
   <trkpt lat="45.731488" lon="3.183074"><ele>353</ele></trkpt>
   <trkpt lat="45.731564" lon="3.183097"><ele>353</ele></trkpt>
   <trkpt lat="45.731631" lon="3.183158"><ele>353</ele></trkpt>
   <trkpt lat="45.7317" lon="3.183168"><ele>352.75</ele></trkpt>
   <trkpt lat="45.731783" lon="3.183198"><ele>353</ele></trkpt>
   <trkpt lat="45.732573" lon="3.183473"><ele>353</ele></trkpt>
   <trkpt lat="45.732878" lon="3.183579"><ele>353.75</ele></trkpt>
   <trkpt lat="45.733273" lon="3.183716"><ele>354</ele></trkpt>
   <trkpt lat="45.733535" lon="3.183807"><ele>354</ele></trkpt>
   <trkpt lat="45.733803" lon="3.183891"><ele>354.5</ele></trkpt>
   <trkpt lat="45.733931" lon="3.18394"><ele>355</ele></trkpt>
   <trkpt lat="45.733952" lon="3.183985"><ele>355</ele></trkpt>
   <trkpt lat="45.733973" lon="3.184009"><ele>354.75</ele></trkpt>
   <trkpt lat="45.733998" lon="3.184023"><ele>355</ele></trkpt>
   <trkpt lat="45.734039" lon="3.184023"><ele>355</ele></trkpt>
   <trkpt lat="45.734063" lon="3.18401"><ele>355</ele></trkpt>
   <trkpt lat="45.734083" lon="3.183988"><ele>355</ele></trkpt>
   <trkpt lat="45.734107" lon="3.183925"><ele>355</ele></trkpt>
   <trkpt lat="45.734109" lon="3.183889"><ele>355</ele></trkpt>
   <trkpt lat="45.734107" lon="3.183869"><ele>354.75</ele></trkpt>
   <trkpt lat="45.734131" lon="3.183687"><ele>354.75</ele></trkpt>
   <trkpt lat="45.734152" lon="3.183574"><ele>354.75</ele></trkpt>
   <trkpt lat="45.734733" lon="3.182237"><ele>355</ele></trkpt>
   <trkpt lat="45.734888" lon="3.181908"><ele>354.75</ele></trkpt>
   <trkpt lat="45.735045" lon="3.181595"><ele>355.25</ele></trkpt>
   <trkpt lat="45.735236" lon="3.181236"><ele>355.25</ele></trkpt>
   <trkpt lat="45.735403" lon="3.180952"><ele>355.75</ele></trkpt>
   <trkpt lat="45.735861" lon="3.180203"><ele>356</ele></trkpt>
   <trkpt lat="45.736307" lon="3.179487"><ele>356</ele></trkpt>
   <trkpt lat="45.736662" lon="3.178959"><ele>355.75</ele></trkpt>
   <trkpt lat="45.737455" lon="3.177829"><ele>356.5</ele></trkpt>
   <trkpt lat="45.737778" lon="3.177352"><ele>357</ele></trkpt>
   <trkpt lat="45.737868" lon="3.177306"><ele>357</ele></trkpt>
   <trkpt lat="45.737902" lon="3.177266"><ele>357</ele></trkpt>
   <trkpt lat="45.737945" lon="3.177287"><ele>357</ele></trkpt>
   <trkpt lat="45.737961" lon="3.177285"><ele>357</ele></trkpt>
   <trkpt lat="45.737991" lon="3.177265"><ele>357</ele></trkpt>
   <trkpt lat="45.738012" lon="3.177227"><ele>357</ele></trkpt>
   <trkpt lat="45.738019" lon="3.177185"><ele>356.75</ele></trkpt>
   <trkpt lat="45.738068" lon="3.177145"><ele>357</ele></trkpt>
   <trkpt lat="45.738109" lon="3.177082"><ele>357</ele></trkpt>
   <trkpt lat="45.738179" lon="3.176958"><ele>357</ele></trkpt>
   <trkpt lat="45.738393" lon="3.176742"><ele>357</ele></trkpt>
   <trkpt lat="45.740527" lon="3.175045"><ele>362.75</ele></trkpt>
   <trkpt lat="45.740772" lon="3.174861"><ele>363.75</ele></trkpt>
   <trkpt lat="45.740823" lon="3.174838"><ele>363.75</ele></trkpt>
   <trkpt lat="45.740893" lon="3.174849"><ele>364</ele></trkpt>
   <trkpt lat="45.740974" lon="3.174882"><ele>364.5</ele></trkpt>
   <trkpt lat="45.741012" lon="3.174906"><ele>364.5</ele></trkpt>
   <trkpt lat="45.741058" lon="3.174917"><ele>364.75</ele></trkpt>
   <trkpt lat="45.741102" lon="3.174916"><ele>364.75</ele></trkpt>
   <trkpt lat="45.741156" lon="3.174883"><ele>365</ele></trkpt>
   <trkpt lat="45.741199" lon="3.174835"><ele>365.25</ele></trkpt>
   <trkpt lat="45.741229" lon="3.174771"><ele>365.25</ele></trkpt>
   <trkpt lat="45.741243" lon="3.174709"><ele>365.25</ele></trkpt>
   <trkpt lat="45.741246" lon="3.174645"><ele>365.25</ele></trkpt>
   <trkpt lat="45.741274" lon="3.174529"><ele>365</ele></trkpt>
   <trkpt lat="45.74131" lon="3.174445"><ele>365</ele></trkpt>
   <trkpt lat="45.741358" lon="3.174377"><ele>364.75</ele></trkpt>
   <trkpt lat="45.741827" lon="3.174013"><ele>366.25</ele></trkpt>
   <trkpt lat="45.742293" lon="3.173617"><ele>367.25</ele></trkpt>
   <trkpt lat="45.743796" lon="3.172349"><ele>368.5</ele></trkpt>
   <trkpt lat="45.744512" lon="3.171753"><ele>368</ele></trkpt>
   <trkpt lat="45.744751" lon="3.171554"><ele>368</ele></trkpt>
   <trkpt lat="45.745057" lon="3.171307"><ele>367.75</ele></trkpt>
   <trkpt lat="45.745944" lon="3.170588"><ele>369.25</ele></trkpt>
   <trkpt lat="45.74643" lon="3.170178"><ele>369.75</ele></trkpt>
   <trkpt lat="45.747102" lon="3.169548"><ele>371.75</ele></trkpt>
   <trkpt lat="45.74732" lon="3.16945"><ele>373.25</ele></trkpt>
   <trkpt lat="45.747526" lon="3.16939"><ele>373.75</ele></trkpt>
   <trkpt lat="45.747631" lon="3.169412"><ele>374.25</ele></trkpt>
   <trkpt lat="45.747642" lon="3.169364"><ele>374</ele></trkpt>
   <trkpt lat="45.747656" lon="3.169293"><ele>374</ele></trkpt>
   <trkpt lat="45.747662" lon="3.169255"><ele>373.75</ele></trkpt>
   <trkpt lat="45.747681" lon="3.169202"><ele>373.75</ele></trkpt>
   <trkpt lat="45.747693" lon="3.169169"><ele>373.5</ele></trkpt>
   <trkpt lat="45.747968" lon="3.169033"><ele>374</ele></trkpt>
   <trkpt lat="45.748021" lon="3.168977"><ele>374</ele></trkpt>
   <trkpt lat="45.748056" lon="3.16891"><ele>374</ele></trkpt>
   <trkpt lat="45.748089" lon="3.168887"><ele>374</ele></trkpt>
   <trkpt lat="45.748138" lon="3.168887"><ele>374.25</ele></trkpt>
   <trkpt lat="45.748158" lon="3.1689"><ele>374.25</ele></trkpt>
   <trkpt lat="45.748185" lon="3.168916"><ele>374.5</ele></trkpt>
   <trkpt lat="45.748199" lon="3.168925"><ele>374.5</ele></trkpt>
   <trkpt lat="45.748227" lon="3.168941"><ele>374.5</ele></trkpt>
   <trkpt lat="45.748252" lon="3.168962"><ele>374.75</ele></trkpt>
   <trkpt lat="45.748292" lon="3.168991"><ele>374.75</ele></trkpt>
   <trkpt lat="45.748309" lon="3.168949"><ele>374.75</ele></trkpt>
   <trkpt lat="45.748458" lon="3.168437"><ele>374.25</ele></trkpt>
   <trkpt lat="45.748738" lon="3.167605"><ele>373.25</ele></trkpt>
   <trkpt lat="45.749427" lon="3.165668"><ele>369.25</ele></trkpt>
   <trkpt lat="45.749591" lon="3.165247"><ele>368.25</ele></trkpt>
   <trkpt lat="45.749795" lon="3.164798"><ele>367.25</ele></trkpt>
   <trkpt lat="45.749894" lon="3.16461"><ele>366.5</ele></trkpt>
   <trkpt lat="45.749948" lon="3.164491"><ele>366</ele></trkpt>
   <trkpt lat="45.750195" lon="3.163956"><ele>365</ele></trkpt>
   <trkpt lat="45.750458" lon="3.163417"><ele>363.75</ele></trkpt>
   <trkpt lat="45.750592" lon="3.163152"><ele>363.25</ele></trkpt>
   <trkpt lat="45.75071" lon="3.162928"><ele>363.25</ele></trkpt>
   <trkpt lat="45.750838" lon="3.162642"><ele>362.5</ele></trkpt>
   <trkpt lat="45.751144" lon="3.162059"><ele>360.75</ele></trkpt>
   <trkpt lat="45.751412" lon="3.161581"><ele>359.5</ele></trkpt>
   <trkpt lat="45.751708" lon="3.16102"><ele>358.5</ele></trkpt>
   <trkpt lat="45.752737" lon="3.159182"><ele>355</ele></trkpt>
   <trkpt lat="45.753122" lon="3.158568"><ele>354</ele></trkpt>
   <trkpt lat="45.753289" lon="3.158323"><ele>353.75</ele></trkpt>
   <trkpt lat="45.753594" lon="3.157963"><ele>353</ele></trkpt>
   <trkpt lat="45.753724" lon="3.15783"><ele>353</ele></trkpt>
   <trkpt lat="45.753853" lon="3.157724"><ele>352.75</ele></trkpt>
   <trkpt lat="45.753939" lon="3.157679"><ele>352.5</ele></trkpt>
   <trkpt lat="45.754145" lon="3.15763"><ele>351.75</ele></trkpt>
   <trkpt lat="45.754259" lon="3.157627"><ele>351.75</ele></trkpt>
   <trkpt lat="45.75449" lon="3.157641"><ele>351.5</ele></trkpt>
   <trkpt lat="45.754586" lon="3.157635"><ele>351.25</ele></trkpt>
   <trkpt lat="45.75481" lon="3.157559"><ele>351</ele></trkpt>
   <trkpt lat="45.75496" lon="3.157439"><ele>351.25</ele></trkpt>
   <trkpt lat="45.755041" lon="3.157356"><ele>351</ele></trkpt>
   <trkpt lat="45.755104" lon="3.157293"><ele>351</ele></trkpt>
   <trkpt lat="45.755205" lon="3.15713"><ele>351</ele></trkpt>
   <trkpt lat="45.755248" lon="3.157047"><ele>350.5</ele></trkpt>
   <trkpt lat="45.75529" lon="3.156953"><ele>350</ele></trkpt>
   <trkpt lat="45.75545" lon="3.156491"><ele>350.5</ele></trkpt>
   <trkpt lat="45.755498" lon="3.156298"><ele>350.5</ele></trkpt>
   <trkpt lat="45.755541" lon="3.156162"><ele>350</ele></trkpt>
   <trkpt lat="45.755627" lon="3.155988"><ele>350</ele></trkpt>
   <trkpt lat="45.755691" lon="3.155898"><ele>350</ele></trkpt>
   <trkpt lat="45.755765" lon="3.155581"><ele>350</ele></trkpt>
   <trkpt lat="45.755787" lon="3.155462"><ele>350</ele></trkpt>
   <trkpt lat="45.755786" lon="3.15543"><ele>350</ele></trkpt>
   <trkpt lat="45.755762" lon="3.155377"><ele>350</ele></trkpt>
   <trkpt lat="45.755734" lon="3.155328"><ele>350</ele></trkpt>
   <trkpt lat="45.755725" lon="3.155308"><ele>350</ele></trkpt>
   <trkpt lat="45.756015" lon="3.154555"><ele>349.25</ele></trkpt>
   <trkpt lat="45.756233" lon="3.153939"><ele>349</ele></trkpt>
   <trkpt lat="45.756267" lon="3.153713"><ele>348.5</ele></trkpt>
   <trkpt lat="45.756283" lon="3.153475"><ele>348</ele></trkpt>
   <trkpt lat="45.75629" lon="3.153307"><ele>348</ele></trkpt>
   <trkpt lat="45.756361" lon="3.153217"><ele>348</ele></trkpt>
   <trkpt lat="45.756492" lon="3.153054"><ele>348</ele></trkpt>
   <trkpt lat="45.756985" lon="3.152373"><ele>348</ele></trkpt>
   <trkpt lat="45.757182" lon="3.152063"><ele>348.25</ele></trkpt>
   <trkpt lat="45.757606" lon="3.151336"><ele>348</ele></trkpt>
   <trkpt lat="45.758143" lon="3.150346"><ele>348</ele></trkpt>
   <trkpt lat="45.759393" lon="3.148086"><ele>346.75</ele></trkpt>
   <trkpt lat="45.759421" lon="3.148019"><ele>347</ele></trkpt>
   <trkpt lat="45.760204" lon="3.146683"><ele>347.25</ele></trkpt>
   <trkpt lat="45.760777" lon="3.145658"><ele>349</ele></trkpt>
   <trkpt lat="45.760903" lon="3.145481"><ele>349</ele></trkpt>
   <trkpt lat="45.761032" lon="3.145356"><ele>350.5</ele></trkpt>
   <trkpt lat="45.761202" lon="3.145209"><ele>350.75</ele></trkpt>
   <trkpt lat="45.761313" lon="3.145134"><ele>350.25</ele></trkpt>
   <trkpt lat="45.76137" lon="3.145077"><ele>350.5</ele></trkpt>
   <trkpt lat="45.761448" lon="3.144987"><ele>350.75</ele></trkpt>
   <trkpt lat="45.761539" lon="3.144847"><ele>350.25</ele></trkpt>
   <trkpt lat="45.761923" lon="3.144039"><ele>348.75</ele></trkpt>
   <trkpt lat="45.762272" lon="3.143108"><ele>348</ele></trkpt>
   <trkpt lat="45.762338" lon="3.142994"><ele>348.25</ele></trkpt>
   <trkpt lat="45.762352" lon="3.142894"><ele>348</ele></trkpt>
   <trkpt lat="45.762406" lon="3.142764"><ele>348</ele></trkpt>
   <trkpt lat="45.762518" lon="3.142561"><ele>347.25</ele></trkpt>
   <trkpt lat="45.762768" lon="3.14215"><ele>347</ele></trkpt>
   <trkpt lat="45.763161" lon="3.141459"><ele>346.5</ele></trkpt>
   <trkpt lat="45.763582" lon="3.140873"><ele>346.75</ele></trkpt>
   <trkpt lat="45.763613" lon="3.140725"><ele>346.75</ele></trkpt>
   <trkpt lat="45.763667" lon="3.140539"><ele>347</ele></trkpt>
   <trkpt lat="45.763814" lon="3.140258"><ele>346.75</ele></trkpt>
   <trkpt lat="45.764332" lon="3.139299"><ele>346.25</ele></trkpt>
   <trkpt lat="45.764471" lon="3.139043"><ele>346.5</ele></trkpt>
   <trkpt lat="45.764529" lon="3.138919"><ele>347.75</ele></trkpt>
   <trkpt lat="45.765066" lon="3.137916"><ele>346.5</ele></trkpt>
   <trkpt lat="45.766086" lon="3.136073"><ele>346</ele></trkpt>
   <trkpt lat="45.766368" lon="3.135547"><ele>345.75</ele></trkpt>
   <trkpt lat="45.766496" lon="3.135325"><ele>344.75</ele></trkpt>
   <trkpt lat="45.766714" lon="3.135041"><ele>346</ele></trkpt>
   <trkpt lat="45.766874" lon="3.134763"><ele>345.25</ele></trkpt>
   <trkpt lat="45.767102" lon="3.134371"><ele>344.75</ele></trkpt>
   <trkpt lat="45.767484" lon="3.133706"><ele>345.25</ele></trkpt>
   <trkpt lat="45.768119" lon="3.132494"><ele>346.5</ele></trkpt>
   <trkpt lat="45.768254" lon="3.132224"><ele>346.25</ele></trkpt>
   <trkpt lat="45.768316" lon="3.132109"><ele>346.75</ele></trkpt>
   <trkpt lat="45.76838" lon="3.132007"><ele>347.25</ele></trkpt>
   <trkpt lat="45.768448" lon="3.131921"><ele>347.5</ele></trkpt>
   <trkpt lat="45.768592" lon="3.131783"><ele>347.5</ele></trkpt>
   <trkpt lat="45.768578" lon="3.131675"><ele>347.75</ele></trkpt>
   <trkpt lat="45.768991" lon="3.130912"><ele>349.5</ele></trkpt>
   <trkpt lat="45.769385" lon="3.130276"><ele>352.5</ele></trkpt>
   <trkpt lat="45.769438" lon="3.130173"><ele>351.75</ele></trkpt>
   <trkpt lat="45.769523" lon="3.12991"><ele>351.5</ele></trkpt>
   <trkpt lat="45.769591" lon="3.129763"><ele>353.25</ele></trkpt>
   <trkpt lat="45.769709" lon="3.129548"><ele>352.25</ele></trkpt>
   <trkpt lat="45.76998" lon="3.129208"><ele>353.75</ele></trkpt>
   <trkpt lat="45.770236" lon="3.128754"><ele>353.5</ele></trkpt>
   <trkpt lat="45.770286" lon="3.128712"><ele>354</ele></trkpt>
   <trkpt lat="45.770332" lon="3.128726"><ele>354</ele></trkpt>
   <trkpt lat="45.770549" lon="3.12892"><ele>354</ele></trkpt>
   <trkpt lat="45.771139" lon="3.127707"><ele>355</ele></trkpt>
   <trkpt lat="45.771235" lon="3.127503"><ele>355</ele></trkpt>
   <trkpt lat="45.771385" lon="3.127106"><ele>354.75</ele></trkpt>
   <trkpt lat="45.771503" lon="3.126725"><ele>355</ele></trkpt>
   <trkpt lat="45.771543" lon="3.126557"><ele>354.75</ele></trkpt>
   <trkpt lat="45.77157" lon="3.126412"><ele>354.5</ele></trkpt>
   <trkpt lat="45.771607" lon="3.126113"><ele>354.25</ele></trkpt>
   <trkpt lat="45.77163" lon="3.125792"><ele>354</ele></trkpt>
   <trkpt lat="45.771827" lon="3.125187"><ele>353.75</ele></trkpt>
   <trkpt lat="45.772021" lon="3.12454"><ele>354.25</ele></trkpt>
   <trkpt lat="45.772074" lon="3.124326"><ele>354.5</ele></trkpt>
   <trkpt lat="45.772315" lon="3.12333"><ele>355</ele></trkpt>
   <trkpt lat="45.772381" lon="3.122996"><ele>357</ele></trkpt>
   <trkpt lat="45.772469" lon="3.122504"><ele>357.25</ele></trkpt>
   <trkpt lat="45.772539" lon="3.122022"><ele>355.25</ele></trkpt>
   <trkpt lat="45.772585" lon="3.121673"><ele>355.75</ele></trkpt>
   <trkpt lat="45.772616" lon="3.121327"><ele>357.25</ele></trkpt>
   <trkpt lat="45.772647" lon="3.120924"><ele>358.5</ele></trkpt>
   <trkpt lat="45.772681" lon="3.120321"><ele>359.5</ele></trkpt>
   <trkpt lat="45.772689" lon="3.120171"><ele>359.75</ele></trkpt>
   <trkpt lat="45.772691" lon="3.119103"><ele>359.25</ele></trkpt>
   <trkpt lat="45.772678" lon="3.118702"><ele>358</ele></trkpt>
   <trkpt lat="45.772693" lon="3.118558"><ele>357.5</ele></trkpt>
   <trkpt lat="45.772713" lon="3.118437"><ele>357</ele></trkpt>
   <trkpt lat="45.772744" lon="3.118336"><ele>356.75</ele></trkpt>
   <trkpt lat="45.772759" lon="3.118329"><ele>356.75</ele></trkpt>
   <trkpt lat="45.772784" lon="3.118317"><ele>356.75</ele></trkpt>
   <trkpt lat="45.772824" lon="3.118314"><ele>356.75</ele></trkpt>
   <trkpt lat="45.772913" lon="3.117668"><ele>354.5</ele></trkpt>
   <trkpt lat="45.772931" lon="3.117541"><ele>354.25</ele></trkpt>
   <trkpt lat="45.773022" lon="3.116864"><ele>354</ele></trkpt>
   <trkpt lat="45.773086" lon="3.114621"><ele>347.5</ele></trkpt>
   <trkpt lat="45.773085" lon="3.114489"><ele>347</ele></trkpt>
   <trkpt lat="45.773056" lon="3.113919"><ele>345</ele></trkpt>
   <trkpt lat="45.773034" lon="3.113521"><ele>344.75</ele></trkpt>
   <trkpt lat="45.773019" lon="3.11336"><ele>344.25</ele></trkpt>
   <trkpt lat="45.773008" lon="3.113221"><ele>343.75</ele></trkpt>
   <trkpt lat="45.772987" lon="3.113033"><ele>343.25</ele></trkpt>
   <trkpt lat="45.772951" lon="3.1128"><ele>343.25</ele></trkpt>
   <trkpt lat="45.772931" lon="3.112701"><ele>343</ele></trkpt>
   <trkpt lat="45.772793" lon="3.1119"><ele>342.75</ele></trkpt>
   <trkpt lat="45.772781" lon="3.111799"><ele>342.75</ele></trkpt>
   <trkpt lat="45.772772" lon="3.111692"><ele>343</ele></trkpt>
   <trkpt lat="45.772761" lon="3.11113"><ele>343</ele></trkpt>
   <trkpt lat="45.772747" lon="3.110438"><ele>342.5</ele></trkpt>
   <trkpt lat="45.772745" lon="3.110385"><ele>342.75</ele></trkpt>
   <trkpt lat="45.772732" lon="3.110253"><ele>343</ele></trkpt>
   <trkpt lat="45.772709" lon="3.110128"><ele>342.75</ele></trkpt>
   <trkpt lat="45.772698" lon="3.11008"><ele>342.75</ele></trkpt>
   <trkpt lat="45.772531" lon="3.109363"><ele>343.75</ele></trkpt>
   <trkpt lat="45.772512" lon="3.109249"><ele>343.75</ele></trkpt>
   <trkpt lat="45.772507" lon="3.109141"><ele>343.75</ele></trkpt>
   <trkpt lat="45.772498" lon="3.108923"><ele>343</ele></trkpt>
   <trkpt lat="45.772481" lon="3.108497"><ele>344.25</ele></trkpt>
   <trkpt lat="45.772483" lon="3.108393"><ele>343.75</ele></trkpt>
   <trkpt lat="45.772507" lon="3.108224"><ele>343.25</ele></trkpt>
   <trkpt lat="45.772676" lon="3.107488"><ele>343.25</ele></trkpt>
   <trkpt lat="45.77271" lon="3.107314"><ele>343.25</ele></trkpt>
   <trkpt lat="45.772735" lon="3.107106"><ele>343.5</ele></trkpt>
   <trkpt lat="45.772746" lon="3.106872"><ele>344</ele></trkpt>
   <trkpt lat="45.772749" lon="3.106767"><ele>344</ele></trkpt>
   <trkpt lat="45.772735" lon="3.106507"><ele>344</ele></trkpt>
   <trkpt lat="45.772721" lon="3.10638"><ele>344</ele></trkpt>
   <trkpt lat="45.772663" lon="3.106009"><ele>344.25</ele></trkpt>
   <trkpt lat="45.772666" lon="3.105791"><ele>344.25</ele></trkpt>
   <trkpt lat="45.772675" lon="3.105494"><ele>344.75</ele></trkpt>
   <trkpt lat="45.772684" lon="3.105199"><ele>345.25</ele></trkpt>
   <trkpt lat="45.772735" lon="3.104269"><ele>346.25</ele></trkpt>
   <trkpt lat="45.772742" lon="3.104042"><ele>346.5</ele></trkpt>
   <trkpt lat="45.772744" lon="3.103752"><ele>347.25</ele></trkpt>
   <trkpt lat="45.772756" lon="3.103408"><ele>347.75</ele></trkpt>
   <trkpt lat="45.772766" lon="3.103221"><ele>348</ele></trkpt>
   <trkpt lat="45.772797" lon="3.103072"><ele>348</ele></trkpt>
   <trkpt lat="45.772829" lon="3.102955"><ele>348.5</ele></trkpt>
   <trkpt lat="45.772972" lon="3.102402"><ele>350.25</ele></trkpt>
   <trkpt lat="45.773025" lon="3.102164"><ele>350.25</ele></trkpt>
   <trkpt lat="45.773034" lon="3.102126"><ele>350.5</ele></trkpt>
   <trkpt lat="45.773085" lon="3.101892"><ele>351</ele></trkpt>
   <trkpt lat="45.773114" lon="3.101907"><ele>351</ele></trkpt>
   <trkpt lat="45.773132" lon="3.101914"><ele>351</ele></trkpt>
   <trkpt lat="45.773195" lon="3.101943"><ele>351</ele></trkpt>
   <trkpt lat="45.773228" lon="3.101958"><ele>350.75</ele></trkpt>
   <trkpt lat="45.773691" lon="3.102195"><ele>350.25</ele></trkpt>
   <trkpt lat="45.77373" lon="3.1022"><ele>350.5</ele></trkpt>
   <trkpt lat="45.773895" lon="3.102196"><ele>351</ele></trkpt>
   <trkpt lat="45.773976" lon="3.102171"><ele>351.25</ele></trkpt>
   <trkpt lat="45.774102" lon="3.102114"><ele>351.75</ele></trkpt>
   <trkpt lat="45.774236" lon="3.102025"><ele>352.5</ele></trkpt>
   <trkpt lat="45.774327" lon="3.101977"><ele>353.5</ele></trkpt>
   <trkpt lat="45.7744" lon="3.101967"><ele>354.5</ele></trkpt>
   <trkpt lat="45.774436" lon="3.101963"><ele>354.75</ele></trkpt>
   <trkpt lat="45.774437" lon="3.101887"><ele>354.75</ele></trkpt>
   <trkpt lat="45.77445" lon="3.101778"><ele>355</ele></trkpt>
   <trkpt lat="45.774472" lon="3.101682"><ele>355.25</ele></trkpt>
   <trkpt lat="45.774507" lon="3.101594"><ele>355.75</ele></trkpt>
   <trkpt lat="45.774629" lon="3.101351"><ele>358</ele></trkpt>
   <trkpt lat="45.775017" lon="3.100603"><ele>361</ele></trkpt>
   <trkpt lat="45.77507" lon="3.100516"><ele>361.25</ele></trkpt>
   <trkpt lat="45.775102" lon="3.100443"><ele>361.5</ele></trkpt>
   <trkpt lat="45.775176" lon="3.100299"><ele>361.75</ele></trkpt>
   <trkpt lat="45.775339" lon="3.099991"><ele>361.75</ele></trkpt>
   <trkpt lat="45.775351" lon="3.099966"><ele>361.75</ele></trkpt>
   <trkpt lat="45.775374" lon="3.099915"><ele>361.75</ele></trkpt>
   <trkpt lat="45.775547" lon="3.099591"><ele>361.5</ele></trkpt>
   <trkpt lat="45.77563" lon="3.099419"><ele>361.5</ele></trkpt>
   <trkpt lat="45.775923" lon="3.098945"><ele>361.5</ele></trkpt>
   <trkpt lat="45.776161" lon="3.098629"><ele>362</ele></trkpt>
   <trkpt lat="45.776238" lon="3.098538"><ele>362.5</ele></trkpt>
   <trkpt lat="45.77625" lon="3.098497"><ele>362.75</ele></trkpt>
   <trkpt lat="45.77628" lon="3.09839"><ele>363.25</ele></trkpt>
   <trkpt lat="45.776337" lon="3.098192"><ele>360.75</ele></trkpt>
   <trkpt lat="45.776242" lon="3.097753"><ele>361.5</ele></trkpt>
   <trkpt lat="45.776213" lon="3.097669"><ele>362</ele></trkpt>
   <trkpt lat="45.776211" lon="3.097361"><ele>362</ele></trkpt>
   <trkpt lat="45.776212" lon="3.097322"><ele>362</ele></trkpt>
   <trkpt lat="45.776212" lon="3.097287"><ele>361.75</ele></trkpt>
   <trkpt lat="45.776222" lon="3.096635"><ele>364</ele></trkpt>
   <trkpt lat="45.776221" lon="3.096394"><ele>364.25</ele></trkpt>
   <trkpt lat="45.776224" lon="3.096304"><ele>364.25</ele></trkpt>
   <trkpt lat="45.776214" lon="3.096154"><ele>364.25</ele></trkpt>
   <trkpt lat="45.776364" lon="3.096171"><ele>364.75</ele></trkpt>
   <trkpt lat="45.776421" lon="3.096173"><ele>364.75</ele></trkpt>
   <trkpt lat="45.77687" lon="3.096246"><ele>364</ele></trkpt>
   <trkpt lat="45.776984" lon="3.096276"><ele>364</ele></trkpt>
   <trkpt lat="45.777043" lon="3.096303"><ele>364</ele></trkpt>
   <trkpt lat="45.777122" lon="3.096359"><ele>364</ele></trkpt>
   <trkpt lat="45.777217" lon="3.096462"><ele>364</ele></trkpt>
   <trkpt lat="45.777288" lon="3.096574"><ele>364</ele></trkpt>
   <trkpt lat="45.77749" lon="3.096966"><ele>363</ele></trkpt>
   <trkpt lat="45.777554" lon="3.097115"><ele>363</ele></trkpt>
   <trkpt lat="45.777681" lon="3.097441"><ele>361.75</ele></trkpt>
   <trkpt lat="45.777724" lon="3.097559"><ele>361.75</ele></trkpt>
   <trkpt lat="45.777931" lon="3.097938"><ele>360.5</ele></trkpt>
   <trkpt lat="45.778137" lon="3.09837"><ele>359.75</ele></trkpt>
   <trkpt lat="45.778201" lon="3.098503"><ele>359.5</ele></trkpt>
   <trkpt lat="45.778255" lon="3.098609"><ele>359.5</ele></trkpt>
   <trkpt lat="45.778485" lon="3.099055"><ele>358.5</ele></trkpt>
   <trkpt lat="45.778574" lon="3.099225"><ele>358.5</ele></trkpt>
   <trkpt lat="45.778615" lon="3.099307"><ele>358.5</ele></trkpt>
   <trkpt lat="45.778654" lon="3.099377"><ele>358.25</ele></trkpt>
   <trkpt lat="45.778813" lon="3.099694"><ele>358</ele></trkpt>
   <trkpt lat="45.778853" lon="3.09977"><ele>358</ele></trkpt>
   <trkpt lat="45.77888" lon="3.099825"><ele>358</ele></trkpt>
   <trkpt lat="45.778898" lon="3.099861"><ele>358</ele></trkpt>
   <trkpt lat="45.779017" lon="3.100093"><ele>358</ele></trkpt>
   <trkpt lat="45.779128" lon="3.100321"><ele>358</ele></trkpt>
   <trkpt lat="45.779213" lon="3.100497"><ele>358</ele></trkpt>
   <trkpt lat="45.779285" lon="3.10061"><ele>358</ele></trkpt>
   <trkpt lat="45.779336" lon="3.100659"><ele>358</ele></trkpt>
   <trkpt lat="45.779375" lon="3.100691"><ele>358</ele></trkpt>
   <trkpt lat="45.779453" lon="3.100797"><ele>358</ele></trkpt>
   <trkpt lat="45.779508" lon="3.10077"><ele>358</ele></trkpt>
   <trkpt lat="45.779563" lon="3.100863"><ele>358</ele></trkpt>
   <trkpt lat="45.77975" lon="3.101228"><ele>358</ele></trkpt>
   <trkpt lat="45.779947" lon="3.101624"><ele>358</ele></trkpt>
  </trkseg>
 </trk>
</gpx>