<?xml version="1.0" encoding="UTF-8"?>
<gpx xmlns="http://www.topografix.com/GPX/1/1" xmlns:xsi="http://www.w3.org/2001/XMLSchema-instance" xsi:schemaLocation="http://www.topografix.com/GPX/1/1 http://www.topografix.com/GPX/1/1/gpx.xsd" version="1.1" creator="gpx.py -- https://github.com/tkrajina/gpxpy">
  <metadata>
    <author>
      <name>Paul sernine</name>
    </author>
    <link href="https://geovelo.app">
      <text>Geovelo - GPS et Stats vélo</text>
    </link>
  </metadata>
  <trk>
    <type>cycling</type>
    <trkseg>
      <trkpt lat="45.748067" lon="3.092981">
      </trkpt>
      <trkpt lat="45.74818" lon="3.093084">
      </trkpt>
      <trkpt lat="45.748148" lon="3.093145">
      </trkpt>
      <trkpt lat="45.74824" lon="3.093194">
      </trkpt>
      <trkpt lat="45.748264" lon="3.093077">
      </trkpt>
      <trkpt lat="45.748379" lon="3.092895">
      </trkpt>
      <trkpt lat="45.748506" lon="3.0928">
      </trkpt>
      <trkpt lat="45.748625" lon="3.092692">
      </trkpt>
      <trkpt lat="45.748731" lon="3.09255">
      </trkpt>
      <trkpt lat="45.748784" lon="3.092447">
      </trkpt>
      <trkpt lat="45.748979" lon="3.09185">
      </trkpt>
      <trkpt lat="45.749164" lon="3.091281">
      </trkpt>
      <trkpt lat="45.749232" lon="3.091052">
      </trkpt>
      <trkpt lat="45.749257" lon="3.090931">
      </trkpt>
      <trkpt lat="45.749274" lon="3.09083">
      </trkpt>
      <trkpt lat="45.749291" lon="3.090707">
      </trkpt>
      <trkpt lat="45.749304" lon="3.0905">
      </trkpt>
      <trkpt lat="45.749305" lon="3.090189">
      </trkpt>
      <trkpt lat="45.749309" lon="3.08956">
      </trkpt>
      <trkpt lat="45.749308" lon="3.089506">
      </trkpt>
      <trkpt lat="45.749297" lon="3.088728">
      </trkpt>
      <trkpt lat="45.74929" lon="3.088196">
      </trkpt>
      <trkpt lat="45.749304" lon="3.088109">
      </trkpt>
      <trkpt lat="45.749336" lon="3.087976">
      </trkpt>
      <trkpt lat="45.749245" lon="3.087932">
      </trkpt>
      <trkpt lat="45.749068" lon="3.087832">
      </trkpt>
      <trkpt lat="45.749038" lon="3.087812">
      </trkpt>
      <trkpt lat="45.748963" lon="3.087703">
      </trkpt>
      <trkpt lat="45.748885" lon="3.087578">
      </trkpt>
      <trkpt lat="45.748803" lon="3.087482">
      </trkpt>
      <trkpt lat="45.748737" lon="3.087439">
      </trkpt>
      <trkpt lat="45.748739" lon="3.087409">
      </trkpt>
      <trkpt lat="45.748733" lon="3.087379">
      </trkpt>
      <trkpt lat="45.748722" lon="3.087354">
      </trkpt>
      <trkpt lat="45.748706" lon="3.087334">
      </trkpt>
      <trkpt lat="45.748687" lon="3.087323">
      </trkpt>
      <trkpt lat="45.748666" lon="3.087321">
      </trkpt>
      <trkpt lat="45.748643" lon="3.087197">
      </trkpt>
      <trkpt lat="45.74863" lon="3.087095">
      </trkpt>
      <trkpt lat="45.748567" lon="3.086774">
      </trkpt>
      <trkpt lat="45.74856" lon="3.086627">
      </trkpt>
      <trkpt lat="45.748558" lon="3.086436">
      </trkpt>
      <trkpt lat="45.74856" lon="3.086177">
      </trkpt>
      <trkpt lat="45.748603" lon="3.085805">
      </trkpt>
      <trkpt lat="45.74861" lon="3.085651">
      </trkpt>
      <trkpt lat="45.748606" lon="3.085365">
      </trkpt>
      <trkpt lat="45.748572" lon="3.085233">
      </trkpt>
      <trkpt lat="45.748535" lon="3.084904">
      </trkpt>
      <trkpt lat="45.748529" lon="3.084649">
      </trkpt>
      <trkpt lat="45.748555" lon="3.08418">
      </trkpt>
      <trkpt lat="45.748557" lon="3.084065">
      </trkpt>
      <trkpt lat="45.748548" lon="3.083912">
      </trkpt>
      <trkpt lat="45.748521" lon="3.083735">
      </trkpt>
      <trkpt lat="45.748497" lon="3.083624">
      </trkpt>
      <trkpt lat="45.748448" lon="3.083484">
      </trkpt>
      <trkpt lat="45.748367" lon="3.083314">
      </trkpt>
      <trkpt lat="45.748259" lon="3.083123">
      </trkpt>
      <trkpt lat="45.747948" lon="3.082611">
      </trkpt>
      <trkpt lat="45.747918" lon="3.082538">
      </trkpt>
      <trkpt lat="45.747901" lon="3.082457">
      </trkpt>
      <trkpt lat="45.747878" lon="3.082363">
      </trkpt>
      <trkpt lat="45.747922" lon="3.082339">
      </trkpt>
      <trkpt lat="45.747983" lon="3.082315">
      </trkpt>
      <trkpt lat="45.748233" lon="3.082275">
      </trkpt>
      <trkpt lat="45.748304" lon="3.082266">
      </trkpt>
      <trkpt lat="45.748361" lon="3.08226">
      </trkpt>
      <trkpt lat="45.748462" lon="3.082383">
      </trkpt>
      <trkpt lat="45.748593" lon="3.082516">
      </trkpt>
      <trkpt lat="45.748681" lon="3.082582">
      </trkpt>
      <trkpt lat="45.748785" lon="3.082634">
      </trkpt>
      <trkpt lat="45.748873" lon="3.082668">
      </trkpt>
      <trkpt lat="45.748967" lon="3.082684">
      </trkpt>
      <trkpt lat="45.749064" lon="3.082681">
      </trkpt>
      <trkpt lat="45.749111" lon="3.0827">
      </trkpt>
      <trkpt lat="45.749159" lon="3.08277">
      </trkpt>
      <trkpt lat="45.749773" lon="3.08369">
      </trkpt>
      <trkpt lat="45.749834" lon="3.083793">
      </trkpt>
      <trkpt lat="45.749857" lon="3.083817">
      </trkpt>
      <trkpt lat="45.749983" lon="3.083831">
      </trkpt>
      <trkpt lat="45.750005" lon="3.08384">
      </trkpt>
      <trkpt lat="45.750109" lon="3.083874">
      </trkpt>
      <trkpt lat="45.750118" lon="3.083883">
      </trkpt>
      <trkpt lat="45.750229" lon="3.083999">
      </trkpt>
      <trkpt lat="45.750281" lon="3.08403">
      </trkpt>
      <trkpt lat="45.750346" lon="3.084024">
      </trkpt>
      <trkpt lat="45.750327" lon="3.083711">
      </trkpt>
      <trkpt lat="45.750319" lon="3.083625">
      </trkpt>
      <trkpt lat="45.750307" lon="3.083403">
      </trkpt>
      <trkpt lat="45.75031" lon="3.08315">
      </trkpt>
      <trkpt lat="45.750336" lon="3.082844">
      </trkpt>
      <trkpt lat="45.750288" lon="3.082444">
      </trkpt>
      <trkpt lat="45.75026" lon="3.082191">
      </trkpt>
      <trkpt lat="45.750254" lon="3.081981">
      </trkpt>
      <trkpt lat="45.750257" lon="3.081864">
      </trkpt>
      <trkpt lat="45.750235" lon="3.081694">
      </trkpt>
      <trkpt lat="45.750196" lon="3.081333">
      </trkpt>
      <trkpt lat="45.750136" lon="3.080964">
      </trkpt>
      <trkpt lat="45.750107" lon="3.080784">
      </trkpt>
      <trkpt lat="45.749884" lon="3.079474">
      </trkpt>
      <trkpt lat="45.749865" lon="3.079335">
      </trkpt>
      <trkpt lat="45.749861" lon="3.079213">
      </trkpt>
      <trkpt lat="45.749851" lon="3.079025">
      </trkpt>
      <trkpt lat="45.74985" lon="3.078894">
      </trkpt>
      <trkpt lat="45.749893" lon="3.078142">
      </trkpt>
      <trkpt lat="45.74991" lon="3.077964">
      </trkpt>
      <trkpt lat="45.74994" lon="3.077569">
      </trkpt>
      <trkpt lat="45.750098" lon="3.076769">
      </trkpt>
      <trkpt lat="45.75012" lon="3.076666">
      </trkpt>
      <trkpt lat="45.750236" lon="3.076143">
      </trkpt>
      <trkpt lat="45.750347" lon="3.075732">
      </trkpt>
      <trkpt lat="45.75039" lon="3.07562">
      </trkpt>
      <trkpt lat="45.75045" lon="3.07556">
      </trkpt>
      <trkpt lat="45.750541" lon="3.075502">
      </trkpt>
      <trkpt lat="45.750682" lon="3.075414">
      </trkpt>
      <trkpt lat="45.751006" lon="3.075125">
      </trkpt>
      <trkpt lat="45.751063" lon="3.075082">
      </trkpt>
      <trkpt lat="45.751127" lon="3.075047">
      </trkpt>
      <trkpt lat="45.751174" lon="3.074824">
      </trkpt>
      <trkpt lat="45.751288" lon="3.07434">
      </trkpt>
      <trkpt lat="45.751305" lon="3.074247">
      </trkpt>
      <trkpt lat="45.751323" lon="3.074182">
      </trkpt>
      <trkpt lat="45.751371" lon="3.073962">
      </trkpt>
      <trkpt lat="45.751405" lon="3.073812">
      </trkpt>
      <trkpt lat="45.751438" lon="3.073661">
      </trkpt>
      <trkpt lat="45.751453" lon="3.073561">
      </trkpt>
      <trkpt lat="45.751456" lon="3.073457">
      </trkpt>
      <trkpt lat="45.751452" lon="3.073381">
      </trkpt>
      <trkpt lat="45.751449" lon="3.073315">
      </trkpt>
      <trkpt lat="45.75144" lon="3.073247">
      </trkpt>
      <trkpt lat="45.751422" lon="3.073158">
      </trkpt>
      <trkpt lat="45.751394" lon="3.073066">
      </trkpt>
      <trkpt lat="45.751365" lon="3.072988">
      </trkpt>
      <trkpt lat="45.751325" lon="3.072905">
      </trkpt>
      <trkpt lat="45.751277" lon="3.072827">
      </trkpt>
      <trkpt lat="45.751225" lon="3.072763">
      </trkpt>
      <trkpt lat="45.75117" lon="3.072705">
      </trkpt>
      <trkpt lat="45.751113" lon="3.072656">
      </trkpt>
      <trkpt lat="45.751051" lon="3.072613">
      </trkpt>
      <trkpt lat="45.750982" lon="3.072585">
      </trkpt>
      <trkpt lat="45.750916" lon="3.072569">
      </trkpt>
      <trkpt lat="45.750848" lon="3.07256">
      </trkpt>
      <trkpt lat="45.75076" lon="3.07256">
      </trkpt>
      <trkpt lat="45.750762" lon="3.072463">
      </trkpt>
      <trkpt lat="45.750756" lon="3.072227">
      </trkpt>
      <trkpt lat="45.750759" lon="3.07212">
      </trkpt>
      <trkpt lat="45.750783" lon="3.071911">
      </trkpt>
      <trkpt lat="45.750809" lon="3.071764">
      </trkpt>
      <trkpt lat="45.750846" lon="3.07162">
      </trkpt>
      <trkpt lat="45.750853" lon="3.071487">
      </trkpt>
      <trkpt lat="45.750842" lon="3.071362">
      </trkpt>
      <trkpt lat="45.750791" lon="3.071193">
      </trkpt>
      <trkpt lat="45.750747" lon="3.071141">
      </trkpt>
      <trkpt lat="45.750736" lon="3.070836">
      </trkpt>
      <trkpt lat="45.750726" lon="3.070147">
      </trkpt>
      <trkpt lat="45.750724" lon="3.070033">
      </trkpt>
      <trkpt lat="45.750577" lon="3.069918">
      </trkpt>
      <trkpt lat="45.750427" lon="3.069801">
      </trkpt>
      <trkpt lat="45.750241" lon="3.068428">
      </trkpt>
      <trkpt lat="45.749864" lon="3.068592">
      </trkpt>
      <trkpt lat="45.749832" lon="3.0686">
      </trkpt>
      <trkpt lat="45.749801" lon="3.068593">
      </trkpt>
      <trkpt lat="45.749773" lon="3.068573">
      </trkpt>
      <trkpt lat="45.749755" lon="3.068543">
      </trkpt>
      <trkpt lat="45.749692" lon="3.068403">
      </trkpt>
      <trkpt lat="45.749661" lon="3.068361">
      </trkpt>
      <trkpt lat="45.749716" lon="3.0683">
      </trkpt>
      <trkpt lat="45.749949" lon="3.068154">
      </trkpt>
      <trkpt lat="45.750644" lon="3.067765">
      </trkpt>
      <trkpt lat="45.750763" lon="3.067682">
      </trkpt>
      <trkpt lat="45.750836" lon="3.067611">
      </trkpt>
      <trkpt lat="45.751034" lon="3.067361">
      </trkpt>
      <trkpt lat="45.751138" lon="3.067232">
      </trkpt>
      <trkpt lat="45.751232" lon="3.067143">
      </trkpt>
      <trkpt lat="45.751394" lon="3.067002">
      </trkpt>
      <trkpt lat="45.751469" lon="3.066913">
      </trkpt>
      <trkpt lat="45.751489" lon="3.066859">
      </trkpt>
      <trkpt lat="45.751505" lon="3.066733">
      </trkpt>
      <trkpt lat="45.751573" lon="3.066454">
      </trkpt>
      <trkpt lat="45.75159" lon="3.066385">
      </trkpt>
      <trkpt lat="45.751635" lon="3.066197">
      </trkpt>
      <trkpt lat="45.751789" lon="3.065953">
      </trkpt>
      <trkpt lat="45.752053" lon="3.06572">
      </trkpt>
      <trkpt lat="45.752151" lon="3.065635">
      </trkpt>
      <trkpt lat="45.752252" lon="3.065613">
      </trkpt>
      <trkpt lat="45.752585" lon="3.065547">
      </trkpt>
      <trkpt lat="45.752606" lon="3.065543">
      </trkpt>
      <trkpt lat="45.752972" lon="3.065497">
      </trkpt>
      <trkpt lat="45.753039" lon="3.065501">
      </trkpt>
      <trkpt lat="45.753102" lon="3.065511">
      </trkpt>
      <trkpt lat="45.753258" lon="3.06549">
      </trkpt>
      <trkpt lat="45.753403" lon="3.065415">
      </trkpt>
      <trkpt lat="45.753477" lon="3.065373">
      </trkpt>
      <trkpt lat="45.753511" lon="3.065359">
      </trkpt>
      <trkpt lat="45.753581" lon="3.06533">
      </trkpt>
      <trkpt lat="45.753917" lon="3.06518">
      </trkpt>
      <trkpt lat="45.754265" lon="3.06502">
      </trkpt>
      <trkpt lat="45.754586" lon="3.064872">
      </trkpt>
      <trkpt lat="45.754754" lon="3.064818">
      </trkpt>
      <trkpt lat="45.754975" lon="3.064755">
      </trkpt>
      <trkpt lat="45.755094" lon="3.064713">
      </trkpt>
      <trkpt lat="45.755208" lon="3.064652">
      </trkpt>
      <trkpt lat="45.755291" lon="3.06458">
      </trkpt>
      <trkpt lat="45.755362" lon="3.064449">
      </trkpt>
      <trkpt lat="45.75543" lon="3.06428">
      </trkpt>
      <trkpt lat="45.755674" lon="3.064234">
      </trkpt>
      <trkpt lat="45.755858" lon="3.06434">
      </trkpt>
      <trkpt lat="45.7561" lon="3.0643">
      </trkpt>
      <trkpt lat="45.756203" lon="3.064182">
      </trkpt>
      <trkpt lat="45.756206" lon="3.064159">
      </trkpt>
      <trkpt lat="45.756209" lon="3.064134">
      </trkpt>
      <trkpt lat="45.756281" lon="3.06412">
      </trkpt>
      <trkpt lat="45.75669" lon="3.064054">
      </trkpt>
      <trkpt lat="45.756689" lon="3.06398">
      </trkpt>
      <trkpt lat="45.756505" lon="3.064005">
      </trkpt>
      <trkpt lat="45.756319" lon="3.064045">
      </trkpt>
      <trkpt lat="45.756163" lon="3.064075">
      </trkpt>
      <trkpt lat="45.755668" lon="3.064172">
      </trkpt>
      <trkpt lat="45.755194" lon="3.064256">
      </trkpt>
      <trkpt lat="45.754932" lon="3.064262">
      </trkpt>
      <trkpt lat="45.754767" lon="3.064201">
      </trkpt>
      <trkpt lat="45.754584" lon="3.064074">
      </trkpt>
      <trkpt lat="45.754424" lon="3.063862">
      </trkpt>
      <trkpt lat="45.754232" lon="3.063479">
      </trkpt>
      <trkpt lat="45.75415" lon="3.06331">
      </trkpt>
      <trkpt lat="45.754061" lon="3.063064">
      </trkpt>
      <trkpt lat="45.753934" lon="3.062837">
      </trkpt>
      <trkpt lat="45.753694" lon="3.06258">
      </trkpt>
      <trkpt lat="45.753714" lon="3.062456">
      </trkpt>
      <trkpt lat="45.753577" lon="3.062338">
      </trkpt>
      <trkpt lat="45.753402" lon="3.062223">
      </trkpt>
      <trkpt lat="45.753328" lon="3.062007">
      </trkpt>
      <trkpt lat="45.753298" lon="3.061898">
      </trkpt>
      <trkpt lat="45.753199" lon="3.061542">
      </trkpt>
      <trkpt lat="45.753085" lon="3.061342">
      </trkpt>
      <trkpt lat="45.752962" lon="3.061263">
      </trkpt>
      <trkpt lat="45.752803" lon="3.061231">
      </trkpt>
      <trkpt lat="45.752689" lon="3.061166">
      </trkpt>
      <trkpt lat="45.752544" lon="3.061044">
      </trkpt>
      <trkpt lat="45.752413" lon="3.060906">
      </trkpt>
      <trkpt lat="45.752316" lon="3.06075">
      </trkpt>
      <trkpt lat="45.752289" lon="3.060589">
      </trkpt>
      <trkpt lat="45.752317" lon="3.060384">
      </trkpt>
      <trkpt lat="45.752454" lon="3.059894">
      </trkpt>
      <trkpt lat="45.752467" lon="3.059846">
      </trkpt>
      <trkpt lat="45.752499" lon="3.059732">
      </trkpt>
      <trkpt lat="45.752605" lon="3.059593">
      </trkpt>
      <trkpt lat="45.752731" lon="3.059484">
      </trkpt>
      <trkpt lat="45.752902" lon="3.059451">
      </trkpt>
      <trkpt lat="45.753803" lon="3.059304">
      </trkpt>
      <trkpt lat="45.753983" lon="3.059311">
      </trkpt>
      <trkpt lat="45.754121" lon="3.059393">
      </trkpt>
      <trkpt lat="45.754329" lon="3.059544">
      </trkpt>
      <trkpt lat="45.754653" lon="3.058972">
      </trkpt>
      <trkpt lat="45.754697" lon="3.058837">
      </trkpt>
      <trkpt lat="45.754692" lon="3.058683">
      </trkpt>
      <trkpt lat="45.754656" lon="3.058555">
      </trkpt>
      <trkpt lat="45.754583" lon="3.05843">
      </trkpt>
      <trkpt lat="45.753637" lon="3.057205">
      </trkpt>
      <trkpt lat="45.7536" lon="3.057075">
      </trkpt>
      <trkpt lat="45.753604" lon="3.057046">
      </trkpt>
      <trkpt lat="45.753614" lon="3.05696">
      </trkpt>
      <trkpt lat="45.753616" lon="3.056954">
      </trkpt>
      <trkpt lat="45.753659" lon="3.056859">
      </trkpt>
      <trkpt lat="45.753725" lon="3.056811">
      </trkpt>
      <trkpt lat="45.755068" lon="3.056428">
      </trkpt>
      <trkpt lat="45.755131" lon="3.056392">
      </trkpt>
      <trkpt lat="45.755106" lon="3.056362">
      </trkpt>
      <trkpt lat="45.755086" lon="3.056319">
      </trkpt>
      <trkpt lat="45.755064" lon="3.056264">
      </trkpt>
      <trkpt lat="45.755049" lon="3.056209">
      </trkpt>
      <trkpt lat="45.755037" lon="3.056152">
      </trkpt>
      <trkpt lat="45.755034" lon="3.056108">
      </trkpt>
      <trkpt lat="45.755036" lon="3.056053">
      </trkpt>
      <trkpt lat="45.755039" lon="3.056008">
      </trkpt>
      <trkpt lat="45.755051" lon="3.055954">
      </trkpt>
      <trkpt lat="45.755068" lon="3.055903">
      </trkpt>
      <trkpt lat="45.755087" lon="3.055857">
      </trkpt>
      <trkpt lat="45.755106" lon="3.055825">
      </trkpt>
      <trkpt lat="45.755203" lon="3.055694">
      </trkpt>
      <trkpt lat="45.755335" lon="3.055522">
      </trkpt>
      <trkpt lat="45.755435" lon="3.055392">
      </trkpt>
      <trkpt lat="45.755495" lon="3.055299">
      </trkpt>
      <trkpt lat="45.755532" lon="3.055229">
      </trkpt>
      <trkpt lat="45.755608" lon="3.055187">
      </trkpt>
      <trkpt lat="45.75565" lon="3.055161">
      </trkpt>
      <trkpt lat="45.755719" lon="3.05503">
      </trkpt>
      <trkpt lat="45.755727" lon="3.054977">
      </trkpt>
      <trkpt lat="45.755748" lon="3.054849">
      </trkpt>
      <trkpt lat="45.755648" lon="3.054722">
      </trkpt>
      <trkpt lat="45.755518" lon="3.054639">
      </trkpt>
      <trkpt lat="45.755415" lon="3.054505">
      </trkpt>
      <trkpt lat="45.755332" lon="3.054357">
      </trkpt>
      <trkpt lat="45.755303" lon="3.05422">
      </trkpt>
      <trkpt lat="45.755324" lon="3.054035">
      </trkpt>
      <trkpt lat="45.755365" lon="3.05386">
      </trkpt>
      <trkpt lat="45.7553" lon="3.053844">
      </trkpt>
      <trkpt lat="45.755246" lon="3.053821">
      </trkpt>
      <trkpt lat="45.755274" lon="3.053705">
      </trkpt>
      <trkpt lat="45.755297" lon="3.05358">
      </trkpt>
      <trkpt lat="45.755313" lon="3.053432">
      </trkpt>
      <trkpt lat="45.755313" lon="3.053247">
      </trkpt>
      <trkpt lat="45.755285" lon="3.052813">
      </trkpt>
      <trkpt lat="45.755414" lon="3.052679">
      </trkpt>
      <trkpt lat="45.755474" lon="3.052606">
      </trkpt>
      <trkpt lat="45.755526" lon="3.052523">
      </trkpt>
      <trkpt lat="45.755591" lon="3.052372">
      </trkpt>
      <trkpt lat="45.755622" lon="3.052285">
      </trkpt>
      <trkpt lat="45.755655" lon="3.052185">
      </trkpt>
      <trkpt lat="45.755687" lon="3.052007">
      </trkpt>
      <trkpt lat="45.755701" lon="3.051837">
      </trkpt>
      <trkpt lat="45.755709" lon="3.05154">
      </trkpt>
      <trkpt lat="45.755622" lon="3.05137">
      </trkpt>
      <trkpt lat="45.75554" lon="3.051187">
      </trkpt>
      <trkpt lat="45.755498" lon="3.051032">
      </trkpt>
      <trkpt lat="45.75538" lon="3.050633">
      </trkpt>
      <trkpt lat="45.755261" lon="3.050407">
      </trkpt>
      <trkpt lat="45.755186" lon="3.050371">
      </trkpt>
      <trkpt lat="45.755225" lon="3.050487">
      </trkpt>
      <trkpt lat="45.75522" lon="3.050688">
      </trkpt>
      <trkpt lat="45.755174" lon="3.050878">
      </trkpt>
      <trkpt lat="45.755158" lon="3.051018">
      </trkpt>
      <trkpt lat="45.755037" lon="3.051178">
      </trkpt>
      <trkpt lat="45.754952" lon="3.051447">
      </trkpt>
      <trkpt lat="45.754841" lon="3.051631">
      </trkpt>
      <trkpt lat="45.754743" lon="3.051808">
      </trkpt>
      <trkpt lat="45.754572" lon="3.051973">
      </trkpt>
      <trkpt lat="45.754529" lon="3.051881">
      </trkpt>
      <trkpt lat="45.754529" lon="3.051728">
      </trkpt>
      <trkpt lat="45.754517" lon="3.051624">
      </trkpt>
      <trkpt lat="45.754593" lon="3.051618">
      </trkpt>
      <trkpt lat="45.754615" lon="3.051447">
      </trkpt>
      <trkpt lat="45.754649" lon="3.051386">
      </trkpt>
      <trkpt lat="45.754619" lon="3.051307">
      </trkpt>
      <trkpt lat="45.754538" lon="3.051245">
      </trkpt>
      <trkpt lat="45.754436" lon="3.051166">
      </trkpt>
      <trkpt lat="45.754376" lon="3.050989">
      </trkpt>
      <trkpt lat="45.754384" lon="3.05083">
      </trkpt>
      <trkpt lat="45.754333" lon="3.05072">
      </trkpt>
      <trkpt lat="45.754214" lon="3.050793">
      </trkpt>
      <trkpt lat="45.75415" lon="3.05083">
      </trkpt>
      <trkpt lat="45.754043" lon="3.050769">
      </trkpt>
      <trkpt lat="45.753954" lon="3.050714">
      </trkpt>
      <trkpt lat="45.753834" lon="3.050744">
      </trkpt>
      <trkpt lat="45.753809" lon="3.050848">
      </trkpt>
      <trkpt lat="45.753783" lon="3.050964">
      </trkpt>
      <trkpt lat="45.753757" lon="3.051007">
      </trkpt>
      <trkpt lat="45.753732" lon="3.051033">
      </trkpt>
      <trkpt lat="45.753757" lon="3.051007">
      </trkpt>
      <trkpt lat="45.753783" lon="3.050964">
      </trkpt>
      <trkpt lat="45.753809" lon="3.050848">
      </trkpt>
      <trkpt lat="45.753834" lon="3.050744">
      </trkpt>
      <trkpt lat="45.753954" lon="3.050714">
      </trkpt>
      <trkpt lat="45.754043" lon="3.050769">
      </trkpt>
      <trkpt lat="45.75415" lon="3.05083">
      </trkpt>
      <trkpt lat="45.754214" lon="3.050793">
      </trkpt>
      <trkpt lat="45.754333" lon="3.05072">
      </trkpt>
      <trkpt lat="45.754384" lon="3.05083">
      </trkpt>
      <trkpt lat="45.754376" lon="3.050989">
      </trkpt>
      <trkpt lat="45.754436" lon="3.051166">
      </trkpt>
      <trkpt lat="45.754538" lon="3.051245">
      </trkpt>
      <trkpt lat="45.754619" lon="3.051307">
      </trkpt>
      <trkpt lat="45.754649" lon="3.051386">
      </trkpt>
      <trkpt lat="45.754615" lon="3.051447">
      </trkpt>
      <trkpt lat="45.754593" lon="3.051618">
      </trkpt>
      <trkpt lat="45.754517" lon="3.051624">
      </trkpt>
      <trkpt lat="45.754529" lon="3.051728">
      </trkpt>
      <trkpt lat="45.754529" lon="3.051881">
      </trkpt>
      <trkpt lat="45.754572" lon="3.051973">
      </trkpt>
      <trkpt lat="45.754743" lon="3.051808">
      </trkpt>
      <trkpt lat="45.754841" lon="3.051631">
      </trkpt>
      <trkpt lat="45.754952" lon="3.051447">
      </trkpt>
      <trkpt lat="45.755037" lon="3.051178">
      </trkpt>
      <trkpt lat="45.755158" lon="3.051018">
      </trkpt>
      <trkpt lat="45.755174" lon="3.050878">
      </trkpt>
      <trkpt lat="45.75522" lon="3.050688">
      </trkpt>
      <trkpt lat="45.755225" lon="3.050487">
      </trkpt>
      <trkpt lat="45.755186" lon="3.050371">
      </trkpt>
      <trkpt lat="45.755261" lon="3.050407">
      </trkpt>
      <trkpt lat="45.75538" lon="3.050633">
      </trkpt>
      <trkpt lat="45.755498" lon="3.051032">
      </trkpt>
      <trkpt lat="45.75554" lon="3.051187">
      </trkpt>
      <trkpt lat="45.755622" lon="3.05137">
      </trkpt>
      <trkpt lat="45.755709" lon="3.05154">
      </trkpt>
      <trkpt lat="45.755701" lon="3.051837">
      </trkpt>
      <trkpt lat="45.755687" lon="3.052007">
      </trkpt>
      <trkpt lat="45.755655" lon="3.052185">
      </trkpt>
      <trkpt lat="45.755622" lon="3.052285">
      </trkpt>
      <trkpt lat="45.755591" lon="3.052372">
      </trkpt>
      <trkpt lat="45.755526" lon="3.052523">
      </trkpt>
      <trkpt lat="45.755474" lon="3.052606">
      </trkpt>
      <trkpt lat="45.755414" lon="3.052679">
      </trkpt>
      <trkpt lat="45.755285" lon="3.052813">
      </trkpt>
      <trkpt lat="45.755313" lon="3.053247">
      </trkpt>
      <trkpt lat="45.755313" lon="3.053432">
      </trkpt>
      <trkpt lat="45.755297" lon="3.05358">
      </trkpt>
      <trkpt lat="45.755274" lon="3.053705">
      </trkpt>
      <trkpt lat="45.755246" lon="3.053821">
      </trkpt>
      <trkpt lat="45.75522" lon="3.053921">
      </trkpt>
      <trkpt lat="45.755171" lon="3.054127">
      </trkpt>
      <trkpt lat="45.755163" lon="3.054203">
      </trkpt>
      <trkpt lat="45.755165" lon="3.054267">
      </trkpt>
      <trkpt lat="45.755077" lon="3.054288">
      </trkpt>
      <trkpt lat="45.754962" lon="3.054325">
      </trkpt>
      <trkpt lat="45.754787" lon="3.054422">
      </trkpt>
      <trkpt lat="45.754696" lon="3.054466">
      </trkpt>
      <trkpt lat="45.754556" lon="3.054607">
      </trkpt>
      <trkpt lat="45.754504" lon="3.054711">
      </trkpt>
      <trkpt lat="45.754406" lon="3.054894">
      </trkpt>
      <trkpt lat="45.754317" lon="3.054974">
      </trkpt>
      <trkpt lat="45.75418" lon="3.054998">
      </trkpt>
      <trkpt lat="45.754069" lon="3.054998">
      </trkpt>
      <trkpt lat="45.753984" lon="3.055053">
      </trkpt>
      <trkpt lat="45.753924" lon="3.055169">
      </trkpt>
      <trkpt lat="45.75386" lon="3.055371">
      </trkpt>
      <trkpt lat="45.753754" lon="3.055591">
      </trkpt>
      <trkpt lat="45.753707" lon="3.055744">
      </trkpt>
      <trkpt lat="45.753647" lon="3.055823">
      </trkpt>
      <trkpt lat="45.753592" lon="3.055939">
      </trkpt>
      <trkpt lat="45.753489" lon="3.056104">
      </trkpt>
      <trkpt lat="45.753438" lon="3.056153">
      </trkpt>
      <trkpt lat="45.753361" lon="3.056135">
      </trkpt>
      <trkpt lat="45.75328" lon="3.056104">
      </trkpt>
      <trkpt lat="45.753131" lon="3.056208">
      </trkpt>
      <trkpt lat="45.753033" lon="3.056294">
      </trkpt>
      <trkpt lat="45.752841" lon="3.056429">
      </trkpt>
      <trkpt lat="45.75261" lon="3.056514">
      </trkpt>
      <trkpt lat="45.752318" lon="3.056573">
      </trkpt>
      <trkpt lat="45.751877" lon="3.056539">
      </trkpt>
      <trkpt lat="45.751546" lon="3.056573">
      </trkpt>
      <trkpt lat="45.75122" lon="3.056477">
      </trkpt>
      <trkpt lat="45.751081" lon="3.056443">
      </trkpt>
      <trkpt lat="45.750908" lon="3.056308">
      </trkpt>
      <trkpt lat="45.750751" lon="3.056184">
      </trkpt>
      <trkpt lat="45.750587" lon="3.056119">
      </trkpt>
      <trkpt lat="45.750309" lon="3.056074">
      </trkpt>
      <trkpt lat="45.749992" lon="3.056101">
      </trkpt>
      <trkpt lat="45.749874" lon="3.056051">
      </trkpt>
      <trkpt lat="45.749779" lon="3.056011">
      </trkpt>
      <trkpt lat="45.749663" lon="3.055908">
      </trkpt>
      <trkpt lat="45.749602" lon="3.055911">
      </trkpt>
      <trkpt lat="45.749525" lon="3.055888">
      </trkpt>
      <trkpt lat="45.749313" lon="3.055792">
      </trkpt>
      <trkpt lat="45.749171" lon="3.055768">
      </trkpt>
      <trkpt lat="45.748882" lon="3.05578">
      </trkpt>
      <trkpt lat="45.748772" lon="3.055756">
      </trkpt>
      <trkpt lat="45.748705" lon="3.055733">
      </trkpt>
      <trkpt lat="45.748613" lon="3.055707">
      </trkpt>
      <trkpt lat="45.748596" lon="3.05593">
      </trkpt>
      <trkpt lat="45.748593" lon="3.056099">
      </trkpt>
      <trkpt lat="45.748599" lon="3.056134">
      </trkpt>
      <trkpt lat="45.748608" lon="3.05618">
      </trkpt>
      <trkpt lat="45.748668" lon="3.056571">
      </trkpt>
      <trkpt lat="45.748662" lon="3.056802">
      </trkpt>
      <trkpt lat="45.748645" lon="3.05691">
      </trkpt>
      <trkpt lat="45.748637" lon="3.056965">
      </trkpt>
      <trkpt lat="45.748497" lon="3.056978">
      </trkpt>
      <trkpt lat="45.74781" lon="3.057631">
      </trkpt>
      <trkpt lat="45.747583" lon="3.057769">
      </trkpt>
      <trkpt lat="45.746795" lon="3.058048">
      </trkpt>
      <trkpt lat="45.746772" lon="3.05814">
      </trkpt>
      <trkpt lat="45.746724" lon="3.058329">
      </trkpt>
      <trkpt lat="45.746667" lon="3.058729">
      </trkpt>
      <trkpt lat="45.746563" lon="3.059006">
      </trkpt>
      <trkpt lat="45.746496" lon="3.059067">
      </trkpt>
      <trkpt lat="45.746488" lon="3.059126">
      </trkpt>
      <trkpt lat="45.746468" lon="3.059274">
      </trkpt>
      <trkpt lat="45.746376" lon="3.059449">
      </trkpt>
      <trkpt lat="45.746233" lon="3.059715">
      </trkpt>
      <trkpt lat="45.746074" lon="3.060029">
      </trkpt>
      <trkpt lat="45.746002" lon="3.060157">
      </trkpt>
      <trkpt lat="45.745977" lon="3.060312">
      </trkpt>
      <trkpt lat="45.745922" lon="3.060575">
      </trkpt>
      <trkpt lat="45.745888" lon="3.060467">
      </trkpt>
      <trkpt lat="45.745812" lon="3.060506">
      </trkpt>
      <trkpt lat="45.7458" lon="3.060729">
      </trkpt>
      <trkpt lat="45.745593" lon="3.060823">
      </trkpt>
      <trkpt lat="45.745527" lon="3.060849">
      </trkpt>
      <trkpt lat="45.745504" lon="3.060858">
      </trkpt>
      <trkpt lat="45.745494" lon="3.060861">
      </trkpt>
      <trkpt lat="45.745245" lon="3.06094">
      </trkpt>
      <trkpt lat="45.745208" lon="3.060952">
      </trkpt>
      <trkpt lat="45.745157" lon="3.061044">
      </trkpt>
      <trkpt lat="45.745256" lon="3.061283">
      </trkpt>
      <trkpt lat="45.745298" lon="3.061555">
      </trkpt>
      <trkpt lat="45.745317" lon="3.061699">
      </trkpt>
      <trkpt lat="45.745336" lon="3.061844">
      </trkpt>
      <trkpt lat="45.745337" lon="3.061991">
      </trkpt>
      <trkpt lat="45.745168" lon="3.062027">
      </trkpt>
      <trkpt lat="45.745086" lon="3.062052">
      </trkpt>
      <trkpt lat="45.74494" lon="3.062156">
      </trkpt>
      <trkpt lat="45.744696" lon="3.062331">
      </trkpt>
      <trkpt lat="45.744585" lon="3.062411">
      </trkpt>
      <trkpt lat="45.744308" lon="3.062485">
      </trkpt>
      <trkpt lat="45.7442" lon="3.062615">
      </trkpt>
      <trkpt lat="45.743991" lon="3.062325">
      </trkpt>
      <trkpt lat="45.743888" lon="3.062169">
      </trkpt>
      <trkpt lat="45.743769" lon="3.062321">
      </trkpt>
      <trkpt lat="45.743724" lon="3.062437">
      </trkpt>
      <trkpt lat="45.743717" lon="3.062575">
      </trkpt>
      <trkpt lat="45.743936" lon="3.063423">
      </trkpt>
      <trkpt lat="45.743996" lon="3.063943">
      </trkpt>
      <trkpt lat="45.743981" lon="3.064184">
      </trkpt>
      <trkpt lat="45.743921" lon="3.064624">
      </trkpt>
      <trkpt lat="45.743719" lon="3.065085">
      </trkpt>
      <trkpt lat="45.743525" lon="3.065445">
      </trkpt>
      <trkpt lat="45.743476" lon="3.065536">
      </trkpt>
      <trkpt lat="45.743389" lon="3.065836">
      </trkpt>
      <trkpt lat="45.743184" lon="3.066325">
      </trkpt>
      <trkpt lat="45.743151" lon="3.066423">
      </trkpt>
      <trkpt lat="45.742918" lon="3.066245">
      </trkpt>
      <trkpt lat="45.742641" lon="3.066124">
      </trkpt>
      <trkpt lat="45.742327" lon="3.065967">
      </trkpt>
      <trkpt lat="45.742037" lon="3.065732">
      </trkpt>
      <trkpt lat="45.741723" lon="3.065605">
      </trkpt>
      <trkpt lat="45.741583" lon="3.065555">
      </trkpt>
      <trkpt lat="45.74138" lon="3.06549">
      </trkpt>
      <trkpt lat="45.740963" lon="3.065388">
      </trkpt>
      <trkpt lat="45.740797" lon="3.06527">
      </trkpt>
      <trkpt lat="45.740645" lon="3.065273">
      </trkpt>
      <trkpt lat="45.740346" lon="3.064973">
      </trkpt>
      <trkpt lat="45.740087" lon="3.064812">
      </trkpt>
      <trkpt lat="45.739974" lon="3.064818">
      </trkpt>
      <trkpt lat="45.739922" lon="3.064763">
      </trkpt>
      <trkpt lat="45.739781" lon="3.064694">
      </trkpt>
      <trkpt lat="45.739757" lon="3.064682">
      </trkpt>
      <trkpt lat="45.739545" lon="3.064574">
      </trkpt>
      <trkpt lat="45.739354" lon="3.064511">
      </trkpt>
      <trkpt lat="45.739215" lon="3.064528">
      </trkpt>
      <trkpt lat="45.738961" lon="3.064538">
      </trkpt>
      <trkpt lat="45.738898" lon="3.064481">
      </trkpt>
      <trkpt lat="45.738818" lon="3.064447">
      </trkpt>
      <trkpt lat="45.73862" lon="3.064334">
      </trkpt>
      <trkpt lat="45.738491" lon="3.064341">
      </trkpt>
      <trkpt lat="45.73833" lon="3.064399">
      </trkpt>
      <trkpt lat="45.738208" lon="3.064041">
      </trkpt>
      <trkpt lat="45.737767" lon="3.063578">
      </trkpt>
      <trkpt lat="45.737671" lon="3.063528">
      </trkpt>
      <trkpt lat="45.737513" lon="3.063445">
      </trkpt>
      <trkpt lat="45.737342" lon="3.063312">
      </trkpt>
      <trkpt lat="45.737067" lon="3.063098">
      </trkpt>
      <trkpt lat="45.736822" lon="3.063008">
      </trkpt>
      <trkpt lat="45.736449" lon="3.063019">
      </trkpt>
      <trkpt lat="45.736292" lon="3.063076">
      </trkpt>
      <trkpt lat="45.736067" lon="3.062995">
      </trkpt>
      <trkpt lat="45.735965" lon="3.062999">
      </trkpt>
      <trkpt lat="45.735492" lon="3.063165">
      </trkpt>
      <trkpt lat="45.735327" lon="3.063181">
      </trkpt>
      <trkpt lat="45.734917" lon="3.06316">
      </trkpt>
      <trkpt lat="45.734891" lon="3.063141">
      </trkpt>
      <trkpt lat="45.734714" lon="3.063368">
      </trkpt>
      <trkpt lat="45.734642" lon="3.063458">
      </trkpt>
      <trkpt lat="45.734526" lon="3.06361">
      </trkpt>
      <trkpt lat="45.734402" lon="3.063734">
      </trkpt>
      <trkpt lat="45.734307" lon="3.063804">
      </trkpt>
      <trkpt lat="45.734175" lon="3.063851">
      </trkpt>
      <trkpt lat="45.734107" lon="3.06387">
      </trkpt>
      <trkpt lat="45.734067" lon="3.06388">
      </trkpt>
      <trkpt lat="45.733899" lon="3.063923">
      </trkpt>
      <trkpt lat="45.733834" lon="3.063942">
      </trkpt>
      <trkpt lat="45.733808" lon="3.063963">
      </trkpt>
      <trkpt lat="45.733788" lon="3.064031">
      </trkpt>
      <trkpt lat="45.733598" lon="3.063999">
      </trkpt>
      <trkpt lat="45.73359" lon="3.064037">
      </trkpt>
      <trkpt lat="45.733584" lon="3.064076">
      </trkpt>
      <trkpt lat="45.733561" lon="3.064107">
      </trkpt>
      <trkpt lat="45.733534" lon="3.064138">
      </trkpt>
      <trkpt lat="45.733449" lon="3.064184">
      </trkpt>
      <trkpt lat="45.733415" lon="3.064196">
      </trkpt>
      <trkpt lat="45.73339" lon="3.064204">
      </trkpt>
      <trkpt lat="45.733351" lon="3.064216">
      </trkpt>
      <trkpt lat="45.733211" lon="3.064264">
      </trkpt>
      <trkpt lat="45.733119" lon="3.064307">
      </trkpt>
      <trkpt lat="45.733052" lon="3.064342">
      </trkpt>
      <trkpt lat="45.732907" lon="3.06443">
      </trkpt>
      <trkpt lat="45.732829" lon="3.064477">
      </trkpt>
      <trkpt lat="45.732734" lon="3.064549">
      </trkpt>
      <trkpt lat="45.732654" lon="3.064614">
      </trkpt>
      <trkpt lat="45.732605" lon="3.064648">
      </trkpt>
      <trkpt lat="45.732493" lon="3.064781">
      </trkpt>
      <trkpt lat="45.732396" lon="3.064938">
      </trkpt>
      <trkpt lat="45.732323" lon="3.065104">
      </trkpt>
      <trkpt lat="45.7323" lon="3.065175">
      </trkpt>
      <trkpt lat="45.73228" lon="3.0653">
      </trkpt>
      <trkpt lat="45.732219" lon="3.065302">
      </trkpt>
      <trkpt lat="45.732081" lon="3.065331">
      </trkpt>
      <trkpt lat="45.732035" lon="3.065359">
      </trkpt>
      <trkpt lat="45.73196" lon="3.065387">
      </trkpt>
      <trkpt lat="45.731614" lon="3.065606">
      </trkpt>
      <trkpt lat="45.731506" lon="3.065674">
      </trkpt>
      <trkpt lat="45.73142" lon="3.065728">
      </trkpt>
      <trkpt lat="45.73122" lon="3.065829">
      </trkpt>
      <trkpt lat="45.731011" lon="3.065952">
      </trkpt>
      <trkpt lat="45.730857" lon="3.066104">
      </trkpt>
      <trkpt lat="45.730729" lon="3.066137">
      </trkpt>
      <trkpt lat="45.730566" lon="3.066151">
      </trkpt>
      <trkpt lat="45.730534" lon="3.066154">
      </trkpt>
      <trkpt lat="45.730243" lon="3.066199">
      </trkpt>
      <trkpt lat="45.730259" lon="3.066243">
      </trkpt>
      <trkpt lat="45.730104" lon="3.066398">
      </trkpt>
      <trkpt lat="45.729917" lon="3.066654">
      </trkpt>
      <trkpt lat="45.729988" lon="3.066757">
      </trkpt>
      <trkpt lat="45.730088" lon="3.066929">
      </trkpt>
      <trkpt lat="45.730076" lon="3.067274">
      </trkpt>
      <trkpt lat="45.730076" lon="3.067305">
      </trkpt>
      <trkpt lat="45.730074" lon="3.067952">
      </trkpt>
      <trkpt lat="45.730216" lon="3.068205">
      </trkpt>
      <trkpt lat="45.730345" lon="3.068376">
      </trkpt>
      <trkpt lat="45.730599" lon="3.06862">
      </trkpt>
      <trkpt lat="45.730854" lon="3.068685">
      </trkpt>
      <trkpt lat="45.730922" lon="3.068711">
      </trkpt>
      <trkpt lat="45.730979" lon="3.068758">
      </trkpt>
      <trkpt lat="45.730906" lon="3.068986">
      </trkpt>
      <trkpt lat="45.730851" lon="3.069248">
      </trkpt>
      <trkpt lat="45.730821" lon="3.069472">
      </trkpt>
      <trkpt lat="45.730805" lon="3.069663">
      </trkpt>
      <trkpt lat="45.730779" lon="3.069978">
      </trkpt>
      <trkpt lat="45.730757" lon="3.070134">
      </trkpt>
      <trkpt lat="45.730717" lon="3.070187">
      </trkpt>
      <trkpt lat="45.730689" lon="3.070255">
      </trkpt>
      <trkpt lat="45.730677" lon="3.070332">
      </trkpt>
      <trkpt lat="45.730682" lon="3.070407">
      </trkpt>
      <trkpt lat="45.730702" lon="3.070477">
      </trkpt>
      <trkpt lat="45.730735" lon="3.070536">
      </trkpt>
      <trkpt lat="45.730616" lon="3.070552">
      </trkpt>
      <trkpt lat="45.73036" lon="3.070432">
      </trkpt>
      <trkpt lat="45.73025" lon="3.070392">
      </trkpt>
      <trkpt lat="45.729976" lon="3.07036">
      </trkpt>
      <trkpt lat="45.729496" lon="3.070381">
      </trkpt>
      <trkpt lat="45.729258" lon="3.070415">
      </trkpt>
      <trkpt lat="45.728882" lon="3.070504">
      </trkpt>
      <trkpt lat="45.728328" lon="3.070659">
      </trkpt>
      <trkpt lat="45.727272" lon="3.071182">
      </trkpt>
      <trkpt lat="45.726842" lon="3.071367">
      </trkpt>
      <trkpt lat="45.726688" lon="3.071454">
      </trkpt>
      <trkpt lat="45.726624" lon="3.071545">
      </trkpt>
      <trkpt lat="45.726592" lon="3.071659">
      </trkpt>
      <trkpt lat="45.726531" lon="3.071783">
      </trkpt>
      <trkpt lat="45.726491" lon="3.071863">
      </trkpt>
      <trkpt lat="45.726296" lon="3.072101">
      </trkpt>
      <trkpt lat="45.726153" lon="3.072328">
      </trkpt>
      <trkpt lat="45.726052" lon="3.07254">
      </trkpt>
      <trkpt lat="45.726024" lon="3.072691">
      </trkpt>
      <trkpt lat="45.726001" lon="3.072878">
      </trkpt>
      <trkpt lat="45.725989" lon="3.073245">
      </trkpt>
      <trkpt lat="45.725998" lon="3.073343">
      </trkpt>
      <trkpt lat="45.725989" lon="3.073397">
      </trkpt>
      <trkpt lat="45.725915" lon="3.073463">
      </trkpt>
      <trkpt lat="45.725633" lon="3.073628">
      </trkpt>
      <trkpt lat="45.725252" lon="3.073886">
      </trkpt>
      <trkpt lat="45.725189" lon="3.073947">
      </trkpt>
      <trkpt lat="45.725025" lon="3.073938">
      </trkpt>
      <trkpt lat="45.724781" lon="3.073929">
      </trkpt>
      <trkpt lat="45.724592" lon="3.07413">
      </trkpt>
      <trkpt lat="45.723475" lon="3.07539">
      </trkpt>
      <trkpt lat="45.723223" lon="3.075574">
      </trkpt>
      <trkpt lat="45.721957" lon="3.075798">
      </trkpt>
      <trkpt lat="45.721768" lon="3.075858">
      </trkpt>
      <trkpt lat="45.721614" lon="3.076033">
      </trkpt>
      <trkpt lat="45.721696" lon="3.076156">
      </trkpt>
      <trkpt lat="45.722163" lon="3.076607">
      </trkpt>
      <trkpt lat="45.722081" lon="3.076808">
      </trkpt>
      <trkpt lat="45.722081" lon="3.076936">
      </trkpt>
      <trkpt lat="45.722095" lon="3.077107">
      </trkpt>
      <trkpt lat="45.722059" lon="3.077159">
      </trkpt>
      <trkpt lat="45.721892" lon="3.077301">
      </trkpt>
      <trkpt lat="45.721746" lon="3.077448">
      </trkpt>
      <trkpt lat="45.721669" lon="3.077565">
      </trkpt>
      <trkpt lat="45.721537" lon="3.077783">
      </trkpt>
      <trkpt lat="45.721445" lon="3.077944">
      </trkpt>
      <trkpt lat="45.72139" lon="3.078018">
      </trkpt>
      <trkpt lat="45.721128" lon="3.078202">
      </trkpt>
      <trkpt lat="45.721012" lon="3.078284">
      </trkpt>
      <trkpt lat="45.720914" lon="3.078346">
      </trkpt>
      <trkpt lat="45.720864" lon="3.078399">
      </trkpt>
      <trkpt lat="45.720862" lon="3.078438">
      </trkpt>
      <trkpt lat="45.720869" lon="3.078508">
      </trkpt>
      <trkpt lat="45.720917" lon="3.078694">
      </trkpt>
      <trkpt lat="45.720976" lon="3.078997">
      </trkpt>
      <trkpt lat="45.721" lon="3.079126">
      </trkpt>
      <trkpt lat="45.721017" lon="3.079255">
      </trkpt>
      <trkpt lat="45.721023" lon="3.079602">
      </trkpt>
      <trkpt lat="45.720996" lon="3.079866">
      </trkpt>
      <trkpt lat="45.720992" lon="3.079942">
      </trkpt>
      <trkpt lat="45.720999" lon="3.080021">
      </trkpt>
      <trkpt lat="45.720952" lon="3.080112">
      </trkpt>
      <trkpt lat="45.720925" lon="3.080233">
      </trkpt>
      <trkpt lat="45.720905" lon="3.080375">
      </trkpt>
      <trkpt lat="45.72085" lon="3.080903">
      </trkpt>
      <trkpt lat="45.7208" lon="3.081272">
      </trkpt>
      <trkpt lat="45.720748" lon="3.08162">
      </trkpt>
      <trkpt lat="45.720703" lon="3.081899">
      </trkpt>
      <trkpt lat="45.720689" lon="3.082067">
      </trkpt>
      <trkpt lat="45.72069" lon="3.082267">
      </trkpt>
      <trkpt lat="45.720711" lon="3.0835">
      </trkpt>
      <trkpt lat="45.72065" lon="3.083858">
      </trkpt>
      <trkpt lat="45.720541" lon="3.084303">
      </trkpt>
      <trkpt lat="45.720514" lon="3.084502">
      </trkpt>
      <trkpt lat="45.720475" lon="3.084719">
      </trkpt>
      <trkpt lat="45.720447" lon="3.084801">
      </trkpt>
      <trkpt lat="45.720328" lon="3.085147">
      </trkpt>
      <trkpt lat="45.720165" lon="3.08588">
      </trkpt>
      <trkpt lat="45.720139" lon="3.086012">
      </trkpt>
      <trkpt lat="45.720059" lon="3.086407">
      </trkpt>
      <trkpt lat="45.719887" lon="3.087078">
      </trkpt>
      <trkpt lat="45.719756" lon="3.08739">
      </trkpt>
      <trkpt lat="45.719681" lon="3.087542">
      </trkpt>
      <trkpt lat="45.719602" lon="3.087634">
      </trkpt>
      <trkpt lat="45.719539" lon="3.087756">
      </trkpt>
      <trkpt lat="45.719345" lon="3.088195">
      </trkpt>
      <trkpt lat="45.71919" lon="3.088517">
      </trkpt>
      <trkpt lat="45.719066" lon="3.088686">
      </trkpt>
      <trkpt lat="45.718292" lon="3.08885">
      </trkpt>
      <trkpt lat="45.71793" lon="3.088777">
      </trkpt>
      <trkpt lat="45.717814" lon="3.088771">
      </trkpt>
      <trkpt lat="45.717597" lon="3.088818">
      </trkpt>
      <trkpt lat="45.717454" lon="3.088825">
      </trkpt>
      <trkpt lat="45.717275" lon="3.089831">
      </trkpt>
      <trkpt lat="45.717159" lon="3.090609">
      </trkpt>
      <trkpt lat="45.717032" lon="3.091274">
      </trkpt>
      <trkpt lat="45.71698" lon="3.091906">
      </trkpt>
      <trkpt lat="45.716857" lon="3.09195">
      </trkpt>
      <trkpt lat="45.716711" lon="3.091979">
      </trkpt>
      <trkpt lat="45.716552" lon="3.091963">
      </trkpt>
      <trkpt lat="45.71617" lon="3.092026">
      </trkpt>
      <trkpt lat="45.715924" lon="3.092039">
      </trkpt>
      <trkpt lat="45.715705" lon="3.091989">
      </trkpt>
      <trkpt lat="45.715539" lon="3.091926">
      </trkpt>
      <trkpt lat="45.715449" lon="3.091876">
      </trkpt>
      <trkpt lat="45.715293" lon="3.091764">
      </trkpt>
      <trkpt lat="45.715036" lon="3.091564">
      </trkpt>
      <trkpt lat="45.714737" lon="3.091432">
      </trkpt>
      <trkpt lat="45.714318" lon="3.091326">
      </trkpt>
      <trkpt lat="45.714001" lon="3.091268">
      </trkpt>
      <trkpt lat="45.713773" lon="3.091238">
      </trkpt>
      <trkpt lat="45.713382" lon="3.091197">
      </trkpt>
      <trkpt lat="45.713038" lon="3.091119">
      </trkpt>
      <trkpt lat="45.712558" lon="3.091037">
      </trkpt>
      <trkpt lat="45.712088" lon="3.090972">
      </trkpt>
      <trkpt lat="45.711625" lon="3.090922">
      </trkpt>
      <trkpt lat="45.711548" lon="3.090912">
      </trkpt>
      <trkpt lat="45.711483" lon="3.090931">
      </trkpt>
      <trkpt lat="45.711267" lon="3.091188">
      </trkpt>
      <trkpt lat="45.711435" lon="3.091489">
      </trkpt>
      <trkpt lat="45.712168" lon="3.092655">
      </trkpt>
      <trkpt lat="45.712319" lon="3.092868">
      </trkpt>
      <trkpt lat="45.712765" lon="3.093495">
      </trkpt>
      <trkpt lat="45.713068" lon="3.09397">
      </trkpt>
      <trkpt lat="45.713332" lon="3.0944">
      </trkpt>
      <trkpt lat="45.71361" lon="3.095072">
      </trkpt>
      <trkpt lat="45.713702" lon="3.095416">
      </trkpt>
      <trkpt lat="45.713711" lon="3.095677">
      </trkpt>
      <trkpt lat="45.713677" lon="3.095946">
      </trkpt>
      <trkpt lat="45.713596" lon="3.096221">
      </trkpt>
      <trkpt lat="45.713557" lon="3.096379">
      </trkpt>
      <trkpt lat="45.713559" lon="3.09653">
      </trkpt>
      <trkpt lat="45.713849" lon="3.097449">
      </trkpt>
      <trkpt lat="45.713957" lon="3.097683">
      </trkpt>
      <trkpt lat="45.714016" lon="3.097872">
      </trkpt>
      <trkpt lat="45.714051" lon="3.098002">
      </trkpt>
      <trkpt lat="45.714094" lon="3.098311">
      </trkpt>
      <trkpt lat="45.714104" lon="3.098636">
      </trkpt>
      <trkpt lat="45.714118" lon="3.09871">
      </trkpt>
      <trkpt lat="45.714147" lon="3.098767">
      </trkpt>
      <trkpt lat="45.714237" lon="3.098877">
      </trkpt>
      <trkpt lat="45.714391" lon="3.099045">
      </trkpt>
      <trkpt lat="45.71448" lon="3.099154">
      </trkpt>
      <trkpt lat="45.714707" lon="3.099508">
      </trkpt>
      <trkpt lat="45.714831" lon="3.099659">
      </trkpt>
      <trkpt lat="45.715013" lon="3.099828">
      </trkpt>
      <trkpt lat="45.715636" lon="3.100262">
      </trkpt>
      <trkpt lat="45.71598" lon="3.10058">
      </trkpt>
      <trkpt lat="45.716059" lon="3.100681">
      </trkpt>
      <trkpt lat="45.716106" lon="3.100763">
      </trkpt>
      <trkpt lat="45.716135" lon="3.100849">
      </trkpt>
      <trkpt lat="45.716152" lon="3.101">
      </trkpt>
      <trkpt lat="45.716148" lon="3.101151">
      </trkpt>
      <trkpt lat="45.716118" lon="3.101435">
      </trkpt>
      <trkpt lat="45.716016" lon="3.102204">
      </trkpt>
      <trkpt lat="45.715905" lon="3.103042">
      </trkpt>
      <trkpt lat="45.715894" lon="3.103335">
      </trkpt>
      <trkpt lat="45.715892" lon="3.103545">
      </trkpt>
      <trkpt lat="45.71601" lon="3.104051">
      </trkpt>
      <trkpt lat="45.716064" lon="3.104238">
      </trkpt>
      <trkpt lat="45.716141" lon="3.104447">
      </trkpt>
      <trkpt lat="45.716302" lon="3.104806">
      </trkpt>
      <trkpt lat="45.716367" lon="3.104915">
      </trkpt>
      <trkpt lat="45.716692" lon="3.105286">
      </trkpt>
      <trkpt lat="45.716907" lon="3.105594">
      </trkpt>
      <trkpt lat="45.716982" lon="3.105848">
      </trkpt>
      <trkpt lat="45.717041" lon="3.106152">
      </trkpt>
      <trkpt lat="45.717171" lon="3.106747">
      </trkpt>
      <trkpt lat="45.717187" lon="3.106865">
      </trkpt>
      <trkpt lat="45.717172" lon="3.106982">
      </trkpt>
      <trkpt lat="45.717145" lon="3.107117">
      </trkpt>
      <trkpt lat="45.717092" lon="3.107248">
      </trkpt>
      <trkpt lat="45.71701" lon="3.107464">
      </trkpt>
      <trkpt lat="45.716961" lon="3.107718">
      </trkpt>
      <trkpt lat="45.71679" lon="3.108961">
      </trkpt>
      <trkpt lat="45.716724" lon="3.109568">
      </trkpt>
      <trkpt lat="45.716695" lon="3.109992">
      </trkpt>
      <trkpt lat="45.716695" lon="3.110291">
      </trkpt>
      <trkpt lat="45.716731" lon="3.110617">
      </trkpt>
      <trkpt lat="45.716733" lon="3.110961">
      </trkpt>
      <trkpt lat="45.716821" lon="3.111069">
      </trkpt>
      <trkpt lat="45.716863" lon="3.11148">
      </trkpt>
      <trkpt lat="45.716842" lon="3.111674">
      </trkpt>
      <trkpt lat="45.716853" lon="3.111744">
      </trkpt>
      <trkpt lat="45.716841" lon="3.112161">
      </trkpt>
      <trkpt lat="45.716787" lon="3.112422">
      </trkpt>
      <trkpt lat="45.716748" lon="3.112561">
      </trkpt>
      <trkpt lat="45.716753" lon="3.112723">
      </trkpt>
      <trkpt lat="45.716726" lon="3.112842">
      </trkpt>
      <trkpt lat="45.716723" lon="3.112968">
      </trkpt>
      <trkpt lat="45.716743" lon="3.113104">
      </trkpt>
      <trkpt lat="45.716807" lon="3.113254">
      </trkpt>
      <trkpt lat="45.716908" lon="3.113484">
      </trkpt>
      <trkpt lat="45.716952" lon="3.113531">
      </trkpt>
      <trkpt lat="45.71698" lon="3.113678">
      </trkpt>
      <trkpt lat="45.716988" lon="3.113793">
      </trkpt>
      <trkpt lat="45.717074" lon="3.113938">
      </trkpt>
      <trkpt lat="45.717136" lon="3.114089">
      </trkpt>
      <trkpt lat="45.717207" lon="3.114348">
      </trkpt>
      <trkpt lat="45.717295" lon="3.11455">
      </trkpt>
      <trkpt lat="45.717502" lon="3.114868">
      </trkpt>
      <trkpt lat="45.717587" lon="3.115033">
      </trkpt>
      <trkpt lat="45.717668" lon="3.115244">
      </trkpt>
      <trkpt lat="45.717731" lon="3.115516">
      </trkpt>
      <trkpt lat="45.717762" lon="3.115686">
      </trkpt>
      <trkpt lat="45.717774" lon="3.115874">
      </trkpt>
      <trkpt lat="45.717719" lon="3.116101">
      </trkpt>
      <trkpt lat="45.717656" lon="3.116233">
      </trkpt>
      <trkpt lat="45.717673" lon="3.116359">
      </trkpt>
      <trkpt lat="45.717668" lon="3.1165">
      </trkpt>
      <trkpt lat="45.717671" lon="3.116689">
      </trkpt>
      <trkpt lat="45.717653" lon="3.116768">
      </trkpt>
      <trkpt lat="45.717649" lon="3.116844">
      </trkpt>
      <trkpt lat="45.717647" lon="3.116924">
      </trkpt>
      <trkpt lat="45.71766" lon="3.117038">
      </trkpt>
      <trkpt lat="45.717678" lon="3.117133">
      </trkpt>
      <trkpt lat="45.717694" lon="3.117221">
      </trkpt>
      <trkpt lat="45.717746" lon="3.117554">
      </trkpt>
      <trkpt lat="45.717797" lon="3.117885">
      </trkpt>
      <trkpt lat="45.717824" lon="3.118007">
      </trkpt>
      <trkpt lat="45.717874" lon="3.118235">
      </trkpt>
      <trkpt lat="45.717897" lon="3.118338">
      </trkpt>
      <trkpt lat="45.71796" lon="3.118749">
      </trkpt>
      <trkpt lat="45.71813" lon="3.119614">
      </trkpt>
      <trkpt lat="45.718168" lon="3.119799">
      </trkpt>
      <trkpt lat="45.718248" lon="3.119976">
      </trkpt>
      <trkpt lat="45.718485" lon="3.12045">
      </trkpt>
      <trkpt lat="45.718532" lon="3.120541">
      </trkpt>
      <trkpt lat="45.718542" lon="3.12057">
      </trkpt>
      <trkpt lat="45.718561" lon="3.120623">
      </trkpt>
      <trkpt lat="45.718656" lon="3.120885">
      </trkpt>
      <trkpt lat="45.718764" lon="3.121359">
      </trkpt>
      <trkpt lat="45.718843" lon="3.121819">
      </trkpt>
      <trkpt lat="45.718877" lon="3.122201">
      </trkpt>
      <trkpt lat="45.718896" lon="3.122774">
      </trkpt>
      <trkpt lat="45.718878" lon="3.123314">
      </trkpt>
      <trkpt lat="45.718908" lon="3.123442">
      </trkpt>
      <trkpt lat="45.718948" lon="3.123741">
      </trkpt>
      <trkpt lat="45.719026" lon="3.123718">
      </trkpt>
      <trkpt lat="45.719202" lon="3.123669">
      </trkpt>
      <trkpt lat="45.719026" lon="3.123718">
      </trkpt>
      <trkpt lat="45.718948" lon="3.123741">
      </trkpt>
      <trkpt lat="45.718908" lon="3.123442">
      </trkpt>
      <trkpt lat="45.718878" lon="3.123314">
      </trkpt>
      <trkpt lat="45.718896" lon="3.122774">
      </trkpt>
      <trkpt lat="45.718877" lon="3.122201">
      </trkpt>
      <trkpt lat="45.718843" lon="3.121819">
      </trkpt>
      <trkpt lat="45.718764" lon="3.121359">
      </trkpt>
      <trkpt lat="45.718656" lon="3.120885">
      </trkpt>
      <trkpt lat="45.718561" lon="3.120623">
      </trkpt>
      <trkpt lat="45.718542" lon="3.12057">
      </trkpt>
      <trkpt lat="45.718532" lon="3.120541">
      </trkpt>
      <trkpt lat="45.718485" lon="3.12045">
      </trkpt>
      <trkpt lat="45.718248" lon="3.119976">
      </trkpt>
      <trkpt lat="45.718168" lon="3.119799">
      </trkpt>
      <trkpt lat="45.71813" lon="3.119614">
      </trkpt>
      <trkpt lat="45.71796" lon="3.118749">
      </trkpt>
      <trkpt lat="45.717897" lon="3.118338">
      </trkpt>
      <trkpt lat="45.717874" lon="3.118235">
      </trkpt>
      <trkpt lat="45.717824" lon="3.118007">
      </trkpt>
      <trkpt lat="45.717797" lon="3.117885">
      </trkpt>
      <trkpt lat="45.717746" lon="3.117554">
      </trkpt>
      <trkpt lat="45.717694" lon="3.117221">
      </trkpt>
      <trkpt lat="45.717678" lon="3.117133">
      </trkpt>
      <trkpt lat="45.71766" lon="3.117038">
      </trkpt>
      <trkpt lat="45.717647" lon="3.116924">
      </trkpt>
      <trkpt lat="45.717649" lon="3.116844">
      </trkpt>
      <trkpt lat="45.717653" lon="3.116768">
      </trkpt>
      <trkpt lat="45.717671" lon="3.116689">
      </trkpt>
      <trkpt lat="45.717668" lon="3.1165">
      </trkpt>
      <trkpt lat="45.717673" lon="3.116359">
      </trkpt>
      <trkpt lat="45.717656" lon="3.116233">
      </trkpt>
      <trkpt lat="45.717719" lon="3.116101">
      </trkpt>
      <trkpt lat="45.717774" lon="3.115874">
      </trkpt>
      <trkpt lat="45.717762" lon="3.115686">
      </trkpt>
      <trkpt lat="45.717731" lon="3.115516">
      </trkpt>
      <trkpt lat="45.717668" lon="3.115244">
      </trkpt>
      <trkpt lat="45.717587" lon="3.115033">
      </trkpt>
      <trkpt lat="45.717502" lon="3.114868">
      </trkpt>
      <trkpt lat="45.717295" lon="3.11455">
      </trkpt>
      <trkpt lat="45.717207" lon="3.114348">
      </trkpt>
      <trkpt lat="45.717136" lon="3.114089">
      </trkpt>
      <trkpt lat="45.717074" lon="3.113938">
      </trkpt>
      <trkpt lat="45.716988" lon="3.113793">
      </trkpt>
      <trkpt lat="45.71698" lon="3.113678">
      </trkpt>
      <trkpt lat="45.716952" lon="3.113531">
      </trkpt>
      <trkpt lat="45.716908" lon="3.113484">
      </trkpt>
      <trkpt lat="45.716807" lon="3.113254">
      </trkpt>
      <trkpt lat="45.716743" lon="3.113104">
      </trkpt>
      <trkpt lat="45.716723" lon="3.112968">
      </trkpt>
      <trkpt lat="45.716726" lon="3.112842">
      </trkpt>
      <trkpt lat="45.716753" lon="3.112723">
      </trkpt>
      <trkpt lat="45.716748" lon="3.112561">
      </trkpt>
      <trkpt lat="45.716787" lon="3.112422">
      </trkpt>
      <trkpt lat="45.716841" lon="3.112161">
      </trkpt>
      <trkpt lat="45.716853" lon="3.111744">
      </trkpt>
      <trkpt lat="45.716842" lon="3.111674">
      </trkpt>
      <trkpt lat="45.716863" lon="3.11148">
      </trkpt>
      <trkpt lat="45.716821" lon="3.111069">
      </trkpt>
      <trkpt lat="45.716733" lon="3.110961">
      </trkpt>
      <trkpt lat="45.716797" lon="3.11076">
      </trkpt>
      <trkpt lat="45.716931" lon="3.11057">
      </trkpt>
      <trkpt lat="45.71681" lon="3.110388">
      </trkpt>
      <trkpt lat="45.716813" lon="3.110265">
      </trkpt>
      <trkpt lat="45.716806" lon="3.110123">
      </trkpt>
      <trkpt lat="45.716769" lon="3.110011">
      </trkpt>
      <trkpt lat="45.716763" lon="3.109951">
      </trkpt>
      <trkpt lat="45.716772" lon="3.109898">
      </trkpt>
      <trkpt lat="45.716806" lon="3.109825">
      </trkpt>
      <trkpt lat="45.716812" lon="3.109758">
      </trkpt>
      <trkpt lat="45.71681" lon="3.109613">
      </trkpt>
      <trkpt lat="45.716846" lon="3.109382">
      </trkpt>
      <trkpt lat="45.716913" lon="3.109024">
      </trkpt>
      <trkpt lat="45.716936" lon="3.108883">
      </trkpt>
      <trkpt lat="45.717027" lon="3.108561">
      </trkpt>
      <trkpt lat="45.717114" lon="3.108222">
      </trkpt>
      <trkpt lat="45.71712" lon="3.108126">
      </trkpt>
      <trkpt lat="45.717159" lon="3.107935">
      </trkpt>
      <trkpt lat="45.717201" lon="3.107796">
      </trkpt>
      <trkpt lat="45.717213" lon="3.107694">
      </trkpt>
      <trkpt lat="45.717208" lon="3.107614">
      </trkpt>
      <trkpt lat="45.717179" lon="3.107484">
      </trkpt>
      <trkpt lat="45.717173" lon="3.107421">
      </trkpt>
      <trkpt lat="45.717183" lon="3.107382">
      </trkpt>
      <trkpt lat="45.717231" lon="3.107287">
      </trkpt>
      <trkpt lat="45.71725" lon="3.107244">
      </trkpt>
      <trkpt lat="45.71726" lon="3.107139">
      </trkpt>
      <trkpt lat="45.717245" lon="3.106996">
      </trkpt>
      <trkpt lat="45.717187" lon="3.106865">
      </trkpt>
      <trkpt lat="45.717171" lon="3.106747">
      </trkpt>
      <trkpt lat="45.717041" lon="3.106152">
      </trkpt>
      <trkpt lat="45.716982" lon="3.105848">
      </trkpt>
      <trkpt lat="45.717055" lon="3.105822">
      </trkpt>
      <trkpt lat="45.717237" lon="3.10581">
      </trkpt>
      <trkpt lat="45.717318" lon="3.105817">
      </trkpt>
      <trkpt lat="45.717464" lon="3.105926">
      </trkpt>
      <trkpt lat="45.717655" lon="3.105757">
      </trkpt>
      <trkpt lat="45.717881" lon="3.105644">
      </trkpt>
      <trkpt lat="45.718029" lon="3.105411">
      </trkpt>
      <trkpt lat="45.718098" lon="3.105234">
      </trkpt>
      <trkpt lat="45.71817" lon="3.105184">
      </trkpt>
      <trkpt lat="45.718269" lon="3.105314">
      </trkpt>
      <trkpt lat="45.718334" lon="3.105333">
      </trkpt>
      <trkpt lat="45.718441" lon="3.105301">
      </trkpt>
      <trkpt lat="45.71854" lon="3.105142">
      </trkpt>
      <trkpt lat="45.7186" lon="3.105132">
      </trkpt>
      <trkpt lat="45.718683" lon="3.105172">
      </trkpt>
      <trkpt lat="45.718896" lon="3.105051">
      </trkpt>
      <trkpt lat="45.719029" lon="3.104884">
      </trkpt>
      <trkpt lat="45.719156" lon="3.104793">
      </trkpt>
      <trkpt lat="45.719484" lon="3.104695">
      </trkpt>
      <trkpt lat="45.719728" lon="3.104662">
      </trkpt>
      <trkpt lat="45.719922" lon="3.104668">
      </trkpt>
      <trkpt lat="45.720113" lon="3.104614">
      </trkpt>
      <trkpt lat="45.720438" lon="3.104558">
      </trkpt>
      <trkpt lat="45.720776" lon="3.104346">
      </trkpt>
      <trkpt lat="45.720926" lon="3.104319">
      </trkpt>
      <trkpt lat="45.721185" lon="3.104196">
      </trkpt>
      <trkpt lat="45.721432" lon="3.104201">
      </trkpt>
      <trkpt lat="45.721514" lon="3.104147">
      </trkpt>
      <trkpt lat="45.721686" lon="3.104035">
      </trkpt>
      <trkpt lat="45.721892" lon="3.104013">
      </trkpt>
      <trkpt lat="45.722076" lon="3.103986">
      </trkpt>
      <trkpt lat="45.722341" lon="3.103826">
      </trkpt>
      <trkpt lat="45.722591" lon="3.103708">
      </trkpt>
      <trkpt lat="45.722911" lon="3.103592">
      </trkpt>
      <trkpt lat="45.722979" lon="3.103314">
      </trkpt>
      <trkpt lat="45.723277" lon="3.103154">
      </trkpt>
      <trkpt lat="45.723352" lon="3.103218">
      </trkpt>
      <trkpt lat="45.723591" lon="3.103015">
      </trkpt>
      <trkpt lat="45.723665" lon="3.102779">
      </trkpt>
      <trkpt lat="45.723874" lon="3.102598">
      </trkpt>
      <trkpt lat="45.724106" lon="3.102555">
      </trkpt>
      <trkpt lat="45.724375" lon="3.102138">
      </trkpt>
      <trkpt lat="45.724622" lon="3.102093">
      </trkpt>
      <trkpt lat="45.724663" lon="3.102045">
      </trkpt>
      <trkpt lat="45.724752" lon="3.102011">
      </trkpt>
      <trkpt lat="45.724963" lon="3.101937">
      </trkpt>
      <trkpt lat="45.725148" lon="3.101847">
      </trkpt>
      <trkpt lat="45.725308" lon="3.101689">
      </trkpt>
      <trkpt lat="45.725413" lon="3.101564">
      </trkpt>
      <trkpt lat="45.725481" lon="3.10147">
      </trkpt>
      <trkpt lat="45.725507" lon="3.101393">
      </trkpt>
      <trkpt lat="45.725751" lon="3.101343">
      </trkpt>
      <trkpt lat="45.725884" lon="3.101326">
      </trkpt>
      <trkpt lat="45.725918" lon="3.101328">
      </trkpt>
      <trkpt lat="45.725952" lon="3.101319">
      </trkpt>
      <trkpt lat="45.72611" lon="3.101265">
      </trkpt>
      <trkpt lat="45.726166" lon="3.101259">
      </trkpt>
      <trkpt lat="45.726278" lon="3.101278">
      </trkpt>
      <trkpt lat="45.726391" lon="3.101261">
      </trkpt>
      <trkpt lat="45.726472" lon="3.101237">
      </trkpt>
      <trkpt lat="45.726551" lon="3.101199">
      </trkpt>
      <trkpt lat="45.726614" lon="3.101179">
      </trkpt>
      <trkpt lat="45.72672" lon="3.101114">
      </trkpt>
      <trkpt lat="45.726845" lon="3.101025">
      </trkpt>
      <trkpt lat="45.727015" lon="3.100884">
      </trkpt>
      <trkpt lat="45.727054" lon="3.100841">
      </trkpt>
      <trkpt lat="45.727141" lon="3.100817">
      </trkpt>
      <trkpt lat="45.72717" lon="3.100816">
      </trkpt>
      <trkpt lat="45.727416" lon="3.100765">
      </trkpt>
      <trkpt lat="45.727495" lon="3.100773">
      </trkpt>
      <trkpt lat="45.727545" lon="3.100789">
      </trkpt>
      <trkpt lat="45.727689" lon="3.100818">
      </trkpt>
      <trkpt lat="45.727838" lon="3.100824">
      </trkpt>
      <trkpt lat="45.728085" lon="3.100825">
      </trkpt>
      <trkpt lat="45.728133" lon="3.100827">
      </trkpt>
      <trkpt lat="45.728266" lon="3.100838">
      </trkpt>
      <trkpt lat="45.728334" lon="3.100835">
      </trkpt>
      <trkpt lat="45.72841" lon="3.100809">
      </trkpt>
      <trkpt lat="45.728486" lon="3.100776">
      </trkpt>
      <trkpt lat="45.728574" lon="3.100709">
      </trkpt>
      <trkpt lat="45.728652" lon="3.100685">
      </trkpt>
      <trkpt lat="45.728712" lon="3.100664">
      </trkpt>
      <trkpt lat="45.728756" lon="3.100653">
      </trkpt>
      <trkpt lat="45.728792" lon="3.100635">
      </trkpt>
      <trkpt lat="45.728912" lon="3.100553">
      </trkpt>
      <trkpt lat="45.729014" lon="3.100481">
      </trkpt>
      <trkpt lat="45.729103" lon="3.100411">
      </trkpt>
      <trkpt lat="45.729229" lon="3.100314">
      </trkpt>
      <trkpt lat="45.729383" lon="3.100228">
      </trkpt>
      <trkpt lat="45.729414" lon="3.100213">
      </trkpt>
      <trkpt lat="45.729497" lon="3.100171">
      </trkpt>
      <trkpt lat="45.729561" lon="3.10014">
      </trkpt>
      <trkpt lat="45.729647" lon="3.100081">
      </trkpt>
      <trkpt lat="45.729628" lon="3.099979">
      </trkpt>
      <trkpt lat="45.729624" lon="3.099847">
      </trkpt>
      <trkpt lat="45.729641" lon="3.099709">
      </trkpt>
      <trkpt lat="45.729692" lon="3.099319">
      </trkpt>
      <trkpt lat="45.729649" lon="3.098969">
      </trkpt>
      <trkpt lat="45.729598" lon="3.098698">
      </trkpt>
      <trkpt lat="45.729601" lon="3.098603">
      </trkpt>
      <trkpt lat="45.729635" lon="3.09852">
      </trkpt>
      <trkpt lat="45.729665" lon="3.098449">
      </trkpt>
      <trkpt lat="45.729709" lon="3.098376">
      </trkpt>
      <trkpt lat="45.729907" lon="3.098142">
      </trkpt>
      <trkpt lat="45.729943" lon="3.098098">
      </trkpt>
      <trkpt lat="45.730138" lon="3.097929">
      </trkpt>
      <trkpt lat="45.730328" lon="3.097756">
      </trkpt>
      <trkpt lat="45.730422" lon="3.097662">
      </trkpt>
      <trkpt lat="45.730494" lon="3.097571">
      </trkpt>
      <trkpt lat="45.730547" lon="3.097539">
      </trkpt>
      <trkpt lat="45.730644" lon="3.097506">
      </trkpt>
      <trkpt lat="45.730892" lon="3.097149">
      </trkpt>
      <trkpt lat="45.731119" lon="3.096826">
      </trkpt>
      <trkpt lat="45.731142" lon="3.096776">
      </trkpt>
      <trkpt lat="45.731289" lon="3.096863">
      </trkpt>
      <trkpt lat="45.73131" lon="3.096808">
      </trkpt>
      <trkpt lat="45.731358" lon="3.096685">
      </trkpt>
      <trkpt lat="45.731764" lon="3.095984">
      </trkpt>
      <trkpt lat="45.732155" lon="3.095352">
      </trkpt>
      <trkpt lat="45.732681" lon="3.09473">
      </trkpt>
      <trkpt lat="45.733079" lon="3.094488">
      </trkpt>
      <trkpt lat="45.733563" lon="3.094008">
      </trkpt>
      <trkpt lat="45.734078" lon="3.093585">
      </trkpt>
      <trkpt lat="45.73425" lon="3.093603">
      </trkpt>
      <trkpt lat="45.734452" lon="3.093839">
      </trkpt>
      <trkpt lat="45.734757" lon="3.094098">
      </trkpt>
      <trkpt lat="45.735039" lon="3.094315">
      </trkpt>
      <trkpt lat="45.735529" lon="3.094658">
      </trkpt>
      <trkpt lat="45.735737" lon="3.094856">
      </trkpt>
      <trkpt lat="45.735827" lon="3.094993">
      </trkpt>
      <trkpt lat="45.735899" lon="3.095101">
      </trkpt>
      <trkpt lat="45.736107" lon="3.095314">
      </trkpt>
      <trkpt lat="45.736454" lon="3.095568">
      </trkpt>
      <trkpt lat="45.736707" lon="3.095657">
      </trkpt>
      <trkpt lat="45.736791" lon="3.09569">
      </trkpt>
      <trkpt lat="45.736922" lon="3.095748">
      </trkpt>
      <trkpt lat="45.737026" lon="3.095811">
      </trkpt>
      <trkpt lat="45.737066" lon="3.095701">
      </trkpt>
      <trkpt lat="45.737096" lon="3.095511">
      </trkpt>
      <trkpt lat="45.73712" lon="3.095447">
      </trkpt>
      <trkpt lat="45.737125" lon="3.095366">
      </trkpt>
      <trkpt lat="45.737145" lon="3.095284">
      </trkpt>
      <trkpt lat="45.73716" lon="3.095179">
      </trkpt>
      <trkpt lat="45.737177" lon="3.095128">
      </trkpt>
      <trkpt lat="45.737193" lon="3.09509">
      </trkpt>
      <trkpt lat="45.73721" lon="3.095067">
      </trkpt>
      <trkpt lat="45.737225" lon="3.095028">
      </trkpt>
      <trkpt lat="45.737244" lon="3.094974">
      </trkpt>
      <trkpt lat="45.737279" lon="3.094822">
      </trkpt>
      <trkpt lat="45.737289" lon="3.094745">
      </trkpt>
      <trkpt lat="45.7373" lon="3.094668">
      </trkpt>
      <trkpt lat="45.737299" lon="3.094616">
      </trkpt>
      <trkpt lat="45.737286" lon="3.094583">
      </trkpt>
      <trkpt lat="45.737299" lon="3.094616">
      </trkpt>
      <trkpt lat="45.7373" lon="3.094668">
      </trkpt>
      <trkpt lat="45.737289" lon="3.094745">
      </trkpt>
      <trkpt lat="45.737279" lon="3.094822">
      </trkpt>
      <trkpt lat="45.737244" lon="3.094974">
      </trkpt>
      <trkpt lat="45.737225" lon="3.095028">
      </trkpt>
      <trkpt lat="45.73721" lon="3.095067">
      </trkpt>
      <trkpt lat="45.737193" lon="3.09509">
      </trkpt>
      <trkpt lat="45.737177" lon="3.095128">
      </trkpt>
      <trkpt lat="45.73716" lon="3.095179">
      </trkpt>
      <trkpt lat="45.737145" lon="3.095284">
      </trkpt>
      <trkpt lat="45.737125" lon="3.095366">
      </trkpt>
      <trkpt lat="45.73712" lon="3.095447">
      </trkpt>
      <trkpt lat="45.737096" lon="3.095511">
      </trkpt>
      <trkpt lat="45.737066" lon="3.095701">
      </trkpt>
      <trkpt lat="45.737026" lon="3.095811">
      </trkpt>
      <trkpt lat="45.737084" lon="3.095847">
      </trkpt>
      <trkpt lat="45.73726" lon="3.095962">
      </trkpt>
      <trkpt lat="45.737431" lon="3.096045">
      </trkpt>
      <trkpt lat="45.737706" lon="3.096162">
      </trkpt>
      <trkpt lat="45.737802" lon="3.096191">
      </trkpt>
      <trkpt lat="45.73783" lon="3.0962">
      </trkpt>
      <trkpt lat="45.737943" lon="3.096188">
      </trkpt>
      <trkpt lat="45.738039" lon="3.096153">
      </trkpt>
      <trkpt lat="45.738137" lon="3.096068">
      </trkpt>
      <trkpt lat="45.73821" lon="3.095916">
      </trkpt>
      <trkpt lat="45.738245" lon="3.09574">
      </trkpt>
      <trkpt lat="45.738264" lon="3.09549">
      </trkpt>
      <trkpt lat="45.738272" lon="3.095273">
      </trkpt>
      <trkpt lat="45.738271" lon="3.094926">
      </trkpt>
      <trkpt lat="45.738276" lon="3.094629">
      </trkpt>
      <trkpt lat="45.738259" lon="3.094495">
      </trkpt>
      <trkpt lat="45.738196" lon="3.094272">
      </trkpt>
      <trkpt lat="45.738151" lon="3.094155">
      </trkpt>
      <trkpt lat="45.738046" lon="3.093979">
      </trkpt>
      <trkpt lat="45.737966" lon="3.093864">
      </trkpt>
      <trkpt lat="45.737891" lon="3.093728">
      </trkpt>
      <trkpt lat="45.737809" lon="3.093569">
      </trkpt>
      <trkpt lat="45.737732" lon="3.09344">
      </trkpt>
      <trkpt lat="45.737664" lon="3.093261">
      </trkpt>
      <trkpt lat="45.737621" lon="3.093116">
      </trkpt>
      <trkpt lat="45.737563" lon="3.092926">
      </trkpt>
      <trkpt lat="45.737504" lon="3.092717">
      </trkpt>
      <trkpt lat="45.737459" lon="3.092626">
      </trkpt>
      <trkpt lat="45.737384" lon="3.092532">
      </trkpt>
      <trkpt lat="45.737206" lon="3.09237">
      </trkpt>
      <trkpt lat="45.737084" lon="3.092246">
      </trkpt>
      <trkpt lat="45.736962" lon="3.092075">
      </trkpt>
      <trkpt lat="45.73685" lon="3.091896">
      </trkpt>
      <trkpt lat="45.736828" lon="3.091863">
      </trkpt>
      <trkpt lat="45.736765" lon="3.091763">
      </trkpt>
      <trkpt lat="45.736819" lon="3.091698">
      </trkpt>
      <trkpt lat="45.736903" lon="3.091594">
      </trkpt>
      <trkpt lat="45.736965" lon="3.091474">
      </trkpt>
      <trkpt lat="45.737138" lon="3.091064">
      </trkpt>
      <trkpt lat="45.737139" lon="3.091012">
      </trkpt>
      <trkpt lat="45.737215" lon="3.090984">
      </trkpt>
      <trkpt lat="45.737274" lon="3.090931">
      </trkpt>
      <trkpt lat="45.737361" lon="3.090836">
      </trkpt>
      <trkpt lat="45.737472" lon="3.090726">
      </trkpt>
      <trkpt lat="45.737574" lon="3.09065">
      </trkpt>
      <trkpt lat="45.737664" lon="3.090592">
      </trkpt>
      <trkpt lat="45.737727" lon="3.090565">
      </trkpt>
      <trkpt lat="45.737824" lon="3.090529">
      </trkpt>
      <trkpt lat="45.737905" lon="3.09043">
      </trkpt>
      <trkpt lat="45.73796" lon="3.090282">
      </trkpt>
      <trkpt lat="45.737973" lon="3.090248">
      </trkpt>
      <trkpt lat="45.738054" lon="3.090024">
      </trkpt>
      <trkpt lat="45.738006" lon="3.08978">
      </trkpt>
      <trkpt lat="45.738009" lon="3.089646">
      </trkpt>
      <trkpt lat="45.738012" lon="3.089278">
      </trkpt>
      <trkpt lat="45.738039" lon="3.089135">
      </trkpt>
      <trkpt lat="45.738108" lon="3.089146">
      </trkpt>
      <trkpt lat="45.738401" lon="3.089102">
      </trkpt>
      <trkpt lat="45.738588" lon="3.089034">
      </trkpt>
      <trkpt lat="45.738861" lon="3.088937">
      </trkpt>
      <trkpt lat="45.739063" lon="3.088863">
      </trkpt>
      <trkpt lat="45.73931" lon="3.088773">
      </trkpt>
      <trkpt lat="45.739581" lon="3.088665">
      </trkpt>
      <trkpt lat="45.739679" lon="3.088562">
      </trkpt>
      <trkpt lat="45.739704" lon="3.08822">
      </trkpt>
      <trkpt lat="45.739739" lon="3.088185">
      </trkpt>
      <trkpt lat="45.739776" lon="3.088157">
      </trkpt>
      <trkpt lat="45.739795" lon="3.088139">
      </trkpt>
      <trkpt lat="45.739864" lon="3.088096">
      </trkpt>
      <trkpt lat="45.739962" lon="3.088049">
      </trkpt>
      <trkpt lat="45.74001" lon="3.088011">
      </trkpt>
      <trkpt lat="45.740073" lon="3.087962">
      </trkpt>
      <trkpt lat="45.740121" lon="3.087903">
      </trkpt>
      <trkpt lat="45.740164" lon="3.087821">
      </trkpt>
      <trkpt lat="45.740207" lon="3.087795">
      </trkpt>
      <trkpt lat="45.740249" lon="3.087772">
      </trkpt>
      <trkpt lat="45.740303" lon="3.087739">
      </trkpt>
      <trkpt lat="45.740419" lon="3.08774">
      </trkpt>
      <trkpt lat="45.740635" lon="3.087777">
      </trkpt>
      <trkpt lat="45.740856" lon="3.087819">
      </trkpt>
      <trkpt lat="45.741005" lon="3.087879">
      </trkpt>
      <trkpt lat="45.741203" lon="3.087944">
      </trkpt>
      <trkpt lat="45.74163" lon="3.088108">
      </trkpt>
      <trkpt lat="45.741803" lon="3.088163">
      </trkpt>
      <trkpt lat="45.742617" lon="3.088391">
      </trkpt>
      <trkpt lat="45.742819" lon="3.088445">
      </trkpt>
      <trkpt lat="45.742985" lon="3.08849">
      </trkpt>
      <trkpt lat="45.743354" lon="3.08858">
      </trkpt>
      <trkpt lat="45.743556" lon="3.088635">
      </trkpt>
      <trkpt lat="45.743863" lon="3.088686">
      </trkpt>
      <trkpt lat="45.74421" lon="3.088724">
      </trkpt>
      <trkpt lat="45.744398" lon="3.088744">
      </trkpt>
      <trkpt lat="45.744467" lon="3.088752">
      </trkpt>
      <trkpt lat="45.744525" lon="3.088868">
      </trkpt>
      <trkpt lat="45.744596" lon="3.088991">
      </trkpt>
      <trkpt lat="45.744667" lon="3.089079">
      </trkpt>
      <trkpt lat="45.744711" lon="3.089016">
      </trkpt>
      <trkpt lat="45.744754" lon="3.088957">
      </trkpt>
      <trkpt lat="45.745035" lon="3.088534">
      </trkpt>
      <trkpt lat="45.745289" lon="3.088172">
      </trkpt>
      <trkpt lat="45.745368" lon="3.088059">
      </trkpt>
      <trkpt lat="45.74544" lon="3.087957">
      </trkpt>
      <trkpt lat="45.745465" lon="3.088003">
      </trkpt>
      <trkpt lat="45.74549" lon="3.088027">
      </trkpt>
      <trkpt lat="45.745529" lon="3.088044">
      </trkpt>
      <trkpt lat="45.745563" lon="3.088043">
      </trkpt>
      <trkpt lat="45.745602" lon="3.088024">
      </trkpt>
      <trkpt lat="45.745634" lon="3.087986">
      </trkpt>
      <trkpt lat="45.745651" lon="3.087949">
      </trkpt>
      <trkpt lat="45.745663" lon="3.087892">
      </trkpt>
      <trkpt lat="45.74566" lon="3.087833">
      </trkpt>
      <trkpt lat="45.745649" lon="3.087794">
      </trkpt>
      <trkpt lat="45.745779" lon="3.087723">
      </trkpt>
      <trkpt lat="45.745893" lon="3.08765">
      </trkpt>
      <trkpt lat="45.746132" lon="3.087444">
      </trkpt>
      <trkpt lat="45.746186" lon="3.08738">
      </trkpt>
      <trkpt lat="45.746272" lon="3.087648">
      </trkpt>
      <trkpt lat="45.74635" lon="3.087907">
      </trkpt>
      <trkpt lat="45.746431" lon="3.088175">
      </trkpt>
      <trkpt lat="45.746678" lon="3.0881">
      </trkpt>
      <trkpt lat="45.746844" lon="3.089062">
      </trkpt>
      <trkpt lat="45.746948" lon="3.08909">
      </trkpt>
      <trkpt lat="45.747058" lon="3.089148">
      </trkpt>
      <trkpt lat="45.747002" lon="3.089239">
      </trkpt>
      <trkpt lat="45.747075" lon="3.089802">
      </trkpt>
      <trkpt lat="45.747177" lon="3.090757">
      </trkpt>
      <trkpt lat="45.747064" lon="3.091005">
      </trkpt>
      <trkpt lat="45.746742" lon="3.091081">
      </trkpt>
      <trkpt lat="45.746682" lon="3.091153">
      </trkpt>
      <trkpt lat="45.746648" lon="3.091221">
      </trkpt>
      <trkpt lat="45.746647" lon="3.091296">
      </trkpt>
      <trkpt lat="45.746671" lon="3.091388">
      </trkpt>
      <trkpt lat="45.74688" lon="3.091884">
      </trkpt>
      <trkpt lat="45.747188" lon="3.092345">
      </trkpt>
      <trkpt lat="45.74757" lon="3.092625">
      </trkpt>
      <trkpt lat="45.74764" lon="3.092739">
      </trkpt>
      <trkpt lat="45.747798" lon="3.092989">
      </trkpt>
      <trkpt lat="45.747843" lon="3.092944">
      </trkpt>
      <trkpt lat="45.747898" lon="3.092915">
      </trkpt>
      <trkpt lat="45.747959" lon="3.092914">
      </trkpt>
      <trkpt lat="45.748018" lon="3.092941">
      </trkpt>
      <trkpt lat="45.748042" lon="3.092959">
      </trkpt>
      <trkpt lat="45.74818" lon="3.093084">
      </trkpt>
      <trkpt lat="45.748148" lon="3.093145">
      </trkpt>
      <trkpt lat="45.748103" lon="3.093215">
      </trkpt>
      <trkpt lat="45.748076" lon="3.093241">
      </trkpt>
      <trkpt lat="45.748035" lon="3.09328">
      </trkpt>
      <trkpt lat="45.747973" lon="3.093276">
      </trkpt>
    </trkseg>
  </trk>
</gpx>